PK;NOMBRE;DESCRIPCION-ENTIDAD;HORARIO;EQUIPAMIENTO;TRANSPORTE;DESCRIPCION;ACCESIBILIDAD;CONTENT-URL;NOMBRE-VIA;CLASE-VIAL;TIPO-NUM;NUM;PLANTA;PUERTA;ESCALERAS;ORIENTACION;LOCALIDAD;PROVINCIA;CODIGO-POSTAL;BARRIO;DISTRITO;COORDENADA-X;COORDENADA-Y;LATITUD;LONGITUD;TELEFONO;FAX;EMAIL;TIPO;
19487;"Mercadillo en la via publica UVA Hortaleza (Distrito Hortaleza)";"";"Domingos de 9 a 14 horas";"";"Metro: Hortaleza (linea 4)  Bus: 9, 107, 172";"";"0";"http://www.madrid.es/sites/v/index.jsp?vgnextchannel=9e4c43db40317010VgnVCM100000dc0ca8c0RCRD&vgnextoid=f75f92355c51c010VgnVCM2000000c205a0aRCRD";"ESTACION DE HORTALEZA";"CARRETERA";"V";"16";"";"";"";"";"MADRID";"MADRID";"28033";"PINAR DEL REY";"HORTALEZA";"444883";"4481388";"40.479473210968706";"-3.6515575746954614";"";"";"";"/contenido/entidadesYorganismos/Comercios/MercadillosViaPublica"; 
19633;"Mercadillo en la via publica de Camino de las Cruces (Distrito Carabanchel)";"";"Lunes de 9 a 14 horas, excepto festivos.";"";"Metro: Carabanchel Alto,  La Peseta (linea 11)  Bus: 34, 35, 47, 139";"";"0";"http://www.madrid.es/sites/v/index.jsp?vgnextchannel=9e4c43db40317010VgnVCM100000dc0ca8c0RCRD&vgnextoid=65bf92355c51c010VgnVCM2000000c205a0aRCRD";"CRUCES";"CAMINO";"V";"6";"";"";"";"";"MADRID";"MADRID";"28044";"BUENAVISTA";"CARABANCHEL";"435981";"4469825";"40.37467890972045";"-3.7554092617091417";"";"";"";"/contenido/entidadesYorganismos/Comercios/MercadillosViaPublica"; 
19542;"Mercadillo en la via publica de El Pardo (Distrito Fuencarral - El Pardo)";"";"Viernes de 9 a 14 horas";"";"Bus: linea 601 (empresa Alacuber)";"";"0";"http://www.madrid.es/sites/v/index.jsp?vgnextchannel=9e4c43db40317010VgnVCM100000dc0ca8c0RCRD&vgnextoid=18cf92355c51c010VgnVCM2000000c205a0aRCRD";"SAN LEANDRO";"CALLE";"V";"9";"";"";"";"";"MADRID";"MADRID";"28048";"EL PARDO";"FUENCARRAL-EL PARDO";"434399";"4485736";"40.51788643866983";"-3.7756892543609064";"";"";"";"/contenido/entidadesYorganismos/Comercios/MercadillosViaPublica"; 
19629;"Mercadillo en la via publica de Orcasur (Distrito Usera)";"";"Sabados de 9 a 14 horas";"";"Bus: 76, 78, 81, 116, 121  Metro: San Fermin (linea 3)  Renfe: Orcasitas (C-5)";"";"0";"http://www.madrid.es/sites/v/index.jsp?vgnextchannel=9e4c43db40317010VgnVCM100000dc0ca8c0RCRD&vgnextoid=9d5092355c51c010VgnVCM2000000c205a0aRCRD";"ORCASUR";"AVENIDA";"V";"60";"";"";"";"";"MADRID";"MADRID";"28041";"ORCASUR";"USERA";"440669";"4469052";"40.36806275578338";"-3.7001297500715613";"";"";"";"/contenido/entidadesYorganismos/Comercios/MercadillosViaPublica"; 
63209;"Mercadillo en la via publica de Parque de la Cornisa (Distrito Centro)";"";"Todos los martes y sabados no festivos de 9 a 14 horas";"";"Metro: Puerta de Toledo (linea 5)  Bus: 3, 41, 60, 148, C1, C2";"";"0";"http://www.madrid.es/sites/v/index.jsp?vgnextchannel=9e4c43db40317010VgnVCM100000dc0ca8c0RCRD&vgnextoid=68f2e7510551c010VgnVCM2000000c205a0aRCRD";"CAMPILLO DEL MUNDO NUEVO";"PLAZA";"V";"3";"";"";"";"B";"MADRID";"MADRID";"28005";"EMBAJADORES";"CENTRO";"440036";"4473319";"40.40644768286364";"-3.707987344713689";"";"";"";"/contenido/entidadesYorganismos/Comercios/MercadillosViaPublica"; 
19529;"Mercadillo en la via publica de Rafael Finat (Distrito Latina)";"";"Sabados de 9 a 14 horas";"";"Metro: Aluche (linea 5)  Bus: 17, 31, 117, 121, 131, 138, 139, 155  Renfe: Aluche (C-5)";"";"0";"http://www.madrid.es/sites/v/index.jsp?vgnextchannel=9e4c43db40317010VgnVCM100000dc0ca8c0RCRD&vgnextoid=d21092355c51c010VgnVCM2000000c205a0aRCRD";"POBLADOS";"AVENIDA";"V";"62";"";"";"";"";"MADRID";"MADRID";"28044";"LAS AGUILAS";"LATINA";"435498";"4470965";"40.38491112027893";"-3.7612257496008246";"";"";"";"/contenido/entidadesYorganismos/Comercios/MercadillosViaPublica"; 
19476;"Mercadillo en la via publica de San Cristobal de los angeles (Distrito Villaverde)";"";"Jueves de 9 a 14 horas";"";"Bus: 59 , 79  Metro: San Cristobal (linea 3)  Renfe: San Cristobal de los angeles (C-3)";"";"0";"http://www.madrid.es/sites/v/index.jsp?vgnextchannel=9e4c43db40317010VgnVCM100000dc0ca8c0RCRD&vgnextoid=a59092355c51c010VgnVCM2000000c205a0aRCRD";"BURJASOT";"CALLE";"V";"1";"";"";"";"A";"MADRID";"MADRID";"28021";"SAN CRISTOBAL";"VILLAVERDE";"441773";"4466431";"40.34452019989438";"-3.686887364713823";"";"";"";"/contenido/entidadesYorganismos/Comercios/MercadillosViaPublica"; 
19536;"Mercadillo en la via publica de San Restituto (Distrito Moncloa-Aravaca)";"";"Jueves de 9 a 14 horas";"";"Metro: Valdezarza (linea 7)  Bus: 126, 127, 128, 132";"";"0";"http://www.madrid.es/sites/v/index.jsp?vgnextchannel=9e4c43db40317010VgnVCM100000dc0ca8c0RCRD&vgnextoid=58a092355c51c010VgnVCM2000000c205a0aRCRD";"SAN RESTITUTO";"CALLE";"V";"24";"";"";"";"";"MADRID";"MADRID";"28039";"VALDEZARZA";"MONCLOA-ARAVACA";"439758";"4479822";"40.46500944601515";"-3.7118692033210126";"";"";"";"/contenido/entidadesYorganismos/Comercios/MercadillosViaPublica"; 
19484;"Mercadillo en la via publica de Santa Ana (Distrito Fuencarral - El Pardo)";"";"Miercoles de 9 a 14 horas";"";"Metro: Fuencarral (linea 10)  Bus: 66, 137";"";"0";"http://www.madrid.es/sites/v/index.jsp?vgnextchannel=9e4c43db40317010VgnVCM100000dc0ca8c0RCRD&vgnextoid=0bb092355c51c010VgnVCM2000000c205a0aRCRD";"SAN CUGAT DEL VALLES";"CALLE";"V";"8";"";"";"";"";"MADRID";"MADRID";"28034";"VALVERDE";"FUENCARRAL-EL PARDO";"441190";"4483349";"40.496893825424046";"-3.6953071080027495";"";"";"";"/contenido/entidadesYorganismos/Comercios/MercadillosViaPublica"; 
19491;"Mercadillo en la via publica de Villaverde Alto";"";"Sabados de 9 a 14 horas";"";"Bus: 22, 76  Renfe: Puente Alcocer (C-5)";"";"0";"http://www.madrid.es/sites/v/index.jsp?vgnextchannel=9e4c43db40317010VgnVCM100000dc0ca8c0RCRD&vgnextoid=c50192355c51c010VgnVCM2000000c205a0aRCRD";"FERROVIARIOS";"PASEO";"V";"2";"";"";"";"";"MADRID";"MADRID";"28021";"SAN ANDRES";"VILLAVERDE";"439313";"4466769";"40.34738953464962";"-3.715870883860481";"";"";"";"/contenido/entidadesYorganismos/Comercios/MercadillosViaPublica"; 
19489;"Mercadillo en la via publica de Via Lusitana (Distrito Carabanchel)";"";"Jueves de 9 a 14 horas, excepto festivos.";"";"Metro: Plaza Eliptica (lineas 6, 11)  Bus: 47, 55, 60, 81, 116, 155, 247";"";"0";"http://www.madrid.es/sites/v/index.jsp?vgnextchannel=9e4c43db40317010VgnVCM100000dc0ca8c0RCRD&vgnextoid=13f092355c51c010VgnVCM2000000c205a0aRCRD";"VIA LUSITANA";"CALLE";"V";"2";"";"";"";"";"MADRID";"MADRID";"28025";"ABRANTES";"CARABANCHEL";"438924";"4470755";"40.38322268627912";"-3.7210449941102177";"";"";"";"/contenido/entidadesYorganismos/Comercios/MercadillosViaPublica"; 
19548;"Mercadillo en la via publica de avenida de Asturias (Distrito Tetuan)";"";"Domingos y festivos, de 9 a 14 horas";"";"Metro: Plaza de Castilla (lineas 1, 9, 10), Ventilla (linea 9)  Bus: 5, 27, 42, 49, 66, 67, 70, 107, 124, 129, 134, 135,  147, 149, 173, 174, 176, 177, 178";"Avenida de Asturias (Entre San Aquilino y Via Limite).";"0";"http://www.madrid.es/sites/v/index.jsp?vgnextchannel=9e4c43db40317010VgnVCM100000dc0ca8c0RCRD&vgnextoid=ea4092355c51c010VgnVCM2000000c205a0aRCRD";"ASTURIAS";"AVENIDA";"V";"2";"";"";"";"";"MADRID";"MADRID";"28029";"ALMENARA";"TETUAN";"441596";"4480015";"40.46687948276402";"-3.690220214214766";"";"";"";"/contenido/entidadesYorganismos/Comercios/MercadillosViaPublica"; 
21200;"Mercadillo en la via publica de avenida de Felipe II (Distrito Salamanca)";"";"";"";"Metro: Goya  (lineas 2, 4)  Bus: 15, 21, 26, 29, 30, 43, 53, 61, 63, 146, 152, 215, C1, E2, E3, E4";"";"0";"http://www.madrid.es/sites/v/index.jsp?vgnextchannel=9e4c43db40317010VgnVCM100000dc0ca8c0RCRD&vgnextoid=009f92355c51c010VgnVCM2000000c205a0aRCRD";"FELIPE II";"AVENIDA";"V";"";"";"";"";"";"MADRID";"MADRID";"28009";"GOYA";"SALAMANCA";"442750";"4475279";"40.42429581104769";"-3.6761810611835473";"";"";"";"/contenido/entidadesYorganismos/Comercios/MercadillosViaPublica"; 
19732;"Mercadillo en la via publica de la calle Alcorisa - camino Silvano (Distrito Hortaleza)";"";"Martes de 9 a 14 horas.";"";"Metro: Canillas (linea 4)  Bus: 112, 120, 122, 153";"";"0";"http://www.madrid.es/sites/v/index.jsp?vgnextchannel=9e4c43db40317010VgnVCM100000dc0ca8c0RCRD&vgnextoid=cadf92355c51c010VgnVCM2000000c205a0aRCRD";"SILVANO";"CALLE";"V";"71";"";"";"";"";"MADRID";"MADRID";"28043";"CANILLAS";"HORTALEZA";"445812";"4479381";"40.46145434282499";"-3.6404378797404813";"";"";"";"/contenido/entidadesYorganismos/Comercios/MercadillosViaPublica"; 
19734;"Mercadillo en la via publica de la calle Aragoneses (Distrito Puente Vallecas)";"";"Lunes de 9 a 14 horas";"";"Bus: 10, 144, 310";"";"0";"http://www.madrid.es/sites/v/index.jsp?vgnextchannel=9e4c43db40317010VgnVCM100000dc0ca8c0RCRD&vgnextoid=aa6f92355c51c010VgnVCM2000000c205a0aRCRD";"ARAGONESES";"CALLE";"V";"1";"";"";"";"";"MADRID";"MADRID";"28018";"PALOMERAS SURESTE";"PUENTE DE VALLECAS";"445452";"4470602";"40.38234447287553";"-3.643929214820054";"S/T";"";"";"/contenido/entidadesYorganismos/Comercios/MercadillosViaPublica"; 
19731;"Mercadillo en la via publica de la calle Ayerbe (Distrito Barajas)";"";"Sabados de 9 a 14 horas. Excepto durante las fiestas del distrito que se celebran en septiembre.";"";"Bus: 105, 112, 115";"";"0";"http://www.madrid.es/sites/v/index.jsp?vgnextchannel=9e4c43db40317010VgnVCM100000dc0ca8c0RCRD&vgnextoid=b2af92355c51c010VgnVCM2000000c205a0aRCRD";"AYERBE";"CALLE";"V";"22";"";"";"";"";"MADRID";"MADRID";"28042";"AEROPUERTO";"BARAJAS";"451158";"4480396";"40.470939251480736";"-3.5774640906620263";"";"";"";"/contenido/entidadesYorganismos/Comercios/MercadillosViaPublica"; 
19549;"Mercadillo en la via publica de la calle Fontarron (Distrito Puente de Vallecas)";"";"Jueves de 9 a 14 horas";"";"Bus: 54, 63, 141, 143, 145";"";"0";"http://www.madrid.es/sites/v/index.jsp?vgnextchannel=9e4c43db40317010VgnVCM100000dc0ca8c0RCRD&vgnextoid=7def92355c51c010VgnVCM2000000c205a0aRCRD";"RAMON PEREZ DE AYALA";"CALLE";"V";"17";"";"";"";"";"MADRID";"MADRID";"28038";"NUMANCIA";"PUENTE DE VALLECAS";"444870";"4472439";"40.39885490923299";"-3.650944698027474";"";"";"";"/contenido/entidadesYorganismos/Comercios/MercadillosViaPublica"; 
19547;"Mercadillo en la via publica de la calle Gandhi (Distrito Ciudad Lineal)";"";"Viernes de 9 a 14 horas";"";"Metro: Garcia Noblejas (linea 7)  Bus: 70, 106, 109";"";"0";"http://www.madrid.es/sites/v/index.jsp?vgnextchannel=9e4c43db40317010VgnVCM100000dc0ca8c0RCRD&vgnextoid=200092355c51c010VgnVCM2000000c205a0aRCRD";"GANDHI";"CALLE";"V";"16";"";"";"";"";"MADRID";"MADRID";"28017";"PUEBLO NUEVO";"CIUDAD LINEAL";"446334";"4475248";"40.424255982276584";"-3.6339196583262754";"";"";"";"/contenido/entidadesYorganismos/Comercios/MercadillosViaPublica"; 
19736;"Mercadillo en la via publica de la calle Gorrion (Distrito Carabanchel)";"";"Lunes de 9 a 14 horas, excepto festivos.";"";"Metro: Urgel (linea 5)  Bus: 17, 25, 119";"";"0";"http://www.madrid.es/sites/v/index.jsp?vgnextchannel=9e4c43db40317010VgnVCM100000dc0ca8c0RCRD&vgnextoid=852092355c51c010VgnVCM2000000c205a0aRCRD";"VICENTE QUESADA";"CALLE";"V";"4";"";"";"";"";"MADRID";"MADRID";"28019";"SAN ISIDRO";"CARABANCHEL";"438146";"4472277";"40.396922359390835";"-3.730158356659085";"";"";"";"/contenido/entidadesYorganismos/Comercios/MercadillosViaPublica"; 
19531;"Mercadillo en la via publica de la calle San Roman del Valle (Distrito San Blas - Canillejas)";"";"Martes de 9 a 14 horas";"";"Bus: 4, 38, 48, 106, 140";"";"0";"http://www.madrid.es/sites/v/index.jsp?vgnextchannel=9e4c43db40317010VgnVCM100000dc0ca8c0RCRD&vgnextoid=5d7f92355c51c010VgnVCM2000000c205a0aRCRD";"SAN ROMAN DEL VALLE";"CALLE";"V";"8";"";"";"";"";"MADRID";"MADRID";"28037";"ARCOS";"SAN BLAS-CANILLEJAS";"447365";"4474799";"40.42027705095574";"-3.621741078700336";"";"";"";"/contenido/entidadesYorganismos/Comercios/MercadillosViaPublica"; 
19537;"Mercadillo en la via publica de la calle Santa Genoveva (Distrito Ciudad Lineal)";"";"Jueves y sabados de 9 a 14 horas, excepto durante las fiestas del distrito celebradas durante dos semanas de septiembre.";"";"Metro: La Elipa (linea 2)  Bus: 15, 28, 106, 110, 113, 210";"";"0";"http://www.madrid.es/sites/v/index.jsp?vgnextchannel=9e4c43db40317010VgnVCM100000dc0ca8c0RCRD&vgnextoid=bdc092355c51c010VgnVCM2000000c205a0aRCRD";"TRECE ROSAS";"AVENIDA";"V";"9";"";"";"";"";"MADRID";"MADRID";"28017";"VENTAS";"CIUDAD LINEAL";"445216";"4475480";"40.42627295716398";"-3.6471182978336296";"";"";"";"/contenido/entidadesYorganismos/Comercios/MercadillosViaPublica"; 
19486;"Mercadillo en la via publica de la calle Sierra Gorda (Distrito Villa de Vallecas)";"";"Martes de 9 a 14 horas";"";"Metro: Villa de Vallecas (linea 1)  Bus: 54, 58, 103, 130, 142, 143";"";"0";"http://www.madrid.es/sites/v/index.jsp?vgnextchannel=9e4c43db40317010VgnVCM100000dc0ca8c0RCRD&vgnextoid=60e092355c51c010VgnVCM2000000c205a0aRCRD";"SIERRA GORDA";"CALLE";"V";"31";"";"";"";"";"MADRID";"MADRID";"28031";"SANTA EUGENIA";"VILLA DE VALLECAS";"447741";"4470446";"40.38109513840808";"-3.6169511425751266";"";"";"";"/contenido/entidadesYorganismos/Comercios/MercadillosViaPublica"; 
19550;"Mercadillo en la via publica de la calle Villablanca (Distrito Vicalvaro)";"";"Jueves de 9 a 14 horas, excepto jueves santo y fiestas del Distrito (celebradas en junio)";"";"Metro: Puerta de Arganda (Linea 9), San Cipriano (linea 9)  Bus: 4, 71, 100, 106";"";"0";"http://www.madrid.es/sites/v/index.jsp?vgnextchannel=9e4c43db40317010VgnVCM100000dc0ca8c0RCRD&vgnextoid=f28092355c51c010VgnVCM2000000c205a0aRCRD";"VILLABLANCA";"CALLE";"V";"87";"";"";"";"";"MADRID";"MADRID";"28032";"AMBROZ";"VICALVARO";"449367";"4473100";"40.40509588019403";"-3.597996097245818";"";"";"";"/contenido/entidadesYorganismos/Comercios/MercadillosViaPublica"; 
19530;"Mercadillo en la via publica de la colonia Ciudad de los angeles (Distrito Villaverde)";"";"Jueves de 9 a 14 horas";"";"Metro: Ciudad de los Angeles, Cruce de Villaverde  (linea 3)  Bus: 18, 22, 59, 79, 85, 86, 116";"";"0";"http://www.madrid.es/sites/v/index.jsp?vgnextchannel=9e4c43db40317010VgnVCM100000dc0ca8c0RCRD&vgnextoid=383092355c51c010VgnVCM2000000c205a0aRCRD";"GIGANTES Y CABEZUDOS";"PASEO";"V";"54";"";"";"";"";"MADRID";"MADRID";"28041";"LOS ANGELES";"VILLAVERDE";"441190";"4467544";"40.35451487853377";"-3.6938424734230515";"";"";"";"/contenido/entidadesYorganismos/Comercios/MercadillosViaPublica"; 
181296;"Mercadillo en la via publica de la colonia Marconi (Distrito Villaverde)";"";"Domingos de 9 a 14 horas";"";"Bus: 79, T41  Renfe Cercanias: San Cristobal Industrial (C-3)";"";"0";"http://www.madrid.es/sites/v/index.jsp?vgnextchannel=9e4c43db40317010VgnVCM100000dc0ca8c0RCRD&vgnextoid=96645c2cdc41c010VgnVCM2000000c205a0aRCRD";"SAN EUSTAQUIO";"CALLE";"V";"29";"";"";"";"";"MADRID";"MADRID";"28021";"SAN ANDRES";"VILLAVERDE";"440556";"4465129";"40.33271410365036";"-3.701082788141882";"";"";"";"/contenido/entidadesYorganismos/Comercios/MercadillosViaPublica"; 
19631;"Mercadillo en la via publica de ronda del Sur (Distrito Puente de Vallecas)";"";"Domingos de 9 a 14 horas";"";"Bus: 24, 102, 103, 111";"";"0";"http://www.madrid.es/sites/v/index.jsp?vgnextchannel=9e4c43db40317010VgnVCM100000dc0ca8c0RCRD&vgnextoid=407092355c51c010VgnVCM2000000c205a0aRCRD";"SUR";"RONDA";"V";"231";"";"";"";"";"MADRID";"MADRID";"28053";"ENTREVIAS";"PUENTE DE VALLECAS";"443812";"4469646";"40.37362311563833";"-3.6631527179191012";"";"";"";"/contenido/entidadesYorganismos/Comercios/MercadillosViaPublica"; 
21199;"Mercadillo en la via publica. El Rastro";"";"Todos los domingos y festivos de 9 a 15 horas";"";"Metro: Tirso de Molina (linea 1), Embajadores (linea 3), La Latina (linea 5)  Bus: 3, 17, 18, 23, 35, 41, 60, 148, C1, C2  Renfe: Embajadores (C-5)";"Instalado en Plaza de Cascorro, entre Calle San Millan y Ribera de Curtidores y entre Calle Embajadores hasta la esquina con Calle Encomienda - Ribera de Curtidores - Calle Amazonas - Plaza General Vara de Rey - Calle Rodrigo de Guevara - Calle Mira el Rio Alta, entre Calle Carlos Arniches y Calle Bastero - Calle Carnero, entre Ribera de Curtidores y Calle Mira el Rio Baja - Callejon del Mellizo - Calle Carlos Arniches - Calle Mira el Rio Baja - Calle San Cayetano, desde numero 4 hasta Ribera de Curtidores - Calle Fray Ceferino Gonzalez, hasta los numeros 9 y 10, inclusives - Calle Mira el Sol, entre Plaza Campillo del Nuevo Mundo y Ribera de Curtidores - Ronda de Toledo, desde Colegio Publico Santa Maria 193 m. lineales en la acera de los impares - Plaza Campillo del Mundo Nuevo - Calle Ribera de Curtidores - Calle Maldonadas en la acera de los impares .  El Rastro en dias laborables abre todos sus comercios, anticuarios y galerias, pero no sus puestos callejeros";"0";"http://www.madrid.es/sites/v/index.jsp?vgnextchannel=9e4c43db40317010VgnVCM100000dc0ca8c0RCRD&vgnextoid=781192355c51c010VgnVCM2000000c205a0aRCRD";"RIBERA DE CURTIDORES";"CALLE";"V";"19";"";"";"";"";"MADRID";"MADRID";"28005";"EMBAJADORES";"CENTRO";"440106";"4473558";"40.408614766057475";"-3.7071850660071277";"";"";"";"/contenido/entidadesYorganismos/Comercios/MercadillosViaPublica";
