nombre,sameAs,direccion,distrito,distri_url,latitud,longitud,telefono,infoUrl
Asamblea Cristiana de Madrid,,calle alora 7,Puente de Vallecas,http://dbpedia.org/resource/Puente_de_Vallecas,40.386.040.079.971.300,-364.034.744.917.085,,http://www.madrid.es/sites/v/index.jsp?vgnextchannel=9e4c43db40317010VgnVCM100000dc0ca8c0RCRD&vgnextoid=03758105e2260410VgnVCM2000000c205a0aRCRD
Asociacion Betel,,calle antonia rodriguez sacristan 8,Carabanchel,http://dbpedia.org/resource/Carabanchel,40.372.799.948.839.900,-3.745.081.414.178.660,,http://www.madrid.es/sites/v/index.jsp?vgnextchannel=9e4c43db40317010VgnVCM100000dc0ca8c0RCRD&vgnextoid=9de076172d71c010VgnVCM1000000b205a0aRCRD
Asociacion Darse - Dar Ayuda para la Reinsercion Social España,,camino alto de san isidro 16,Carabanchel,http://dbpedia.org/resource/Carabanchel,403.964.910.317.842,-372.281.263.104.335,676247792,http://www.madrid.es/sites/v/index.jsp?vgnextchannel=9e4c43db40317010VgnVCM100000dc0ca8c0RCRD&vgnextoid=358393b8cb901110VgnVCM2000000c205a0aRCRD
Catedral Anglicana de Madrid,,calle beneficencia 18,Centro (Madrid),http://dbpedia.org/resource/Centro_(Madrid),4.042.635.120.982.080,-3.698.682.579.292.040,914 452 560 / 609 876 913,http://www.madrid.es/sites/v/index.jsp?vgnextchannel=9e4c43db40317010VgnVCM100000dc0ca8c0RCRD&vgnextoid=94ef13db5b71c010VgnVCM1000000b205a0aRCRD
Catedral Ortodoxa Griega,,calle nicaragua 12,CHAMARTIN,http://dbpedia.org/page/Chamartin_(Madrid),4.045.754.917.910.680,-3.672.905.343.222.740,913 454 085,http://www.madrid.es/sites/v/index.jsp?vgnextchannel=9e4c43db40317010VgnVCM100000dc0ca8c0RCRD&vgnextoid=82547b503a71c010VgnVCM1000000b205a0aRCRD
Centro Cultural Islámico y Mezquita de Madrid,http://es.dbpedia.org/resource/Centro_Cultural_Islámico_y_Mezquita_de_Madrid,calle salvador de madariaga 4,Ciudad Lineal,http://dbpedia.org/resource/Ciudad_Lineal,40.438.521.492.191.300,-36.573.640.044.493.400,913 262 610,http://www.madrid.es/sites/v/index.jsp?vgnextchannel=9e4c43db40317010VgnVCM100000dc0ca8c0RCRD&vgnextoid=a3b71e79ee71c010VgnVCM1000000b205a0aRCRD
Centro de Evangelizacion Anuncio de Paz,,calle puerto del monasterio 10,Puente de Vallecas,http://dbpedia.org/resource/Puente_de_Vallecas,4.039.477.355.030.100,-3.665.233.691.809.310,,http://www.madrid.es/sites/v/index.jsp?vgnextchannel=9e4c43db40317010VgnVCM100000dc0ca8c0RCRD&vgnextoid=17bb8105e2260410VgnVCM2000000c205a0aRCRD
Comunidad Cristiana Maranatha,,calle granada 8,Retiro (Madrid),http://dbpedia.org/resource/Retiro_(Madrid),4.040.503.855.717.770,-36.800.894.670.027.300,,http://www.madrid.es/sites/v/index.jsp?vgnextchannel=9e4c43db40317010VgnVCM100000dc0ca8c0RCRD&vgnextoid=429604a5d0260410VgnVCM2000000c205a0aRCRD
Iglesia Anglicana Episcopal de San Jorge,,calle nuñez de balboa 43,Salamanca (Madrid),http://dbpedia.org/resource/Salamanca_(Madrid),4.042.669.852.639.710,-368.277.143.067.568,,http://www.madrid.es/sites/v/index.jsp?vgnextchannel=9e4c43db40317010VgnVCM100000dc0ca8c0RCRD&vgnextoid=48047b503a71c010VgnVCM1000000b205a0aRCRD
Iglesia Bautista Alameda de Osuna,,calle joaquin ibarra 46,Barajas (Madrid),http://dbpedia.org/resource/Barajas_(Madrid),40.455.005.219.463.800,-3.592.907.109.932.930,,http://www.madrid.es/sites/v/index.jsp?vgnextchannel=9e4c43db40317010VgnVCM100000dc0ca8c0RCRD&vgnextoid=bd9c1ea949750410VgnVCM2000000c205a0aRCRD
Iglesia Bautista Barrio del Pilar,,calle ginzo de limia 44,Fuencarral-El Pardo,http://dbpedia.org/resource/Fuencarral-El_Pardo,4.047.854.013.481.560,-3.703.163.788.451.910,,http://www.madrid.es/sites/v/index.jsp?vgnextchannel=9e4c43db40317010VgnVCM100000dc0ca8c0RCRD&vgnextoid=d7521ea949750410VgnVCM2000000c205a0aRCRD
Iglesia Bautista de Usera,,calle madridejos 41,Usera,http://dbpedia.org/resource/Usera,4.038.448.119.553.990,-37.098.425.934.998.900,,http://www.madrid.es/sites/v/index.jsp?vgnextchannel=9e4c43db40317010VgnVCM100000dc0ca8c0RCRD&vgnextoid=9d28ec795b750410VgnVCM2000000c205a0aRCRD
Iglesia Bautista de Vallecas,,calle san virgilio 2,Puente de Vallecas,http://dbpedia.org/resource/Puente_de_Vallecas,4.039.566.870.843.570,-36.630.979.420.842.500,,http://www.madrid.es/sites/v/index.jsp?vgnextchannel=9e4c43db40317010VgnVCM100000dc0ca8c0RCRD&vgnextoid=19bdb607bec50410VgnVCM2000000c205a0aRCRD
Iglesia Bautista El Buen Pastor,,plaza getafe 1,CHAMARTIN,http://dbpedia.org/page/Chamartin_(Madrid),40.444.238.011.956.800,-36.721.947.831.541.400,,http://www.madrid.es/sites/v/index.jsp?vgnextchannel=9e4c43db40317010VgnVCM100000dc0ca8c0RCRD&vgnextoid=27ff13db5b71c010VgnVCM1000000b205a0aRCRD
Iglesia Bautista General Lacy,,calle general lacy 18,Arganzuela,http://dbpedia.org/resource/Arganzuela,40.403.586.898.197.800,-3.690.928.534.913.430,,http://www.madrid.es/sites/v/index.jsp?vgnextchannel=9e4c43db40317010VgnVCM100000dc0ca8c0RCRD&vgnextoid=ede51e79ee71c010VgnVCM1000000b205a0aRCRD
Iglesia Bautista Pueblo Nuevo,,calle gutierre de cetina 13,Ciudad Lineal,http://dbpedia.org/resource/Ciudad_Lineal,4.043.387.488.622.840,-3.644.196.517.698.970,,http://www.madrid.es/sites/v/index.jsp?vgnextchannel=9e4c43db40317010VgnVCM100000dc0ca8c0RCRD&vgnextoid=0304efba3c850410VgnVCM1000000b205a0aRCRD
Iglesia Celebracion Cristiana (Comunidad Sendero de la Cruz),,calle miguel fleta 11,San Blas-Canillejas,http://dbpedia.org/resource/San_Blas-Canillejas,4.043.189.156.564.130,-3.631.374.057.578.600,,http://www.madrid.es/sites/v/index.jsp?vgnextchannel=9e4c43db40317010VgnVCM100000dc0ca8c0RCRD&vgnextoid=f5e7efba3c850410VgnVCM1000000b205a0aRCRD
Iglesia CENFOL España,,calle alejandro villegas 34,Hortaleza,http://dbpedia.org/resource/Hortaleza,4.046.517.332.828.150,-36.488.243.746.464.300,,http://www.madrid.es/sites/v/index.jsp?vgnextchannel=9e4c43db40317010VgnVCM100000dc0ca8c0RCRD&vgnextoid=beddb8d07d850410VgnVCM1000000b205a0aRCRD
Iglesia Centro Cristiano Adonay,,calle maria martinez oviol 17,Villaverde (Madrid),http://dbpedia.org/resource/Villaverde_(Madrid),4.035.010.688.886.280,-3.691.253.820.762.230,,http://www.madrid.es/sites/v/index.jsp?vgnextchannel=9e4c43db40317010VgnVCM100000dc0ca8c0RCRD&vgnextoid=e65fb8d07d850410VgnVCM1000000b205a0aRCRD
Iglesia Comunidad Cristiana de Fe,,calle manuel ferrero 5,CHAMARTIN,http://dbpedia.org/page/Chamartin_(Madrid),40.468.282.503.897.200,-36.845.607.169.672.000,,http://www.madrid.es/sites/v/index.jsp?vgnextchannel=9e4c43db40317010VgnVCM100000dc0ca8c0RCRD&vgnextoid=5c77b8d07d850410VgnVCM1000000b205a0aRCRD
Iglesia Cristiana Adventista del Septimo Dia. Madrid Alenza,,calle alenza 6,Chamberí,http://dbpedia.org/resource/Chamberí,4.044.356.545.097.690,-37.004.998.266.858.400,652 669 072,http://www.madrid.es/sites/v/index.jsp?vgnextchannel=9e4c43db40317010VgnVCM100000dc0ca8c0RCRD&vgnextoid=435f6f065851c010VgnVCM2000000c205a0aRCRD
Iglesia Cristiana Adventista del Septimo Dia. Madrid Aluche,,calle los yebenes 255,Latina (Madrid),http://dbpedia.org/resource/Latina_(Madrid),4.038.946.974.102.780,-37.515.803.449.309.400,631 800 027,http://www.madrid.es/sites/v/index.jsp?vgnextchannel=9e4c43db40317010VgnVCM100000dc0ca8c0RCRD&vgnextoid=08470bf21677f010VgnVCM1000000b205a0aRCRD
Iglesia Cristiana Adventista del Septimo Dia. Madrid Beneficencia,,calle beneficencia 18,Centro (Madrid),http://dbpedia.org/resource/Centro_(Madrid),4.042.635.120.982.080,-3.698.682.579.292.040,653 778 836,http://www.madrid.es/sites/v/index.jsp?vgnextchannel=9e4c43db40317010VgnVCM100000dc0ca8c0RCRD&vgnextoid=ed570bf21677f010VgnVCM1000000b205a0aRCRD
Iglesia Cristiana Adventista del Septimo Dia. Madrid Calatrava,,calle secoya 19,Carabanchel,http://dbpedia.org/resource/Carabanchel,4.036.926.045.846.840,-3.744.912.867.450.050,615 364 456,http://www.madrid.es/sites/v/index.jsp?vgnextchannel=9e4c43db40317010VgnVCM100000dc0ca8c0RCRD&vgnextoid=3a870bf21677f010VgnVCM1000000b205a0aRCRD
Iglesia Cristiana Adventista del Septimo Dia. Madrid Eben-Ezer,,calle rusia 11,San Blas-Canillejas,http://dbpedia.org/resource/San_Blas-Canillejas,4.042.423.100.660.820,-3.610.095.282.640.810,,http://www.madrid.es/sites/v/index.jsp?vgnextchannel=9e4c43db40317010VgnVCM100000dc0ca8c0RCRD&vgnextoid=925691f81c421510VgnVCM2000000c205a0aRCRD
Iglesia Cristiana Adventista del Septimo Dia. Madrid Efes,,calle alejandro sanchez 49,Carabanchel,http://dbpedia.org/resource/Carabanchel,40.390.153.190.373.000,-37.220.850.553.963.800,630 107 994,http://www.madrid.es/sites/v/index.jsp?vgnextchannel=9e4c43db40317010VgnVCM100000dc0ca8c0RCRD&vgnextoid=5cb70bf21677f010VgnVCM1000000b205a0aRCRD
Iglesia Cristiana Adventista del Septimo Dia. Madrid Emaus,,calle rusia 11,San Blas-Canillejas,http://dbpedia.org/resource/San_Blas-Canillejas,4.042.423.100.660.820,-3.610.095.282.640.810,653 778 836,http://www.madrid.es/sites/v/index.jsp?vgnextchannel=9e4c43db40317010VgnVCM100000dc0ca8c0RCRD&vgnextoid=d6d9493662e92110VgnVCM1000000b205a0aRCRD
Iglesia Cristiana Adventista del Septimo Dia. Madrid Grupo brasileño,,travesia juan francisco 4,Carabanchel,http://dbpedia.org/resource/Carabanchel,4.038.685.454.268.190,-37.323.234.966.679.700,645 402 526,http://www.madrid.es/sites/v/index.jsp?vgnextchannel=9e4c43db40317010VgnVCM100000dc0ca8c0RCRD&vgnextoid=f1d689f2b4eed310VgnVCM2000000c205a0aRCRD
Iglesia Cristiana Adventista del Septimo Dia. Madrid Noviciado de Horeb,,calle marquesa de arg&uuml;eso 24,Carabanchel,http://dbpedia.org/resource/Carabanchel,4.039.143.027.890.690,-3.723.877.858.559.500,639 968 584,http://www.madrid.es/sites/v/index.jsp?vgnextchannel=9e4c43db40317010VgnVCM100000dc0ca8c0RCRD&vgnextoid=384fcef44b421510VgnVCM2000000c205a0aRCRD
Iglesia Cristiana Adventista del Septimo Dia. Madrid Resurreccion,,calle austria 2,San Blas-Canillejas,http://dbpedia.org/resource/San_Blas-Canillejas,40.424.737.348.819.900,-360.803.688.991.874,630 107 994,http://www.madrid.es/sites/v/index.jsp?vgnextchannel=9e4c43db40317010VgnVCM100000dc0ca8c0RCRD&vgnextoid=23e70bf21677f010VgnVCM1000000b205a0aRCRD
Iglesia Cristiana Adventista del Septimo Dia. Madrid Vallecas,,calle doctor bellido 13,Puente de Vallecas,http://dbpedia.org/resource/Puente_de_Vallecas,4.038.473.396.152.090,-36.673.969.388.303.200,630 994 327,http://www.madrid.es/sites/v/index.jsp?vgnextchannel=9e4c43db40317010VgnVCM100000dc0ca8c0RCRD&vgnextoid=26f70bf21677f010VgnVCM1000000b205a0aRCRD
Iglesia Cristiana Adventista del Septimo Dia. Madrid Ventas,,calle hermanos gomez 32,Ciudad Lineal,http://dbpedia.org/resource/Ciudad_Lineal,40.430.239.463.904.700,-36.498.796.531.677.000,676 150 645,http://www.madrid.es/sites/v/index.jsp?vgnextchannel=9e4c43db40317010VgnVCM100000dc0ca8c0RCRD&vgnextoid=0a08d5bfd677f010VgnVCM1000000b205a0aRCRD
Iglesia Cristiana Evangelica de Aluche,,calle nuestra señora de la luz 118,Latina (Madrid),http://dbpedia.org/resource/Latina_(Madrid),4.038.654.208.091.550,-3.751.536.019.050.470,,http://www.madrid.es/sites/v/index.jsp?vgnextchannel=9e4c43db40317010VgnVCM100000dc0ca8c0RCRD&vgnextoid=bf9b92355c51c010VgnVCM2000000c205a0aRCRD
Iglesia Cristiana Evangelica de Chamartin,,calle victor de la serna 58,CHAMARTIN,http://dbpedia.org/page/Chamartin_(Madrid),4.045.776.241.085.650,-3.671.869.586.880.970,,http://www.madrid.es/sites/v/index.jsp?vgnextchannel=9e4c43db40317010VgnVCM100000dc0ca8c0RCRD&vgnextoid=474204a5d0260410VgnVCM2000000c205a0aRCRD
Iglesia Cristiana Evangelica en Hortaleza (Eben Ezer),,calle santa virgilia 5,Hortaleza,http://dbpedia.org/resource/Hortaleza,4.047.803.083.728.160,-36.436.863.685.291.500,,http://www.madrid.es/sites/v/index.jsp?vgnextchannel=9e4c43db40317010VgnVCM100000dc0ca8c0RCRD&vgnextoid=924b7b05a8350410VgnVCM2000000c205a0aRCRD
Iglesia Cristiana Hosanna,,calle alfaro 34,Carabanchel,http://dbpedia.org/resource/Carabanchel,4.039.008.603.694.380,-3.737.012.505.590.280,,http://www.madrid.es/sites/v/index.jsp?vgnextchannel=9e4c43db40317010VgnVCM100000dc0ca8c0RCRD&vgnextoid=149a5bddd0950410VgnVCM1000000b205a0aRCRD
Iglesia Cristiana Reformada,,calle cesar gonzalez ruano 25,Ciudad Lineal,http://dbpedia.org/resource/Ciudad_Lineal,40.439.878.546.069.800,-36.531.796.217.016.900,,http://www.madrid.es/sites/v/index.jsp?vgnextchannel=9e4c43db40317010VgnVCM100000dc0ca8c0RCRD&vgnextoid=a5cc5bddd0950410VgnVCM1000000b205a0aRCRD
Iglesia Cristiana Shalom Adonai,,plaza mondariz 10,Fuencarral-El Pardo,http://dbpedia.org/resource/Fuencarral-El_Pardo,40.478.096.305.847.500,-37.050.349.888.320.500,,http://www.madrid.es/sites/v/index.jsp?vgnextchannel=9e4c43db40317010VgnVCM100000dc0ca8c0RCRD&vgnextoid=98296bbcdbc50410VgnVCM1000000b205a0aRCRD
Iglesia Cristiana Verbo,,calle circe 32,San Blas-Canillejas,http://dbpedia.org/resource/San_Blas-Canillejas,4.042.486.074.067.440,-3.608.556.691.010.070,,http://www.madrid.es/sites/v/index.jsp?vgnextchannel=9e4c43db40317010VgnVCM100000dc0ca8c0RCRD&vgnextoid=003ff181df160410VgnVCM2000000c205a0aRCRD
"Iglesia Cuerpo de Cristo, Don Pedro",,calle don pedro 10,Centro (Madrid),http://dbpedia.org/resource/Centro_(Madrid),4.041.164.356.061.590,-37.127.680.071.804.700,,http://www.madrid.es/sites/v/index.jsp?vgnextchannel=9e4c43db40317010VgnVCM100000dc0ca8c0RCRD&vgnextoid=a8319bd56dc50410VgnVCM2000000c205a0aRCRD
"Iglesia Cuerpo de Cristo, General Ricardos",,calle general ricardos 188,Carabanchel,http://dbpedia.org/resource/Carabanchel,4.038.632.169.648.760,-37.353.691.693.981.700,,http://www.madrid.es/sites/v/index.jsp?vgnextchannel=9e4c43db40317010VgnVCM100000dc0ca8c0RCRD&vgnextoid=335d9bd56dc50410VgnVCM2000000c205a0aRCRD
Iglesia de Cristo IEE,,calle bravo murillo 85,Chamberí,http://dbpedia.org/resource/Chamberí,404.449.301.823.601,-37.042.284.365.191.200,,http://www.madrid.es/sites/v/index.jsp?vgnextchannel=9e4c43db40317010VgnVCM100000dc0ca8c0RCRD&vgnextoid=03479bd56dc50410VgnVCM2000000c205a0aRCRD
Iglesia de Cristo - Madrid,,calle teruel 25,Tetuán (Madrid),http://dbpedia.org/resource/Tetuán_(Madrid),4.045.142.687.862.350,-37.010.649.675.352.000,,http://www.madrid.es/sites/v/index.jsp?vgnextchannel=9e4c43db40317010VgnVCM100000dc0ca8c0RCRD&vgnextoid=4fb3b607bec50410VgnVCM2000000c205a0aRCRD
Iglesia de Dios (Verbo de Dios),,calle puerto de pozazal 25,Villa de Vallecas,http://dbpedia.org/resource/Villa_de_Vallecas,4.037.954.477.665.530,-36.304.610.133.031.000,,http://www.madrid.es/sites/v/index.jsp?vgnextchannel=9e4c43db40317010VgnVCM100000dc0ca8c0RCRD&vgnextoid=646b0ac0dfc50410VgnVCM2000000c205a0aRCRD
Iglesia de Filadelfia Orcasur,,calle albu&ntilde;uelas 4,Usera,http://dbpedia.org/resource/Usera,403.660.794.472.724,-37.003.447.903.871.800,,http://www.madrid.es/sites/v/index.jsp?vgnextchannel=9e4c43db40317010VgnVCM100000dc0ca8c0RCRD&vgnextoid=6b760ac0dfc50410VgnVCM2000000c205a0aRCRD
Iglesia de Jesus,,calle calatrava 25,Centro (Madrid),http://dbpedia.org/resource/Centro_(Madrid),4.040.922.435.030.050,-37.120.824.876.404.400,,http://www.madrid.es/sites/v/index.jsp?vgnextchannel=9e4c43db40317010VgnVCM100000dc0ca8c0RCRD&vgnextoid=04750a47f441f010VgnVCM2000000c205a0aRCRD
Iglesia de la Cienciología,http://es.dbpedia.org/page/Iglesia_de_la_Cienciología,calle santa catalina 7,Centro (Madrid),http://dbpedia.org/resource/Centro_(Madrid),4.041.544.685.773.230,-36.977.564.880.686.600,912 092 170,http://www.madrid.es/sites/v/index.jsp?vgnextchannel=9e4c43db40317010VgnVCM100000dc0ca8c0RCRD&vgnextoid=0606ac2e6481c010VgnVCM1000000b205a0aRCRD
Iglesia de Los Elegidos de Dios,,calle faro 8,Carabanchel,http://dbpedia.org/resource/Carabanchel,4.038.119.767.358.170,-37.264.778.892.367.400,,http://www.madrid.es/sites/v/index.jsp?vgnextchannel=9e4c43db40317010VgnVCM100000dc0ca8c0RCRD&vgnextoid=fdea3ddd32d50410VgnVCM2000000c205a0aRCRD
Iglesia de los Hermanos en La Vaguada,,calle puerto de maspalomas 22,Fuencarral-El Pardo,http://dbpedia.org/resource/Fuencarral-El_Pardo,404.791.594.681.295,-37.138.237.216.851.700,,http://www.madrid.es/sites/v/index.jsp?vgnextchannel=9e4c43db40317010VgnVCM100000dc0ca8c0RCRD&vgnextoid=3c33c91fc0d50410VgnVCM2000000c205a0aRCRD
Iglesia Dios es Amor - Union Cristiana,,calle prudencio alvaro 46,Ciudad Lineal,http://dbpedia.org/resource/Ciudad_Lineal,4.043.829.788.787.740,-3.644.274.105.325.610,,http://www.madrid.es/sites/v/index.jsp?vgnextchannel=9e4c43db40317010VgnVCM100000dc0ca8c0RCRD&vgnextoid=dd257b05a8350410VgnVCM2000000c205a0aRCRD
"Iglesia Ejercito de Salvacion, Hermosilla",,calle hermosilla 126,Salamanca (Madrid),http://dbpedia.org/resource/Salamanca_(Madrid),4.042.545.230.198.000,-36.678.581.814.924.500,,http://www.madrid.es/sites/v/index.jsp?vgnextchannel=9e4c43db40317010VgnVCM100000dc0ca8c0RCRD&vgnextoid=8d9f6f065851c010VgnVCM2000000c205a0aRCRD
Iglesia El Buen Pastor de Madrid,,camino valderribas 96,Puente de Vallecas,http://dbpedia.org/resource/Puente_de_Vallecas,40.398.863.439.810.400,-3.660.560.405.682.930,,http://www.madrid.es/sites/v/index.jsp?vgnextchannel=9e4c43db40317010VgnVCM100000dc0ca8c0RCRD&vgnextoid=7d373ddd32d50410VgnVCM2000000c205a0aRCRD
Iglesia Emanuel (U.C.E) Orcasitas (Orcasur),,avenida orcasur 1,Usera,http://dbpedia.org/resource/Usera,4.037.038.446.580.720,-370.056.603.706.231,,http://www.madrid.es/sites/v/index.jsp?vgnextchannel=9e4c43db40317010VgnVCM100000dc0ca8c0RCRD&vgnextoid=2b96691af6d50410VgnVCM2000000c205a0aRCRD
Iglesia Española Reformada Episcopal,,calle beneficencia 18,Centro (Madrid),http://dbpedia.org/resource/Centro_(Madrid),4.042.635.120.982.080,-3.698.682.579.292.040,,http://www.madrid.es/sites/v/index.jsp?vgnextchannel=9e4c43db40317010VgnVCM100000dc0ca8c0RCRD&vgnextoid=37d53bf7d7d50410VgnVCM2000000c205a0aRCRD
Iglesia Evangelica Casa de Oracion,,calle felipe de diego 3,Puente de Vallecas,http://dbpedia.org/resource/Puente_de_Vallecas,40.379.470.784.588.200,-3.663.021.565.402.850,,http://www.madrid.es/sites/v/index.jsp?vgnextchannel=9e4c43db40317010VgnVCM100000dc0ca8c0RCRD&vgnextoid=75ab8fd21ad50410VgnVCM2000000c205a0aRCRD
Iglesia Evangelica Casa de Oracion de Madrid,,calle londres 13,Salamanca (Madrid),http://dbpedia.org/resource/Salamanca_(Madrid),4.043.146.112.930.490,-36.694.502.641.980.300,,http://www.madrid.es/sites/v/index.jsp?vgnextchannel=9e4c43db40317010VgnVCM100000dc0ca8c0RCRD&vgnextoid=644198d978d50410VgnVCM2000000c205a0aRCRD
Iglesia Evangelica China Española,,calle carolinas 10,Tetuán (Madrid),http://dbpedia.org/resource/Tetuán_(Madrid),40.451.241.419.899.200,-3.704.895.759.227.490,,http://www.madrid.es/sites/v/index.jsp?vgnextchannel=9e4c43db40317010VgnVCM100000dc0ca8c0RCRD&vgnextoid=5ff28fd21ad50410VgnVCM2000000c205a0aRCRD
Iglesia Evangelica Cristo Vive,,calle talia 32,San Blas-Canillejas,http://dbpedia.org/resource/San_Blas-Canillejas,40.447.416.389.559.100,-36.142.317.394.076.200,,http://www.madrid.es/sites/v/index.jsp?vgnextchannel=9e4c43db40317010VgnVCM100000dc0ca8c0RCRD&vgnextoid=2224216f16350410VgnVCM2000000c205a0aRCRD
Iglesia Evangelica de Hermanos El Shadday,,calle maria pedraza 11,Tetuán (Madrid),http://dbpedia.org/resource/Tetuán_(Madrid),40.453.349.071.696.200,-37.093.874.627.751.700,,http://www.madrid.es/sites/v/index.jsp?vgnextchannel=9e4c43db40317010VgnVCM100000dc0ca8c0RCRD&vgnextoid=352afe5dfad50410VgnVCM2000000c205a0aRCRD
Iglesia Evangelica del Nazareno,,calle pelicano 26,Carabanchel,http://dbpedia.org/resource/Carabanchel,40.383.690.841.533.700,-3.728.283.631.976.340,,http://www.madrid.es/sites/v/index.jsp?vgnextchannel=9e4c43db40317010VgnVCM100000dc0ca8c0RCRD&vgnextoid=ef5dfe5dfad50410VgnVCM2000000c205a0aRCRD
Iglesia Evangelica Eben Ezer Dios es amor,,avenida albufera 46,Puente de Vallecas,http://dbpedia.org/resource/Puente_de_Vallecas,40.396.355.872.399.200,-36.658.030.852.598.100,,http://www.madrid.es/sites/v/index.jsp?vgnextchannel=9e4c43db40317010VgnVCM100000dc0ca8c0RCRD&vgnextoid=61a794d12cd50410VgnVCM2000000c205a0aRCRD
Iglesia Evangelica Encuetro con Dios,,calle jose del prado y palacio 1,Moratalaz,http://dbpedia.org/resource/Moratalaz,4.040.995.541.329.680,-3.653.903.803.273.290,,http://www.madrid.es/sites/v/index.jsp?vgnextchannel=9e4c43db40317010VgnVCM100000dc0ca8c0RCRD&vgnextoid=f0fe7b05a8350410VgnVCM2000000c205a0aRCRD
Iglesia Evangelica Española El Salvador,,calle noviciado 5,Centro (Madrid),http://dbpedia.org/resource/Centro_(Madrid),404.255.730.852.911,-37.081.171.132.637.800,,http://www.madrid.es/sites/v/index.jsp?vgnextchannel=9e4c43db40317010VgnVCM100000dc0ca8c0RCRD&vgnextoid=5b850a47f441f010VgnVCM2000000c205a0aRCRD
Iglesia Evangelica Fuente de la Vida,,calle sierra carbonera 31,Puente de Vallecas,http://dbpedia.org/resource/Puente_de_Vallecas,4.039.224.017.330.220,-3.663.983.360.780.890,,http://www.madrid.es/sites/v/index.jsp?vgnextchannel=9e4c43db40317010VgnVCM100000dc0ca8c0RCRD&vgnextoid=e9e95ac33d160410VgnVCM2000000c205a0aRCRD
Iglesia Evangelica Nueva Vida,,calle argos 13,San Blas-Canillejas,http://dbpedia.org/resource/San_Blas-Canillejas,40.436.772.923.362.900,-3.634.945.071.142.650,,http://www.madrid.es/sites/v/index.jsp?vgnextchannel=9e4c43db40317010VgnVCM100000dc0ca8c0RCRD&vgnextoid=4996e44317350410VgnVCM2000000c205a0aRCRD
Iglesia Evangelica Pentecostal Amistad Cristiana,,calle vallehermoso 70,Chamberí,http://dbpedia.org/resource/Chamberí,40.437.256.742.788.900,-3.708.286.842.692.640,,http://www.madrid.es/sites/v/index.jsp?vgnextchannel=9e4c43db40317010VgnVCM100000dc0ca8c0RCRD&vgnextoid=64f10ac0dfc50410VgnVCM2000000c205a0aRCRD
Iglesia Evangelica Pentecostal Bethel,,calle fernando diaz de mendoza 3,Carabanchel,http://dbpedia.org/resource/Carabanchel,4.039.425.444.284.570,-37.130.323.684.423.100,,http://www.madrid.es/sites/v/index.jsp?vgnextchannel=9e4c43db40317010VgnVCM100000dc0ca8c0RCRD&vgnextoid=a2cf6f065851c010VgnVCM2000000c205a0aRCRD
Iglesia Evangelica Pentecostal Salem,,calle cidro 8,Carabanchel,http://dbpedia.org/resource/Carabanchel,4.036.788.312.377.920,-37.461.462.154.794.500,,http://www.madrid.es/sites/v/index.jsp?vgnextchannel=9e4c43db40317010VgnVCM100000dc0ca8c0RCRD&vgnextoid=6fb1e44317350410VgnVCM2000000c205a0aRCRD
Iglesia Evangelica Pueblo Nuevo,,calle villacarlos 14,Vicálvaro,http://dbpedia.org/resource/Vicálvaro,40.405.980.938.654.000,-36.062.299.408.865.400,,http://www.madrid.es/sites/v/index.jsp?vgnextchannel=9e4c43db40317010VgnVCM100000dc0ca8c0RCRD&vgnextoid=d6adfe5dfad50410VgnVCM2000000c205a0aRCRD
Iglesia Evangelio Cuadrangular Vida Nueva Usera,,calle monederos 22,Usera,http://dbpedia.org/resource/Usera,40.387.603.572.276.100,-37.016.044.995.191.400,,http://www.madrid.es/sites/v/index.jsp?vgnextchannel=9e4c43db40317010VgnVCM100000dc0ca8c0RCRD&vgnextoid=db313ddd32d50410VgnVCM2000000c205a0aRCRD
Iglesia Filadelfia del Centro Cielos Abiertos,,calle rodrigo de guevara 2,Centro (Madrid),http://dbpedia.org/resource/Centro_(Madrid),40.409.306.745.878.800,-3.708.936.586.322.550,,http://www.madrid.es/sites/v/index.jsp?vgnextchannel=9e4c43db40317010VgnVCM100000dc0ca8c0RCRD&vgnextoid=ac0a5ac33d160410VgnVCM2000000c205a0aRCRD
Iglesia Internacional Alianza de Amor,,calle antonio gonzalez porras 25,Carabanchel,http://dbpedia.org/resource/Carabanchel,4.039.066.598.347.710,-37.178.606.509.833.800,,http://www.madrid.es/sites/v/index.jsp?vgnextchannel=9e4c43db40317010VgnVCM100000dc0ca8c0RCRD&vgnextoid=3f915ac33d160410VgnVCM2000000c205a0aRCRD
Iglesia Resurreccion IEE,,calle butron 20,San Blas-Canillejas,http://dbpedia.org/resource/San_Blas-Canillejas,4.042.486.074.067.440,-3.608.556.691.010.070,,http://www.madrid.es/sites/v/index.jsp?vgnextchannel=9e4c43db40317010VgnVCM100000dc0ca8c0RCRD&vgnextoid=306150adce160410VgnVCM2000000c205a0aRCRD
Iglesia Servidores de Vida,,calle castrojeriz 8,Carabanchel,http://dbpedia.org/resource/Carabanchel,403.872.624.683.693,-37.390.081.955.917.400,,http://www.madrid.es/sites/v/index.jsp?vgnextchannel=9e4c43db40317010VgnVCM100000dc0ca8c0RCRD&vgnextoid=95f550adce160410VgnVCM2000000c205a0aRCRD
Iglesia Tabernaculo de Alabanza,,calle barca 4,Vicálvaro,http://dbpedia.org/resource/Vicálvaro,40.399.476.185.079.000,-35.941.165.757.961.300,,http://www.madrid.es/sites/v/index.jsp?vgnextchannel=9e4c43db40317010VgnVCM100000dc0ca8c0RCRD&vgnextoid=c944f181df160410VgnVCM2000000c205a0aRCRD
Iglesia Templo de Dios,,calle marquesa de arg&uuml;eso 22,Carabanchel,http://dbpedia.org/resource/Carabanchel,40.391.475.542.527.600,-37.238.429.956.192.000,,http://www.madrid.es/sites/v/index.jsp?vgnextchannel=9e4c43db40317010VgnVCM100000dc0ca8c0RCRD&vgnextoid=c70bf181df160410VgnVCM2000000c205a0aRCRD
Mezquita Abu Bakr de Madrid,http://es.dbpedia.org/page/Mezquita_Central_de_Madrid,calle anastasio herrero 5,Tetuán (Madrid),http://dbpedia.org/resource/Tetuán_(Madrid),4.045.678.681.584.000,-37.011.324.720.320.500,915 714 040 ,http://www.madrid.es/sites/v/index.jsp?vgnextchannel=9e4c43db40317010VgnVCM100000dc0ca8c0RCRD&vgnextoid=11a71e79ee71c010VgnVCM1000000b205a0aRCRD
Testigos Cristianos de Jehova. Avenida Moratalaz,,avenida moratalaz 143,Moratalaz,http://dbpedia.org/resource/Moratalaz,4.040.710.531.270.070,-364.807.785.428.665,914 377 284,http://www.madrid.es/sites/v/index.jsp?vgnextchannel=9e4c43db40317010VgnVCM100000dc0ca8c0RCRD&vgnextoid=daca6dd8f677f010VgnVCM2000000c205a0aRCRD
Testigos Cristianos de Jehova. Calle Arroyo,,calle arroyo 23,Tetuán (Madrid),http://dbpedia.org/resource/Tetuán_(Madrid),4.046.978.728.598.970,-37.025.298.582.429.600,913 140 296,http://www.madrid.es/sites/v/index.jsp?vgnextchannel=9e4c43db40317010VgnVCM100000dc0ca8c0RCRD&vgnextoid=a823784e0cc4f010VgnVCM2000000c205a0aRCRD
Testigos Cristianos de Jehova. Calle Artistas,,calle artistas 22,Tetuán (Madrid),http://dbpedia.org/resource/Tetuán_(Madrid),4.044.728.893.529.120,-37.015.290.370.510.400,915 337 233,http://www.madrid.es/sites/v/index.jsp?vgnextchannel=9e4c43db40317010VgnVCM100000dc0ca8c0RCRD&vgnextoid=0e33784e0cc4f010VgnVCM2000000c205a0aRCRD
Testigos Cristianos de Jehova. Calle Carrascales,,calle carrascales 12,Usera,http://dbpedia.org/resource/Usera,4.038.152.721.787.890,-37.082.093.955.604.000,914 768 456,http://www.madrid.es/sites/v/index.jsp?vgnextchannel=9e4c43db40317010VgnVCM100000dc0ca8c0RCRD&vgnextoid=13c13b49d7619210VgnVCM2000000c205a0aRCRD
Testigos Cristianos de Jehova. Calle Chantada,,calle chantada 43,Fuencarral-El Pardo,http://dbpedia.org/resource/Fuencarral-El_Pardo,4.047.295.576.678.730,-37.161.763.610.140.800,913 737 210,http://www.madrid.es/sites/v/index.jsp?vgnextchannel=9e4c43db40317010VgnVCM100000dc0ca8c0RCRD&vgnextoid=f493784e0cc4f010VgnVCM2000000c205a0aRCRD
Testigos Cristianos de Jehova. Calle Doctor Gomez Ulla,,calle doctor gomez ulla 16,Salamanca (Madrid),http://dbpedia.org/resource/Salamanca_(Madrid),404.299.768.268.144,-3.667.513.892.714.280,917 253 649,http://www.madrid.es/sites/v/index.jsp?vgnextchannel=9e4c43db40317010VgnVCM100000dc0ca8c0RCRD&vgnextoid=11c3784e0cc4f010VgnVCM2000000c205a0aRCRD
Testigos Cristianos de Jehova. Calle Guamo,,calle guamo 2,Hortaleza,http://dbpedia.org/resource/Hortaleza,40.472.423.257.425.900,-36.329.921.848.042.200,917 644 305,http://www.madrid.es/sites/v/index.jsp?vgnextchannel=9e4c43db40317010VgnVCM100000dc0ca8c0RCRD&vgnextoid=dbe3784e0cc4f010VgnVCM2000000c205a0aRCRD
Testigos Cristianos de Jehova. Calle Hilario Sangrador,,calle hilario sangrador 8,Latina (Madrid),http://dbpedia.org/resource/Latina_(Madrid),40.407.960.942.737.900,-37.424.991.074.388.700,914 794 301,http://www.madrid.es/sites/v/index.jsp?vgnextchannel=9e4c43db40317010VgnVCM100000dc0ca8c0RCRD&vgnextoid=1673784e0cc4f010VgnVCM2000000c205a0aRCRD
Testigos Cristianos de Jehova. Calle Ignacio Ellacuria,,calle ignacio ellacuria 3,Ciudad Lineal,http://dbpedia.org/resource/Ciudad_Lineal,4.042.908.450.325.940,-36.565.765.500.624.200,913 613 801,http://www.madrid.es/sites/v/index.jsp?vgnextchannel=9e4c43db40317010VgnVCM100000dc0ca8c0RCRD&vgnextoid=3104784e0cc4f010VgnVCM2000000c205a0aRCRD
Testigos Cristianos de Jehova. Calle Jacobinia,,calle jacobinia 70,Carabanchel,http://dbpedia.org/resource/Carabanchel,40.377.563.130.203.500,-37.538.276.002.522.400,914 622 474,http://www.madrid.es/sites/v/index.jsp?vgnextchannel=9e4c43db40317010VgnVCM100000dc0ca8c0RCRD&vgnextoid=9614784e0cc4f010VgnVCM2000000c205a0aRCRD
Testigos Cristianos de Jehova. Calle Las Pedroñeras,,calle las pedro&ntilde;eras 46,Hortaleza,http://dbpedia.org/resource/Hortaleza,4.046.740.772.482.650,-3.630.892.617.916.540,917 597 002,http://www.madrid.es/sites/v/index.jsp?vgnextchannel=9e4c43db40317010VgnVCM100000dc0ca8c0RCRD&vgnextoid=2ae45159bd619210VgnVCM2000000c205a0aRCRD
Testigos Cristianos de Jehova. Calle Luis Ruiz,,calle luis ruiz 75,Ciudad Lineal,http://dbpedia.org/resource/Ciudad_Lineal,404.280.279.977.347,-36.360.652.956.995.000,913 759 717,http://www.madrid.es/sites/v/index.jsp?vgnextchannel=9e4c43db40317010VgnVCM100000dc0ca8c0RCRD&vgnextoid=c9a65068d6619210VgnVCM2000000c205a0aRCRD
Testigos Cristianos de Jehova. Calle Marcudos,,calle marcudos 4,Usera,http://dbpedia.org/resource/Usera,4.038.853.080.646.350,-3.701.720.159.931.240,917 921 135,http://www.madrid.es/sites/v/index.jsp?vgnextchannel=9e4c43db40317010VgnVCM100000dc0ca8c0RCRD&vgnextoid=1c64784e0cc4f010VgnVCM2000000c205a0aRCRD
Testigos Cristianos de Jehova. Calle Martin de Vargas,,calle martin de vargas 26,Arganzuela,http://dbpedia.org/resource/Arganzuela,4.040.244.073.010.040,-3.701.734.952.593.740,915 176 543,http://www.madrid.es/sites/v/index.jsp?vgnextchannel=9e4c43db40317010VgnVCM100000dc0ca8c0RCRD&vgnextoid=d0ea6dd8f677f010VgnVCM2000000c205a0aRCRD
Testigos Cristianos de Jehova. Calle Perez Herrera,,calle perez herrera 2,CHAMARTIN,http://dbpedia.org/page/Chamartin_(Madrid),4.044.692.921.715.810,-36.726.225.307.291.100,914 169 439,http://www.madrid.es/sites/v/index.jsp?vgnextchannel=9e4c43db40317010VgnVCM100000dc0ca8c0RCRD&vgnextoid=c6fa6dd8f677f010VgnVCM2000000c205a0aRCRD
Testigos Cristianos de Jehova. Calle Puerto de Pozazal,,calle puerto de pozazal 1,Villa de Vallecas,http://dbpedia.org/resource/Villa_de_Vallecas,4.037.941.728.069.030,-36.290.579.482.359.900,911 386 417,http://www.madrid.es/sites/v/index.jsp?vgnextchannel=9e4c43db40317010VgnVCM100000dc0ca8c0RCRD&vgnextoid=458e813cbcc4f010VgnVCM1000000b205a0aRCRD
Testigos Cristianos de Jehova. Calle San Moises,,calle san moises 39,Puente de Vallecas,http://dbpedia.org/resource/Puente_de_Vallecas,40.382.077.738.308.300,-3.665.580.023.171.380,915 157 133,http://www.madrid.es/sites/v/index.jsp?vgnextchannel=9e4c43db40317010VgnVCM100000dc0ca8c0RCRD&vgnextoid=e73b6dd8f677f010VgnVCM2000000c205a0aRCRD
Testigos Cristianos de Jehova. Calle Santa Ana Baja,,calle santa ana baja 48,Fuencarral-El Pardo,http://dbpedia.org/resource/Fuencarral-El_Pardo,404.971.824.538.909,-36.907.430.902.200.600,917 348 698,http://www.madrid.es/sites/v/index.jsp?vgnextchannel=9e4c43db40317010VgnVCM100000dc0ca8c0RCRD&vgnextoid=ed4b6dd8f677f010VgnVCM2000000c205a0aRCRD
Testigos Cristianos de Jehova. Calle Tembleque,,calle tembleque 64,Latina (Madrid),http://dbpedia.org/resource/Latina_(Madrid),403.951.784.294.787,-3.760.316.231.056.660,915 188 149,http://www.madrid.es/sites/v/index.jsp?vgnextchannel=9e4c43db40317010VgnVCM100000dc0ca8c0RCRD&vgnextoid=0d24972577619210VgnVCM2000000c205a0aRCRD
Testigos Cristianos de Jehova. Calle Venancio Martin,,calle venancio martin 19,Puente de Vallecas,http://dbpedia.org/resource/Puente_de_Vallecas,4.039.795.732.762.330,-36.614.706.779.617.700,914 399 065,http://www.madrid.es/sites/v/index.jsp?vgnextchannel=9e4c43db40317010VgnVCM100000dc0ca8c0RCRD&vgnextoid=2903784e0cc4f010VgnVCM2000000c205a0aRCRD
