PK,NOMBRE,sameAs,direccion,DISTRITO,distrito_url,LATITUD,LONGITUD,TELEFONO,CONTENT-URL
3394,Iglesia de la Milagrosa,http://es.dbpedia.org/resource/Iglesia_de_la_Milagrosa,calle garcia de paredes 45,Chamberí,http://dbpedia.org/resource/Chamberi,40.436738433323576,-3.695724577042382,914 473 248 ,http://www.madrid.es/sites/v/index.jsp?vgnextchannel=9e4c43db40317010VgnVCM100000dc0ca8c0RCRD&vgnextoid=53b313db5b71c010VgnVCM1000000b205a0aRCRD
3371,Basilica Pontificia de San Miguel (Madrid),http://es.dbpedia.org/resource/Basilica_Pontificia_de_San_Miguel_(Madrid),calle san justo 4,Centro (Madrid),http://dbpedia.org/resource/Centro_(Madrid),40.414203159177625,-3.7096715906562716,915 484 011,http://www.madrid.es/sites/v/index.jsp?vgnextchannel=9e4c43db40317010VgnVCM100000dc0ca8c0RCRD&vgnextoid=9c383d232e91f010VgnVCM1000000b205a0aRCRD
3361,Catedral de Santa Maria la Real de la Almudena de Madrid,http://es.dbpedia.org/resource/Catedral_de_Santa_Maria_la_Real_de_la_Almudena_de_Madrid,calle mayor 90,Centro (Madrid),http://dbpedia.org/resource/Centro_(Madrid),40.41521119054696,-3.7142200549476727,915 480 930,http://www.madrid.es/sites/v/index.jsp?vgnextchannel=9e4c43db40317010VgnVCM100000dc0ca8c0RCRD&vgnextoid=15647b503a71c010VgnVCM1000000b205a0aRCRD
3354,Convento de las Comendadoras de Santiago (Madrid),http://es.dbpedia.org/resource/Convento_de_las_Comendadoras_de_Santiago_(Madrid),plaza comendadoras 10,Centro (Madrid),http://dbpedia.org/resource/Centro_(Madrid),40.4273968151307,-3.708949668437218,,http://www.madrid.es/sites/v/index.jsp?vgnextchannel=9e4c43db40317010VgnVCM100000dc0ca8c0RCRD&vgnextoid=ee6b13db5b71c010VgnVCM1000000b205a0aRCRD
6079820,Ermita de San Isidro (Madrid),http://es.dbpedia.org/resource/Ermita_de_San_Isidro_(Madrid),paseo quince de mayo 62,Carabanchel,http://dbpedia.org/resource/Carabanchel,40.39949832410487,-3.73168274610084,913 650 841,http://www.madrid.es/sites/v/index.jsp?vgnextchannel=9e4c43db40317010VgnVCM100000dc0ca8c0RCRD&vgnextoid=913cfa8389c10310VgnVCM1000000b205a0aRCRD
35254,Ermita de Santa Maria la Antigua (Madrid),http://es.dbpedia.org/resource/Ermita_de_Santa_Maria_la_Antigua_(Madrid),calle monsenor oscar romero 1,Carabanchel,http://dbpedia.org/resource/Carabanchel,40.380299379931614,-3.741676977905724,914 628 536 (Parroquia de San Sebastian Martir),http://www.madrid.es/sites/v/index.jsp?vgnextchannel=9e4c43db40317010VgnVCM100000dc0ca8c0RCRD&vgnextoid=f19e059cb751c010VgnVCM2000000c205a0aRCRD
3357,Ermita de la Virgen del Puerto,http://es.dbpedia.org/resource/Ermita_de_la_Virgen_del_Puerto,paseo virgen del puerto 4,Centro (Madrid),http://dbpedia.org/resource/Centro_(Madrid),40.41556461689203,-3.7211426105677465,,http://www.madrid.es/sites/v/index.jsp?vgnextchannel=9e4c43db40317010VgnVCM100000dc0ca8c0RCRD&vgnextoid=fd7755004e91f010VgnVCM2000000c205a0aRCRD
3355,Iglesia de las Calatravas (Madrid),http://es.dbpedia.org/resource/Iglesia_de_las_Calatravas_(Madrid),calle alcala 25,Centro (Madrid),http://dbpedia.org/resource/Centro_(Madrid),40.418196333786035,-3.698963613858259,915 218 035,http://www.madrid.es/sites/v/index.jsp?vgnextchannel=9e4c43db40317010VgnVCM100000dc0ca8c0RCRD&vgnextoid=e8013d232e91f010VgnVCM1000000b205a0aRCRD
18314,Iglesia de las Maravillas,http://es.dbpedia.org/resource/Iglesia_de_las_Maravillas,calle principe de vergara 23,Salamanca (Madrid),http://dbpedia.org/resource/Salamanca_(Madrid),40.425568693198244,-3.6803433622264965,914 353 932,http://www.madrid.es/sites/v/index.jsp?vgnextchannel=9e4c43db40317010VgnVCM100000dc0ca8c0RCRD&vgnextoid=eb113d232e91f010VgnVCM1000000b205a0aRCRD
60211,Iglesia de Nuestra Senora de Montserrat,http://es.dbpedia.org/resource/Iglesia_de_Nuestra_Senora_de_Montserrat,calle san bernardo 79,Centro (Madrid),http://dbpedia.org/resource/Centro_(Madrid),40.42764597271771,-3.70651199134605,914 471 250,http://www.madrid.es/sites/v/index.jsp?vgnextchannel=9e4c43db40317010VgnVCM100000dc0ca8c0RCRD&vgnextoid=70138ed67151c010VgnVCM2000000c205a0aRCRD
3365,Iglesia de San Antonio de los Alemanes,http://es.dbpedia.org/resource/Iglesia_de_San_Antonio_de_los_Alemanes,calle puebla 22,Centro (Madrid),http://dbpedia.org/resource/Centro_(Madrid),40.42195996338601,-3.7022913826706088,915 223 774,http://www.madrid.es/sites/v/index.jsp?vgnextchannel=9e4c43db40317010VgnVCM100000dc0ca8c0RCRD&vgnextoid=614013db5b71c010VgnVCM1000000b205a0aRCRD
3346,Iglesia de San Pedro el Viejo,http://es.dbpedia.org/resource/Iglesia_de_San_Pedro_el_Viejo,calle nuncio 14,Centro (Madrid),http://dbpedia.org/resource/Centro_(Madrid),40.41320112124687,-3.71000286701288,913 651 284,http://www.madrid.es/sites/v/index.jsp?vgnextchannel=9e4c43db40317010VgnVCM100000dc0ca8c0RCRD&vgnextoid=f35013db5b71c010VgnVCM1000000b205a0aRCRD
3348,Monasterio de las Descalzas Reales (Madrid),http://es.dbpedia.org/resource/Monasterio_de_las_Descalzas_Reales_(Madrid),plaza descalzas 3,Centro (Madrid),http://dbpedia.org/resource/Centro_(Madrid),40.418233359889484,-3.706213134639163,"914 548 700                                                             
",http://www.madrid.es/sites/v/index.jsp?vgnextchannel=9e4c43db40317010VgnVCM100000dc0ca8c0RCRD&vgnextoid=12e113db5b71c010VgnVCM1000000b205a0aRCRD
3494,Parroquia Dulce Nombre de Maria,,calle san florencio 1,Puente de Vallecas,http://dbpedia.org/resource/Puente_de_Vallecas,40.40449501144985,-3.660403328017802,914 333 865,http://www.madrid.es/sites/v/index.jsp?vgnextchannel=9e4c43db40317010VgnVCM100000dc0ca8c0RCRD&vgnextoid=f34313db5b71c010VgnVCM1000000b205a0aRCRD
3680,Parroquia de San Salvador y San Nicolas,http://es.dbpedia.org/resource/Parroquia_de_San_Salvador_y_San_Nicolas,calle atocha 58,Centro (Madrid),http://dbpedia.org/resource/Centro_(Madrid),40.41206198418387,-3.6988294216852573,913 690 579,http://www.madrid.es/sites/v/index.jsp?vgnextchannel=9e4c43db40317010VgnVCM100000dc0ca8c0RCRD&vgnextoid=6cfdef4d7f71c010VgnVCM1000000b205a0aRCRD
189083,Parroquia San Hilario de Poitiers,,calle luis chamizo 7,Latina (Madrid),http://dbpedia.org/resource/Latina_(Madrid),40.38654718095017,-3.7658625807637525,917 650 821,http://www.madrid.es/sites/v/index.jsp?vgnextchannel=9e4c43db40317010VgnVCM100000dc0ca8c0RCRD&vgnextoid=62d48aa6bd91f010VgnVCM1000000b205a0aRCRD
3541,Parroquia San Ignacio de Loyola,,calle pinos alta 79,Tetuán (Madrid),http://dbpedia.org/resource/Tetuan_(Madrid),40.468565866733734,-3.6989311423195184,913 153 302,http://www.madrid.es/sites/v/index.jsp?vgnextchannel=9e4c43db40317010VgnVCM100000dc0ca8c0RCRD&vgnextoid=dd82ef4d7f71c010VgnVCM1000000b205a0aRCRD
3542,Parroquia San Ildefonso y Santos Justo y Pastor,,calle colon 16,Centro (Madrid),http://dbpedia.org/resource/Centro_(Madrid),40.42386432820311,-3.7017217786628307,915 220 860,http://www.madrid.es/sites/v/index.jsp?vgnextchannel=9e4c43db40317010VgnVCM100000dc0ca8c0RCRD&vgnextoid=60a2ef4d7f71c010VgnVCM1000000b205a0aRCRD
3548,Parroquia San Ireneo,,calle carlota o'neill 26,Ciudad Lineal,http://dbpedia.org/resource/Ciudad_Lineal,40.443043847037785,-3.6494251662051975,913 677 727,http://www.madrid.es/sites/v/index.jsp?vgnextchannel=9e4c43db40317010VgnVCM100000dc0ca8c0RCRD&vgnextoid=f2b2ef4d7f71c010VgnVCM1000000b205a0aRCRD
3549,Parroquia San Isidoro y San Pedro Claver,,calle balaguer 1,Hortaleza,http://dbpedia.org/resource/Hortaleza,40.47116011484349,-3.6511705107261823,913 831 443,http://www.madrid.es/sites/v/index.jsp?vgnextchannel=9e4c43db40317010VgnVCM100000dc0ca8c0RCRD&vgnextoid=85c2ef4d7f71c010VgnVCM1000000b205a0aRCRD
3550,Parroquia San Isidro Labrador,,calle parque eugenia de montijo 54,Carabanchel,http://dbpedia.org/resource/Carabanchel,40.37851572353142,-3.7514232625433643,914 621 304,http://www.madrid.es/sites/v/index.jsp?vgnextchannel=9e4c43db40317010VgnVCM100000dc0ca8c0RCRD&vgnextoid=18d2ef4d7f71c010VgnVCM1000000b205a0aRCRD
3552,Parroquia San Jaime,,calle juan jose martinez seco 54,Villaverde (Madrid),http://dbpedia.org/resource/Villaverde_(Madrid),40.35148579491901,-3.688147368960391,917 979 535,http://www.madrid.es/sites/v/index.jsp?vgnextchannel=9e4c43db40317010VgnVCM100000dc0ca8c0RCRD&vgnextoid=aae2ef4d7f71c010VgnVCM1000000b205a0aRCRD
3553,Parroquia San Jenaro,,calle vital aza 81,Ciudad Lineal,http://dbpedia.org/resource/Ciudad_Lineal,40.433901372590746,-3.6377948138217833,913 672 238,http://www.madrid.es/sites/v/index.jsp?vgnextchannel=9e4c43db40317010VgnVCM100000dc0ca8c0RCRD&vgnextoid=3df2ef4d7f71c010VgnVCM1000000b205a0aRCRD
3554,Parroquia San Jeronimo el Real (Los Jeronimos),,calle moreto 4,Retiro (Madrid),http://dbpedia.org/resource/Retiro_(Madrid),40.41435509318014,-3.690531846398855,914 203 078 ,http://www.madrid.es/sites/v/index.jsp?vgnextchannel=9e4c43db40317010VgnVCM100000dc0ca8c0RCRD&vgnextoid=cf03ef4d7f71c010VgnVCM1000000b205a0aRCRD
3559,Parroquia San Joaquin,,calle amposta 24,San Blas-Canillejas,http://dbpedia.org/resource/San_Blas-Canillejas,40.425594096303556,-3.6214245911710283,913 130 145,http://www.madrid.es/sites/v/index.jsp?vgnextchannel=9e4c43db40317010VgnVCM100000dc0ca8c0RCRD&vgnextoid=5223ef4d7f71c010VgnVCM1000000b205a0aRCRD
3560,Parroquia San Jorge,,calle padre damian 22,CHAMARTIN,http://dbpedia.org/page/Chamartin_(Madrid),40.455891271634634,-3.686734728579395,914 582 531,http://www.madrid.es/sites/v/index.jsp?vgnextchannel=9e4c43db40317010VgnVCM100000dc0ca8c0RCRD&vgnextoid=e433ef4d7f71c010VgnVCM1000000b205a0aRCRD
3370,Parroquia San Jose,,calle alcala 43,Centro (Madrid),http://dbpedia.org/resource/Centro_(Madrid),40.41904792380414,-3.6966856794698795,915 226 784,http://www.madrid.es/sites/v/index.jsp?vgnextchannel=9e4c43db40317010VgnVCM100000dc0ca8c0RCRD&vgnextoid=e41a0713fb71c010VgnVCM1000000b205a0aRCRD
3561,Parroquia San Jose de Calasanz,,calle imagen 12,Puente de Vallecas,http://dbpedia.org/resource/Puente_de_Vallecas,40.384493380359146,-3.666935091842646,914 778 315,http://www.madrid.es/sites/v/index.jsp?vgnextchannel=9e4c43db40317010VgnVCM100000dc0ca8c0RCRD&vgnextoid=7743ef4d7f71c010VgnVCM1000000b205a0aRCRD
4914933,Parroquia San Jose Maria Escriva de Balaguer,,calle ganimedes 19,Moncloa-Aravaca,http://dbpedia.org/resource/Moncloa-Aravaca,40.46603358226542,-3.7860032500253666,913 575 565,http://www.madrid.es/sites/v/index.jsp?vgnextchannel=9e4c43db40317010VgnVCM100000dc0ca8c0RCRD&vgnextoid=a0b7a1bd396e9110VgnVCM2000000c205a0aRCRD
3562,Parroquia San Jose Obrero,,calle julio antonio 3,Carabanchel,http://dbpedia.org/resource/Carabanchel,40.382840349062946,-3.7302890287830914,914 657 274,http://www.madrid.es/sites/v/index.jsp?vgnextchannel=9e4c43db40317010VgnVCM100000dc0ca8c0RCRD&vgnextoid=0a53ef4d7f71c010VgnVCM1000000b205a0aRCRD
3564,Parroquia San Juan Bautista,,calle faustina pe&ntilde;alver 1,Ciudad Lineal,http://dbpedia.org/resource/Ciudad_Lineal,40.45278137219362,-3.659189384942855,914 135 171,http://www.madrid.es/sites/v/index.jsp?vgnextchannel=9e4c43db40317010VgnVCM100000dc0ca8c0RCRD&vgnextoid=9c63ef4d7f71c010VgnVCM1000000b205a0aRCRD
107401,Parroquia San Juan Bautista de la Concepcion,,calle camarena 57,Latina (Madrid),http://dbpedia.org/resource/Latina_(Madrid),40.395022148365726,-3.7552948542232087,917 195 134,http://www.madrid.es/sites/v/index.jsp?vgnextchannel=9e4c43db40317010VgnVCM100000dc0ca8c0RCRD&vgnextoid=66235f463b81c010VgnVCM1000000b205a0aRCRD
3565,Parroquia San Juan Bosco,,calle doctor larra y cerezo 9,Latina (Madrid),http://dbpedia.org/resource/Latina_(Madrid),40.410134369605316,-3.735097948426098,914 634 189,http://www.madrid.es/sites/v/index.jsp?vgnextchannel=9e4c43db40317010VgnVCM100000dc0ca8c0RCRD&vgnextoid=2f73ef4d7f71c010VgnVCM1000000b205a0aRCRD
3393,Parroquia San Juan Crisostomo,,calle domenico scarlatti 2,Chamberí,http://dbpedia.org/resource/Chamberi,40.441838983283944,-3.7161407988931483,915 495 328,http://www.madrid.es/sites/v/index.jsp?vgnextchannel=9e4c43db40317010VgnVCM100000dc0ca8c0RCRD&vgnextoid=772a0713fb71c010VgnVCM1000000b205a0aRCRD
3563,Parroquia San Juan de avila,,calle fornillos 5,Usera,http://dbpedia.org/resource/Usera,40.382717533912206,-3.7138885312540326,914 693 307,http://www.madrid.es/sites/v/index.jsp?vgnextchannel=9e4c43db40317010VgnVCM100000dc0ca8c0RCRD&vgnextoid=b193ef4d7f71c010VgnVCM1000000b205a0aRCRD
3566,Parroquia San Juan de Dios,,calle monte de montjuich 19,Villa de Vallecas,http://dbpedia.org/resource/Villa_de_Vallecas,40.3807925678668,-3.614556896185747,913 013 421,http://www.madrid.es/sites/v/index.jsp?vgnextchannel=9e4c43db40317010VgnVCM100000dc0ca8c0RCRD&vgnextoid=44a3ef4d7f71c010VgnVCM1000000b205a0aRCRD
3401,Parroquia San Juan de la Cruz,,plaza san juan de la cruz 2,Chamberí,http://dbpedia.org/resource/Chamberi,40.44099515864825,-3.693480968127322,915 339 417,http://www.madrid.es/sites/v/index.jsp?vgnextchannel=9e4c43db40317010VgnVCM100000dc0ca8c0RCRD&vgnextoid=0a3a0713fb71c010VgnVCM1000000b205a0aRCRD
3384,Parroquia San Lorenzo,,calle doctor piga 2,Centro (Madrid),http://dbpedia.org/resource/Centro_(Madrid),40.40875465706089,-3.6989955651926554,915 273 461,http://www.madrid.es/sites/v/index.jsp?vgnextchannel=9e4c43db40317010VgnVCM100000dc0ca8c0RCRD&vgnextoid=9c4a0713fb71c010VgnVCM1000000b205a0aRCRD
3578,Parroquia San Lucas,,plaza paloma de la paz 1,Villaverde (Madrid),http://dbpedia.org/resource/Villaverde_(Madrid),40.34287594435619,-3.6876595507400585,917 972 609,http://www.madrid.es/sites/v/index.jsp?vgnextchannel=9e4c43db40317010VgnVCM100000dc0ca8c0RCRD&vgnextoid=3624ef4d7f71c010VgnVCM1000000b205a0aRCRD
3381,Parroquia San Luis de los Franceses,,calle lagasca 89,Salamanca (Madrid),http://dbpedia.org/resource/Salamanca_(Madrid),40.43210112425737,-3.684771362675984,914 355 160,http://www.madrid.es/sites/v/index.jsp?vgnextchannel=9e4c43db40317010VgnVCM100000dc0ca8c0RCRD&vgnextoid=2f5a0713fb71c010VgnVCM1000000b205a0aRCRD
3580,Parroquia San Luis Gonzaga,,calle martires de la ventilla 103,Tetuán (Madrid),http://dbpedia.org/resource/Tetuan_(Madrid),40.471648788293514,-3.6941383152556804,913 152 073,http://www.madrid.es/sites/v/index.jsp?vgnextchannel=9e4c43db40317010VgnVCM100000dc0ca8c0RCRD&vgnextoid=c834ef4d7f71c010VgnVCM1000000b205a0aRCRD
3375,Parroquia San Manuel y San Benito,,calle alcala 83,Salamanca (Madrid),http://dbpedia.org/resource/Salamanca_(Madrid),40.42074217866137,-3.6860471147515685,914 357 682,http://www.madrid.es/sites/v/index.jsp?vgnextchannel=9e4c43db40317010VgnVCM100000dc0ca8c0RCRD&vgnextoid=b17a0713fb71c010VgnVCM1000000b205a0aRCRD
3372,Parroquia San Marcos,,calle san leonardo 10,Centro (Madrid),http://dbpedia.org/resource/Centro_(Madrid),40.42476160196848,-3.7111617863516715,915 471 079 ,http://www.madrid.es/sites/v/index.jsp?vgnextchannel=9e4c43db40317010VgnVCM100000dc0ca8c0RCRD&vgnextoid=448a0713fb71c010VgnVCM1000000b205a0aRCRD
3620,Parroquia San Martin de Porres,,calle abegondo 28,Hortaleza,http://dbpedia.org/resource/Hortaleza,40.47633616330272,-3.6503003188997,913 820 494,http://www.madrid.es/sites/v/index.jsp?vgnextchannel=9e4c43db40317010VgnVCM100000dc0ca8c0RCRD&vgnextoid=5b44ef4d7f71c010VgnVCM1000000b205a0aRCRD
3621,Parroquia San Mateo,,avenida la verbena de la paloma 16,Villaverde (Madrid),http://dbpedia.org/resource/Villaverde_(Madrid),40.357941932775155,-3.6962447229867457,913 171 935,http://www.madrid.es/sites/v/index.jsp?vgnextchannel=9e4c43db40317010VgnVCM100000dc0ca8c0RCRD&vgnextoid=ed54ef4d7f71c010VgnVCM1000000b205a0aRCRD
3622,Parroquia San Matias,,plaza iglesia 2,Hortaleza,http://dbpedia.org/resource/Hortaleza,40.47278410477163,-3.64107636456447,917 631 662,http://www.madrid.es/sites/v/index.jsp?vgnextchannel=9e4c43db40317010VgnVCM100000dc0ca8c0RCRD&vgnextoid=7074ef4d7f71c010VgnVCM1000000b205a0aRCRD
3624,Parroquia San Miguel Arcangel de Carabanchel,,calle general ricardos 21,Carabanchel,http://dbpedia.org/resource/Carabanchel,40.39637721346998,-3.717944871579785,914 727 716,http://www.madrid.es/sites/v/index.jsp?vgnextchannel=9e4c43db40317010VgnVCM100000dc0ca8c0RCRD&vgnextoid=9594ef4d7f71c010VgnVCM1000000b205a0aRCRD
3626,Parroquia San Miguel Arcangel de Chamartin,,avenida burgos 2,CHAMARTIN,http://dbpedia.org/page/Chamartin_(Madrid),40.468931638303765,-3.6768290766268428,913 020 100,http://www.madrid.es/sites/v/index.jsp?vgnextchannel=9e4c43db40317010VgnVCM100000dc0ca8c0RCRD&vgnextoid=0384ef4d7f71c010VgnVCM1000000b205a0aRCRD
3625,Parroquia San Miguel Arcangel de Fuencarral,,calle islas bermudas 28,Fuencarral-El Pardo,http://dbpedia.org/resource/Fuencarral-El_Pardo,40.49408934867759,-3.688233267356295,917 340 692,http://www.madrid.es/sites/v/index.jsp?vgnextchannel=9e4c43db40317010VgnVCM100000dc0ca8c0RCRD&vgnextoid=28a4ef4d7f71c010VgnVCM1000000b205a0aRCRD
3627,Parroquia San Miguel de los Santos,,calle lopez de hoyos 39,CHAMARTIN,http://dbpedia.org/page/Chamartin_(Madrid),40.441150475172854,-3.6794627982734913,915 635 333,http://www.madrid.es/sites/v/index.jsp?vgnextchannel=9e4c43db40317010VgnVCM100000dc0ca8c0RCRD&vgnextoid=bab4ef4d7f71c010VgnVCM1000000b205a0aRCRD
3369,Parroquia San Millan y San Cayetano,,calle embajadores 15,Centro (Madrid),http://dbpedia.org/resource/Centro_(Madrid),40.409461123751505,-3.705791428982776,915 270 790,http://www.madrid.es/sites/v/index.jsp?vgnextchannel=9e4c43db40317010VgnVCM100000dc0ca8c0RCRD&vgnextoid=d69a0713fb71c010VgnVCM1000000b205a0aRCRD
63393,Parroquia San Nicolas de Bari de los Servitas,,plaza san nicolas 6,Centro (Madrid),http://dbpedia.org/resource/Centro_(Madrid),40.415793260849824,-3.7118688527171226,915 594 064,http://www.madrid.es/sites/v/index.jsp?vgnextchannel=9e4c43db40317010VgnVCM100000dc0ca8c0RCRD&vgnextoid=7838f0bde551c010VgnVCM2000000c205a0aRCRD
3634,Parroquia San Pablo,,calle el escritor 25,Puente de Vallecas,http://dbpedia.org/resource/Puente_de_Vallecas,40.389687015822595,-3.653542772631358,913 030 175,http://www.madrid.es/sites/v/index.jsp?vgnextchannel=9e4c43db40317010VgnVCM100000dc0ca8c0RCRD&vgnextoid=dfd4ef4d7f71c010VgnVCM1000000b205a0aRCRD
3635,Parroquia San Pablo de la Cruz,,avenida madro&ntilde;os 40,Hortaleza,http://dbpedia.org/resource/Hortaleza,40.45698546073524,-3.6388858099534422,913 002 981,http://www.madrid.es/sites/v/index.jsp?vgnextchannel=9e4c43db40317010VgnVCM100000dc0ca8c0RCRD&vgnextoid=4dc4ef4d7f71c010VgnVCM1000000b205a0aRCRD
3637,Parroquia San Patricio,,calle alejandro gonzalez 12,Salamanca (Madrid),http://dbpedia.org/resource/Salamanca_(Madrid),40.42953463528204,-3.6629470987953554,917 252 230,http://www.madrid.es/sites/v/index.jsp?vgnextchannel=9e4c43db40317010VgnVCM100000dc0ca8c0RCRD&vgnextoid=62f4ef4d7f71c010VgnVCM1000000b205a0aRCRD
3641,Parroquia San Pedro Advincula,,calle sierra gorda 5,Villa de Vallecas,http://dbpedia.org/resource/Villa_de_Vallecas,40.3802481264865,-3.620348016062302,913 311 222,http://www.madrid.es/sites/v/index.jsp?vgnextchannel=9e4c43db40317010VgnVCM100000dc0ca8c0RCRD&vgnextoid=48ddb069a541f010VgnVCM1000000b205a0aRCRD
3643,Parroquia San Pedro Apostol (Carabanchel),,plaza seis de diciembre 1,Carabanchel,http://dbpedia.org/resource/Carabanchel,40.373567429555585,-3.750390601566717,915 086 959,http://www.madrid.es/sites/v/index.jsp?vgnextchannel=9e4c43db40317010VgnVCM100000dc0ca8c0RCRD&vgnextoid=830eb069a541f010VgnVCM1000000b205a0aRCRD
3642,Parroquia San Pedro Apostol. Calle Orion,,calle orion 2,Barajas (Madrid),http://dbpedia.org/resource/Barajas_(Madrid),40.47465668024863,-3.578121184801616,913 056 204,http://www.madrid.es/sites/v/index.jsp?vgnextchannel=9e4c43db40317010VgnVCM100000dc0ca8c0RCRD&vgnextoid=4eedb069a541f010VgnVCM1000000b205a0aRCRD
29840,Parroquia San Pedro Martir de los Padres Dominicos,,avenida burgos 204,Hortaleza,http://dbpedia.org/resource/Hortaleza,40.50224958387765,-3.659189517802438,913 024 246,http://www.madrid.es/sites/v/index.jsp?vgnextchannel=9e4c43db40317010VgnVCM100000dc0ca8c0RCRD&vgnextoid=2e953d232e91f010VgnVCM1000000b205a0aRCRD
3644,Parroquia San Pedro Nolasco,,calle do&ntilde;a francisquita 27,Villaverde (Madrid),http://dbpedia.org/resource/Villaverde_(Madrid),40.356082791035504,-3.699770291408342,913 179 572,http://www.madrid.es/sites/v/index.jsp?vgnextchannel=9e4c43db40317010VgnVCM100000dc0ca8c0RCRD&vgnextoid=c91eb069a541f010VgnVCM1000000b205a0aRCRD
8174578,Parroquia San Pedro Poveda,,avenida camino de santiago 10,Fuencarral-El Pardo,http://dbpedia.org/resource/Fuencarral-El_Pardo,40.49866855024185,-3.6740241005198735,630 842 873,http://www.madrid.es/sites/v/index.jsp?vgnextchannel=9e4c43db40317010VgnVCM100000dc0ca8c0RCRD&vgnextoid=4125ebdd8854f410VgnVCM2000000c205a0aRCRD
3646,Parroquia San Pedro Regalado y San Jose de Calasanz,,plaza pe&ntilde;a gudina 1,Puente de Vallecas,http://dbpedia.org/resource/Puente_de_Vallecas,40.3867371429162,-3.6637172457005978,917 862 230,http://www.madrid.es/sites/v/index.jsp?vgnextchannel=9e4c43db40317010VgnVCM100000dc0ca8c0RCRD&vgnextoid=f43eb069a541f010VgnVCM1000000b205a0aRCRD
3653,Parroquia San Pio X,,calle doctor casal 9,Moncloa-Aravaca,http://dbpedia.org/resource/Moncloa-Aravaca,40.42673075126026,-3.733404209361858,915 472 127,http://www.madrid.es/sites/v/index.jsp?vgnextchannel=9e4c43db40317010VgnVCM100000dc0ca8c0RCRD&vgnextoid=fa4eb069a541f010VgnVCM1000000b205a0aRCRD
3659,Parroquia San Rafael Arcangel,,calle isla de saipan 35,Fuencarral-El Pardo,http://dbpedia.org/resource/Fuencarral-El_Pardo,40.475748885061186,-3.7305161163525526,913 739 400,http://www.madrid.es/sites/v/index.jsp?vgnextchannel=9e4c43db40317010VgnVCM100000dc0ca8c0RCRD&vgnextoid=a16eb069a541f010VgnVCM1000000b205a0aRCRD
8174571,Parroquia San Rafael Arnaiz,,calle octavio paz 2,Hortaleza,http://dbpedia.org/resource/Hortaleza,40.48999784668903,-3.6575356472619203,917 048 661,http://www.madrid.es/sites/v/index.jsp?vgnextchannel=9e4c43db40317010VgnVCM100000dc0ca8c0RCRD&vgnextoid=4742ebdd8854f410VgnVCM2000000c205a0aRCRD
3660,Parroquia San Raimundo de Penafort,,calle esteban carros 35,Puente de Vallecas,http://dbpedia.org/resource/Puente_de_Vallecas,40.37401627968452,-3.657408165038576,917 857 017,http://www.madrid.es/sites/v/index.jsp?vgnextchannel=9e4c43db40317010VgnVCM100000dc0ca8c0RCRD&vgnextoid=997eb069a541f010VgnVCM1000000b205a0aRCRD
3661,Parroquia San Ramon Nonato,,calle melquiades biencinto 10,Puente de Vallecas,http://dbpedia.org/resource/Puente_de_Vallecas,40.397227380925486,-3.6693349561194504,914 339 301,http://www.madrid.es/sites/v/index.jsp?vgnextchannel=9e4c43db40317010VgnVCM100000dc0ca8c0RCRD&vgnextoid=7995ef4d7f71c010VgnVCM1000000b205a0aRCRD
3395,Parroquia San Ricardo,,calle gaztambide 22,CHAMBERI,http://dbpedia.org/page/Chamartin_(Madrid),40.433428408805845,-3.7155210177417177,915 432 291,http://www.madrid.es/sites/v/index.jsp?vgnextchannel=9e4c43db40317010VgnVCM100000dc0ca8c0RCRD&vgnextoid=5a9eb069a541f010VgnVCM1000000b205a0aRCRD
3666,Parroquia San Romualdo,,calle ascao 30,Ciudad Lineal,http://dbpedia.org/resource/Ciudad_Lineal,40.42999396282743,-3.6405991175956873,913 675 135,http://www.madrid.es/sites/v/index.jsp?vgnextchannel=9e4c43db40317010VgnVCM100000dc0ca8c0RCRD&vgnextoid=96ceb069a541f010VgnVCM1000000b205a0aRCRD
3667,Parroquia San Roque,,calle abolengo 10,Carabanchel,http://dbpedia.org/resource/Carabanchel,40.38913511955554,-3.7363776865741594,914 616 210,http://www.madrid.es/sites/v/index.jsp?vgnextchannel=9e4c43db40317010VgnVCM100000dc0ca8c0RCRD&vgnextoid=9cdeb069a541f010VgnVCM1000000b205a0aRCRD
3682,Parroquia San Sebastian,,calle atocha 39,Centro (Madrid),http://dbpedia.org/resource/Centro_(Madrid),40.41350544318075,-3.701472719930406,914 291 361,http://www.madrid.es/sites/v/index.jsp?vgnextchannel=9e4c43db40317010VgnVCM100000dc0ca8c0RCRD&vgnextoid=5e0fb069a541f010VgnVCM1000000b205a0aRCRD
3683,Parroquia San Sebastian Martir,,plaza parroquia 1,Carabanchel,http://dbpedia.org/resource/Carabanchel,40.380040400811396,-3.7413207215629054,914 628 536,http://www.madrid.es/sites/v/index.jsp?vgnextchannel=9e4c43db40317010VgnVCM100000dc0ca8c0RCRD&vgnextoid=97feb069a541f010VgnVCM1000000b205a0aRCRD
3684,Parroquia San Simon y San Judas,,avenida orcasur 0,Usera,http://dbpedia.org/resource/Usera,40.37038446580724,-3.70056603706231,913 178 059,http://www.madrid.es/sites/v/index.jsp?vgnextchannel=9e4c43db40317010VgnVCM100000dc0ca8c0RCRD&vgnextoid=092fb069a541f010VgnVCM1000000b205a0aRCRD
3688,Parroquia San Timoteo,,calle sierra de gredos 26,Villa de Vallecas,http://dbpedia.org/resource/Villa_de_Vallecas,40.37919610256715,-3.6266526817915965,913 311 222,http://www.madrid.es/sites/v/index.jsp?vgnextchannel=9e4c43db40317010VgnVCM100000dc0ca8c0RCRD&vgnextoid=c84fb069a541f010VgnVCM1000000b205a0aRCRD
3694,Parroquia San Valentin y San Casimiro,,calle villajimena 75,Vicálvaro,http://dbpedia.org/resource/Vicalvaro,40.407097827485586,-3.606275317900553,913 718 941,http://www.madrid.es/sites/v/index.jsp?vgnextchannel=9e4c43db40317010VgnVCM100000dc0ca8c0RCRD&vgnextoid=0e5fb069a541f010VgnVCM1000000b205a0aRCRD
3704,Parroquia San Vicente de Paul,,plaza san vicente de paul 1,Carabanchel,http://dbpedia.org/resource/Carabanchel,40.3853810852385,-3.725969104633047,915 693 818,http://www.madrid.es/sites/v/index.jsp?vgnextchannel=9e4c43db40317010VgnVCM100000dc0ca8c0RCRD&vgnextoid=047fb069a541f010VgnVCM1000000b205a0aRCRD
3697,Parroquia San Vicente Ferrer,,calle ibiza 43,Retiro (Madrid),http://dbpedia.org/resource/Retiro_(Madrid),40.4182359609083,-3.6725370704183042,915 041 521,http://www.madrid.es/sites/v/index.jsp?vgnextchannel=9e4c43db40317010VgnVCM100000dc0ca8c0RCRD&vgnextoid=4a8fb069a541f010VgnVCM1000000b205a0aRCRD
3698,Parroquia San Victor,,calle ramon gomez de la serna 101,Fuencarral-El Pardo,http://dbpedia.org/resource/Fuencarral-El_Pardo,40.48222205249464,-3.726905188579619,913 736 764,http://www.madrid.es/sites/v/index.jsp?vgnextchannel=9e4c43db40317010VgnVCM100000dc0ca8c0RCRD&vgnextoid=75afb069a541f010VgnVCM1000000b205a0aRCRD
3402,Parroquia Santa Adela,,calle san faustino 6,San Blas-Canillejas,http://dbpedia.org/resource/San_Blas-Canillejas,40.44715519402989,-3.609111502480519,917 421 921,http://www.madrid.es/sites/v/index.jsp?vgnextchannel=9e4c43db40317010VgnVCM100000dc0ca8c0RCRD&vgnextoid=7bbfb069a541f010VgnVCM1000000b205a0aRCRD
3414,Parroquia Santa Ana y Nuestra Senora de la Esperanza,,calle ca&ntilde;ada 35,Moratalaz,http://dbpedia.org/resource/Moratalaz,40.405419690009424,-3.645021156304465,914 303 298,http://www.madrid.es/sites/v/index.jsp?vgnextchannel=9e4c43db40317010VgnVCM100000dc0ca8c0RCRD&vgnextoid=71dfb069a541f010VgnVCM1000000b205a0aRCRD
3418,Parroquia Santa angela de la Cruz,,calle cesar manrique 7,Fuencarral-El Pardo,http://dbpedia.org/resource/Fuencarral-El_Pardo,40.47262213558603,-3.7205729912660668,913 733 691,http://www.madrid.es/sites/v/index.jsp?vgnextchannel=9e4c43db40317010VgnVCM100000dc0ca8c0RCRD&vgnextoid=b7efb069a541f010VgnVCM1000000b205a0aRCRD
3358,Parroquia Santa Barbara,,calle general casta&ntilde;os 2,Centro (Madrid),http://dbpedia.org/resource/Centro_(Madrid),40.42428879388528,-3.6940873878242177,913 194 811,http://www.madrid.es/sites/v/index.jsp?vgnextchannel=9e4c43db40317010VgnVCM100000dc0ca8c0RCRD&vgnextoid=6effb069a541f010VgnVCM1000000b205a0aRCRD
3438,Parroquia Santa Beatriz,,calle concejal francisco jose jimenez martin 130,Latina (Madrid),http://dbpedia.org/resource/Latina_(Madrid),40.400403986918796,-3.7478367537776114,914 647 066,http://www.madrid.es/sites/v/index.jsp?vgnextchannel=9e4c43db40317010VgnVCM100000dc0ca8c0RCRD&vgnextoid=9c10b069a541f010VgnVCM1000000b205a0aRCRD
3444,Parroquia Santa Bibiana,,calle alcocer 9,Villaverde (Madrid),http://dbpedia.org/resource/Villaverde_(Madrid),40.350247042735425,-3.6964246403270287,917 965 881,http://www.madrid.es/sites/v/index.jsp?vgnextchannel=9e4c43db40317010VgnVCM100000dc0ca8c0RCRD&vgnextoid=4630b069a541f010VgnVCM1000000b205a0aRCRD
3457,Parroquia Santa Casilda,,calle parador del sol 10,Carabanchel,http://dbpedia.org/resource/Carabanchel,40.393347659705874,-3.709593988018716,915 691 090,http://www.madrid.es/sites/v/index.jsp?vgnextchannel=9e4c43db40317010VgnVCM100000dc0ca8c0RCRD&vgnextoid=4c40b069a541f010VgnVCM1000000b205a0aRCRD
3380,Parroquia Santa Catalina de Alejandria,,calle rambla 5,Barajas (Madrid),http://dbpedia.org/resource/Barajas_(Madrid),40.45782898468129,-3.5956445930957286,917 426 437,http://www.madrid.es/sites/v/index.jsp?vgnextchannel=9e4c43db40317010VgnVCM100000dc0ca8c0RCRD&vgnextoid=4260b069a541f010VgnVCM1000000b205a0aRCRD
3461,Parroquia Santa Catalina de Siena,,calle juan de urbieta 57,Retiro (Madrid),http://dbpedia.org/resource/Retiro_(Madrid),40.408677099665184,-3.6741272429417076,915 512 507,http://www.madrid.es/sites/v/index.jsp?vgnextchannel=9e4c43db40317010VgnVCM100000dc0ca8c0RCRD&vgnextoid=8770b069a541f010VgnVCM1000000b205a0aRCRD
3460,Parroquia Santa Catalina Laboure,,calle arroyo opa&ntilde;el 29,Carabanchel,http://dbpedia.org/resource/Carabanchel,40.38739838831175,-3.7203237047626203,914 699 179,http://www.madrid.es/sites/v/index.jsp?vgnextchannel=9e4c43db40317010VgnVCM100000dc0ca8c0RCRD&vgnextoid=bd80b069a541f010VgnVCM1000000b205a0aRCRD
3379,Parroquia Santa Cecilia,,calle medina de pomar 11,Barajas (Madrid),http://dbpedia.org/resource/Barajas_(Madrid),40.45198463362452,-3.5845663868554682,917 475 814,http://www.madrid.es/sites/v/index.jsp?vgnextchannel=9e4c43db40317010VgnVCM100000dc0ca8c0RCRD&vgnextoid=2fa0b069a541f010VgnVCM1000000b205a0aRCRD
3471,Parroquia Santa Cristina,,paseo extremadura 32,Latina (Madrid),http://dbpedia.org/resource/Latina_(Madrid),40.41383727525878,-3.7279485176578415,914 644 970,http://www.madrid.es/sites/v/index.jsp?vgnextchannel=9e4c43db40317010VgnVCM100000dc0ca8c0RCRD&vgnextoid=25c0b069a541f010VgnVCM1000000b205a0aRCRD
3362,Parroquia Santa Cruz,,calle atocha 6,Centro (Madrid),http://dbpedia.org/resource/Centro_(Madrid),40.414608558946085,-3.705255882048698,913 691 239,http://www.madrid.es/sites/v/index.jsp?vgnextchannel=9e4c43db40317010VgnVCM100000dc0ca8c0RCRD&vgnextoid=40e0b069a541f010VgnVCM1000000b205a0aRCRD
3496,Parroquia Santa Elena,,calle orfila 1,Chamberí,http://dbpedia.org/resource/Chamberi,40.427437349794005,-3.6933534811225455,913 191 875,http://www.madrid.es/sites/v/index.jsp?vgnextchannel=9e4c43db40317010VgnVCM100000dc0ca8c0RCRD&vgnextoid=67f0b069a541f010VgnVCM1000000b205a0aRCRD
3508,Parroquia Santa Eugenia,,calle virgen de las vi&ntilde;as 17,Villa de Vallecas,http://dbpedia.org/resource/Villa_de_Vallecas,40.38025586201322,-3.6087206082757124,917 650 362,http://www.madrid.es/sites/v/index.jsp?vgnextchannel=9e4c43db40317010VgnVCM100000dc0ca8c0RCRD&vgnextoid=2e01b069a541f010VgnVCM1000000b205a0aRCRD
3509,Parroquia Santa Eulalia de Merida,,calle pedroches 5,Puente de Vallecas,http://dbpedia.org/resource/Puente_de_Vallecas,40.3796743689357,-3.669903376835299,917 858 383,http://www.madrid.es/sites/v/index.jsp?vgnextchannel=9e4c43db40317010VgnVCM100000dc0ca8c0RCRD&vgnextoid=9621b069a541f010VgnVCM1000000b205a0aRCRD
3513,Parroquia Santa Feliciana,,calle trafalgar 19,Chamberí,http://dbpedia.org/resource/Chamberi,40.43197737572386,-3.700910096265308,914 489 905,http://www.madrid.es/sites/v/index.jsp?vgnextchannel=9e4c43db40317010VgnVCM100000dc0ca8c0RCRD&vgnextoid=e041b069a541f010VgnVCM1000000b205a0aRCRD
3521,Parroquia Santa Florentina,,calle longares 8,San Blas-Canillejas,http://dbpedia.org/resource/San_Blas-Canillejas,40.43142237577199,-3.6096886871893625,913 133 663,http://www.madrid.es/sites/v/index.jsp?vgnextchannel=9e4c43db40317010VgnVCM100000dc0ca8c0RCRD&vgnextoid=e651b069a541f010VgnVCM1000000b205a0aRCRD
3532,Parroquia Santa Gema,,calle leizaran 24,CHAMARTIN,http://dbpedia.org/page/Chamartin_(Madrid),40.447894125461964,-3.681688718771783,915 635 068,http://www.madrid.es/sites/v/index.jsp?vgnextchannel=9e4c43db40317010VgnVCM100000dc0ca8c0RCRD&vgnextoid=0d61b069a541f010VgnVCM1000000b205a0aRCRD
3543,Parroquia Santa Ines,,avenida real de pinto 72,Villaverde (Madrid),http://dbpedia.org/resource/Villaverde_(Madrid),40.34287492199279,-3.707251624305595,917 967 181,http://www.madrid.es/sites/v/index.jsp?vgnextchannel=9e4c43db40317010VgnVCM100000dc0ca8c0RCRD&vgnextoid=0981b069a541f010VgnVCM1000000b205a0aRCRD
3547,Parroquia Santa Irene,,calle andaluces 7,Puente de Vallecas,http://dbpedia.org/resource/Puente_de_Vallecas,40.390597911831264,-3.638858903756565,917 771 719,http://www.madrid.es/sites/v/index.jsp?vgnextchannel=9e4c43db40317010VgnVCM100000dc0ca8c0RCRD&vgnextoid=0f91b069a541f010VgnVCM1000000b205a0aRCRD
3581,Parroquia Santa Luisa de Marillac,,avenida abrantes 111,Carabanchel,http://dbpedia.org/resource/Carabanchel,40.378874834395646,-3.7305289359271807,914 691 960,http://www.madrid.es/sites/v/index.jsp?vgnextchannel=9e4c43db40317010VgnVCM100000dc0ca8c0RCRD&vgnextoid=05b1b069a541f010VgnVCM1000000b205a0aRCRD
4923174,Parroquia Santa Maravillas de Jesus,,calle morales 64,Carabanchel,http://dbpedia.org/resource/Carabanchel,40.36186553356243,-3.765371191569051,917 524 136,http://www.madrid.es/sites/v/index.jsp?vgnextchannel=9e4c43db40317010VgnVCM100000dc0ca8c0RCRD&vgnextoid=0a0b25a10f92a110VgnVCM1000000b205a0aRCRD
3590,Parroquia Santa Margarita Maria de Alacoque,,calle jaime vera 33,Latina (Madrid),http://dbpedia.org/resource/Latina_(Madrid),40.40980649816479,-3.7285415133975706,914 649 930,http://www.madrid.es/sites/v/index.jsp?vgnextchannel=9e4c43db40317010VgnVCM100000dc0ca8c0RCRD&vgnextoid=0bc1b069a541f010VgnVCM1000000b205a0aRCRD
3727,Parroquia Santa Maria,,avenida burgos 12,CHAMARTIN,http://dbpedia.org/page/Chamartin_(Madrid),40.473848069808064,-3.6757105430292083,917 680 725,http://www.madrid.es/sites/v/index.jsp?vgnextchannel=9e4c43db40317010VgnVCM100000dc0ca8c0RCRD&vgnextoid=bb04b069a541f010VgnVCM1000000b205a0aRCRD
3551,Parroquia Santa Maria de Cervellon,,calle belisana 2,Ciudad Lineal,http://dbpedia.org/resource/Ciudad_Lineal,40.45749636314002,-3.657029970531773,913 002 902,http://www.madrid.es/sites/v/index.jsp?vgnextchannel=9e4c43db40317010VgnVCM100000dc0ca8c0RCRD&vgnextoid=01e1b069a541f010VgnVCM1000000b205a0aRCRD
3602,Parroquia Santa Maria de Fontarron,,calle ramon perez de ayala 32,Puente de Vallecas,http://dbpedia.org/resource/Puente_de_Vallecas,40.3989148850395,-3.6530899391430474,914 302 351,http://www.madrid.es/sites/v/index.jsp?vgnextchannel=9e4c43db40317010VgnVCM100000dc0ca8c0RCRD&vgnextoid=e9f1b069a541f010VgnVCM1000000b205a0aRCRD
3597,Parroquia Santa Maria de la Cabeza,,ronda segovia 1,Centro (Madrid),http://dbpedia.org/resource/Centro_(Madrid),40.41328418324546,-3.716981257691412,913 658 518,http://www.madrid.es/sites/v/index.jsp?vgnextchannel=9e4c43db40317010VgnVCM100000dc0ca8c0RCRD&vgnextoid=4b12b069a541f010VgnVCM1000000b205a0aRCRD
3599,Parroquia Santa Maria de la Caridad,,calle fermin caballero 39,Fuencarral-El Pardo,http://dbpedia.org/resource/Fuencarral-El_Pardo,40.48486511548358,-3.7045276665663915,917 306 851,http://www.madrid.es/sites/v/index.jsp?vgnextchannel=9e4c43db40317010VgnVCM100000dc0ca8c0RCRD&vgnextoid=8132b069a541f010VgnVCM1000000b205a0aRCRD
3600,Parroquia Santa Maria de la Esperanza,,calle fermin caballero 53,Fuencarral-El Pardo,http://dbpedia.org/resource/Fuencarral-El_Pardo,40.483080303551255,-3.7076474197617926,917 392 222,http://www.madrid.es/sites/v/index.jsp?vgnextchannel=9e4c43db40317010VgnVCM100000dc0ca8c0RCRD&vgnextoid=9942b069a541f010VgnVCM1000000b205a0aRCRD
3601,Parroquia Santa Maria de la Fe,,calle puerto de maspalomas 16,Fuencarral-El Pardo,http://dbpedia.org/resource/Fuencarral-El_Pardo,40.47880850659646,-3.713761015315405,913 860 220,http://www.madrid.es/sites/v/index.jsp?vgnextchannel=9e4c43db40317010VgnVCM100000dc0ca8c0RCRD&vgnextoid=7362b069a541f010VgnVCM1000000b205a0aRCRD
3607,Parroquia Santa Maria de Martala,,calle fobos 2,Moratalaz,http://dbpedia.org/resource/Moratalaz,40.40882802221503,-3.6347295106313413,913 713 294,http://www.madrid.es/sites/v/index.jsp?vgnextchannel=9e4c43db40317010VgnVCM100000dc0ca8c0RCRD&vgnextoid=7972b069a541f010VgnVCM1000000b205a0aRCRD
8174584,Parroquia Santa Maria de Nazaret,,calle ca&ntilde;ada del santisimo 27,Villa de Vallecas,http://dbpedia.org/resource/Villa_de_Vallecas,40.36648844495459,-3.596900948645162,627 071 241,http://www.madrid.es/sites/v/index.jsp?vgnextchannel=9e4c43db40317010VgnVCM100000dc0ca8c0RCRD&vgnextoid=98e83af83a54f410VgnVCM1000000b205a0aRCRD
3595,Parroquia Santa Maria del Bosque,,calle manuel uribe 1,Ciudad Lineal,http://dbpedia.org/resource/Ciudad_Lineal,40.4644800965384,-3.6645998357162135,913 000 646,http://www.madrid.es/sites/v/index.jsp?vgnextchannel=9e4c43db40317010VgnVCM100000dc0ca8c0RCRD&vgnextoid=7f82b069a541f010VgnVCM1000000b205a0aRCRD
3596,Parroquia Santa Maria del Buen Aire,,calle encomienda de palacios 192,Moratalaz,http://dbpedia.org/resource/Moratalaz,40.39940241336233,-3.641640649015935,917 730 363,http://www.madrid.es/sites/v/index.jsp?vgnextchannel=9e4c43db40317010VgnVCM100000dc0ca8c0RCRD&vgnextoid=75a2b069a541f010VgnVCM1000000b205a0aRCRD
3598,Parroquia Santa Maria del Camino,,calle encomienda de palacios 334,Moratalaz,http://dbpedia.org/resource/Moratalaz,40.39643929309246,-3.634954876493032,917 721 569,http://www.madrid.es/sites/v/index.jsp?vgnextchannel=9e4c43db40317010VgnVCM100000dc0ca8c0RCRD&vgnextoid=bbb2b069a541f010VgnVCM1000000b205a0aRCRD
3611,Parroquia Santa Maria del Monte Carmelo,,calle ayala 35,Salamanca (Madrid),http://dbpedia.org/resource/Salamanca_(Madrid),40.42777634196356,-3.683324619190937,914 351 660,http://www.madrid.es/sites/v/index.jsp?vgnextchannel=9e4c43db40317010VgnVCM100000dc0ca8c0RCRD&vgnextoid=e6d2b069a541f010VgnVCM1000000b205a0aRCRD
3612,Parroquia Santa Maria del Parque,,calle santa virgilia 13,Hortaleza,http://dbpedia.org/resource/Hortaleza,40.47725595734675,-3.6420862978327064,917 631 228,http://www.madrid.es/sites/v/index.jsp?vgnextchannel=9e4c43db40317010VgnVCM100000dc0ca8c0RCRD&vgnextoid=5ee2b069a541f010VgnVCM1000000b205a0aRCRD
3613,Parroquia Santa Maria del Pilar,,calle reyes magos 3,Retiro (Madrid),http://dbpedia.org/resource/Retiro_(Madrid),40.412100206424185,-3.674184973880875,915 748 120,http://www.madrid.es/sites/v/index.jsp?vgnextchannel=9e4c43db40317010VgnVCM100000dc0ca8c0RCRD&vgnextoid=2603b069a541f010VgnVCM1000000b205a0aRCRD
3614,Parroquia Santa Maria del Pinar,,calle jazmin 7,Ciudad Lineal,http://dbpedia.org/resource/Ciudad_Lineal,40.478908015024125,-3.666936492853305,913 024 071,http://www.madrid.es/sites/v/index.jsp?vgnextchannel=9e4c43db40317010VgnVCM100000dc0ca8c0RCRD&vgnextoid=2c13b069a541f010VgnVCM1000000b205a0aRCRD
3615,Parroquia Santa Maria del Pozo y Santa Marta,,calle montanchez 13,Puente de Vallecas,http://dbpedia.org/resource/Puente_de_Vallecas,40.374533733474344,-3.669287042842154,917 861 189,http://www.madrid.es/sites/v/index.jsp?vgnextchannel=9e4c43db40317010VgnVCM100000dc0ca8c0RCRD&vgnextoid=5733b069a541f010VgnVCM1000000b205a0aRCRD
3392,Parroquia Santa Maria del Silencio,,calle raimundo fernandez villaverde 18,Chamberí,http://dbpedia.org/resource/Chamberi,40.44645379827357,-3.70108404423672,915 546 236,http://www.madrid.es/sites/v/index.jsp?vgnextchannel=9e4c43db40317010VgnVCM100000dc0ca8c0RCRD&vgnextoid=9c43b069a541f010VgnVCM1000000b205a0aRCRD
3618,Parroquia Santa Maria del Val,,avenida monforte de lemos 115,Fuencarral-El Pardo,http://dbpedia.org/resource/Fuencarral-El_Pardo,40.478227081663015,-3.708693644369923,917 309 461,http://www.madrid.es/sites/v/index.jsp?vgnextchannel=9e4c43db40317010VgnVCM100000dc0ca8c0RCRD&vgnextoid=0863b069a541f010VgnVCM1000000b205a0aRCRD
10471114,Parroquia Santa Maria Josefa del Corazon de Jesus,,avenida la gavia 25,Villa de Vallecas,http://dbpedia.org/resource/Villa_de_Vallecas,40.372717994646166,-3.611609383129395,914 254 468,http://www.madrid.es/sites/v/index.jsp?vgnextchannel=9e4c43db40317010VgnVCM100000dc0ca8c0RCRD&vgnextoid=54aca0752bf0e510VgnVCM2000001f4a900aRCRD
3592,Parroquia Santa Maria La Antigua,,calle virgen de la antigua 9,Vicálvaro,http://dbpedia.org/resource/Vicalvaro,40.40172520926162,-3.6051665218853537,"917 765 202
",http://www.madrid.es/sites/v/index.jsp?vgnextchannel=9e4c43db40317010VgnVCM100000dc0ca8c0RCRD&vgnextoid=9e73b069a541f010VgnVCM1000000b205a0aRCRD
3594,Parroquia Santa Maria la Blanca,,plaza villa de canillejas 1,San Blas-Canillejas,http://dbpedia.org/resource/San_Blas-Canillejas,40.44521583994072,-3.6112755082967087,917 410 355,http://www.madrid.es/sites/v/index.jsp?vgnextchannel=9e4c43db40317010VgnVCM100000dc0ca8c0RCRD&vgnextoid=c993b069a541f010VgnVCM1000000b205a0aRCRD
189092,Parroquia Santa Maria la Blanca de Montecarmelo,,calle monasterio de oseira 25,Fuencarral-El Pardo,http://dbpedia.org/resource/Fuencarral-El_Pardo,40.512079203751064,-3.695912476173436,914 109 815,http://www.madrid.es/sites/v/index.jsp?vgnextchannel=9e4c43db40317010VgnVCM100000dc0ca8c0RCRD&vgnextoid=9d058aa6bd91f010VgnVCM1000000b205a0aRCRD
3608,Parroquia Santa Maria la Mayor y San Julian,,calle cenicientos 1,Tetuán (Madrid),http://dbpedia.org/resource/Tetuan_(Madrid),40.45775176629402,-3.705411974831119,913 114 170,http://www.madrid.es/sites/v/index.jsp?vgnextchannel=9e4c43db40317010VgnVCM100000dc0ca8c0RCRD&vgnextoid=3328ff632081c010VgnVCM1000000b205a0aRCRD
3616,Parroquia Santa Maria la Real de la Almudena,,calle mayor 90,Centro (Madrid),http://dbpedia.org/resource/Centro_(Madrid),40.41521119054696,-3.7142200549476727,915 480 930,http://www.madrid.es/sites/v/index.jsp?vgnextchannel=9e4c43db40317010VgnVCM100000dc0ca8c0RCRD&vgnextoid=0fa3b069a541f010VgnVCM1000000b205a0aRCRD
3605,Parroquia Santa Maria Madre de la Iglesia,,calle gomez de arteche 30,Carabanchel,http://dbpedia.org/resource/Carabanchel,40.36881495577835,-3.7566394279327944,915 082 374,http://www.madrid.es/sites/v/index.jsp?vgnextchannel=9e4c43db40317010VgnVCM100000dc0ca8c0RCRD&vgnextoid=45c3b069a541f010VgnVCM1000000b205a0aRCRD
3606,Parroquia Santa Maria Magdalena,,calle dracena 23,CHAMARTIN,http://dbpedia.org/page/Chamartin_(Madrid),40.46340992767375,-3.67051044011457,913 454 938,http://www.madrid.es/sites/v/index.jsp?vgnextchannel=9e4c43db40317010VgnVCM100000dc0ca8c0RCRD&vgnextoid=4bd3b069a541f010VgnVCM1000000b205a0aRCRD
3610,Parroquia Santa Maria Micaela y San Enrique,,calle san german  23,Tetuán (Madrid),http://dbpedia.org/resource/Tetuan_(Madrid),40.45622644488271,-3.696963415991364,915 794 269,http://www.madrid.es/sites/v/index.jsp?vgnextchannel=9e4c43db40317010VgnVCM100000dc0ca8c0RCRD&vgnextoid=80f3b069a541f010VgnVCM1000000b205a0aRCRD
3623,Parroquia Santa Matilde,,calle lopez de hoyos 166,CHAMARTIN,http://dbpedia.org/page/Chamartin_(Madrid),40.446483072284444,-3.670330403563394,914 132 820,http://www.madrid.es/sites/v/index.jsp?vgnextchannel=9e4c43db40317010VgnVCM100000dc0ca8c0RCRD&vgnextoid=b124b069a541f010VgnVCM1000000b205a0aRCRD
3629,Parroquia Santa Monica,,calle principe de vergara 87,Salamanca (Madrid),http://dbpedia.org/resource/Salamanca_(Madrid),40.43628582493575,-3.6794256146633564,914 118 960,http://www.madrid.es/sites/v/index.jsp?vgnextchannel=9e4c43db40317010VgnVCM100000dc0ca8c0RCRD&vgnextoid=ed34b069a541f010VgnVCM1000000b205a0aRCRD
3639,Parroquia Santa Paula,,carretera canillas 115,Hortaleza,http://dbpedia.org/resource/Hortaleza,40.46656008335928,-3.6392360327935314,913 811 266,http://www.madrid.es/sites/v/index.jsp?vgnextchannel=9e4c43db40317010VgnVCM100000dc0ca8c0RCRD&vgnextoid=e354b069a541f010VgnVCM1000000b205a0aRCRD
3396,Parroquia Santa Rita,,calle gaztambide 75,Chamberí,http://dbpedia.org/resource/Chamberi,40.43845634670502,-3.715373878141743,915 490 133,http://www.madrid.es/sites/v/index.jsp?vgnextchannel=9e4c43db40317010VgnVCM100000dc0ca8c0RCRD&vgnextoid=e964b069a541f010VgnVCM1000000b205a0aRCRD
3668,Parroquia Santa Rosa de Lima,,calle via carpetana 47,Carabanchel,http://dbpedia.org/resource/Carabanchel,40.39885593724936,-3.733537635392138,914 281 170,http://www.madrid.es/sites/v/index.jsp?vgnextchannel=9e4c43db40317010VgnVCM100000dc0ca8c0RCRD&vgnextoid=9084b069a541f010VgnVCM1000000b205a0aRCRD
3669,Parroquia Santa Rosalia,,calle las pedro&ntilde;eras 13,Hortaleza,http://dbpedia.org/resource/Hortaleza,40.465866687242666,-3.6309843583716894,913 001 988,http://www.madrid.es/sites/v/index.jsp?vgnextchannel=9e4c43db40317010VgnVCM100000dc0ca8c0RCRD&vgnextoid=ad94b069a541f010VgnVCM1000000b205a0aRCRD
59906,Parroquia Santa Teresa Benedicta de la Cruz,,calle senda del infante 22,Fuencarral-El Pardo,http://dbpedia.org/resource/Fuencarral-El_Pardo,40.48948949494469,-3.7201515921425043,913 763 479,http://www.madrid.es/sites/v/index.jsp?vgnextchannel=9e4c43db40317010VgnVCM100000dc0ca8c0RCRD&vgnextoid=b3cf6fdb2541f010VgnVCM1000000b205a0aRCRD
8132680,Parroquia Santa Teresa de Calcuta,,calle minerva 58,Vicálvaro,http://dbpedia.org/resource/Vicalvaro,40.39677413854557,-3.6061355724326614,917 768 162,http://www.madrid.es/sites/v/index.jsp?vgnextchannel=9e4c43db40317010VgnVCM100000dc0ca8c0RCRD&vgnextoid=3b898142a0d6e410VgnVCM2000000c205a0aRCRD
3687,Parroquia Santa Teresa y San Jose,,plaza espa&ntilde;a 14,Moncloa-Aravaca,http://dbpedia.org/resource/Moncloa-Aravaca,40.4225775509256,-3.714710539571387,915 479 105,http://www.madrid.es/sites/v/index.jsp?vgnextchannel=9e4c43db40317010VgnVCM100000dc0ca8c0RCRD&vgnextoid=a3b4b069a541f010VgnVCM1000000b205a0aRCRD
3399,Parroquia Santa Teresa y Santa Isabel,,glorieta pintor sorolla 2,CHAMBERI,http://dbpedia.org/page/Chamberi,40.43507812578093,-3.699150189888235,914 483 620,http://www.madrid.es/sites/v/index.jsp?vgnextchannel=9e4c43db40317010VgnVCM100000dc0ca8c0RCRD&vgnextoid=6fc4b069a541f010VgnVCM1000000b205a0aRCRD
3572,Parroquia Santas Justa y Rufina,,calle santa aurea 7,Latina (Madrid),http://dbpedia.org/resource/Latina_(Madrid),40.40716308851109,-3.7348299146743167,914 639 960,http://www.madrid.es/sites/v/index.jsp?vgnextchannel=9e4c43db40317010VgnVCM100000dc0ca8c0RCRD&vgnextoid=a5e4b069a541f010VgnVCM1000000b205a0aRCRD
3648,Parroquia Santas Perpetua y Felicidad,,calle santa felicidad 1,Ciudad Lineal,http://dbpedia.org/resource/Ciudad_Lineal,40.42668923239821,-3.6499987334929016,914 052 783,http://www.madrid.es/sites/v/index.jsp?vgnextchannel=9e4c43db40317010VgnVCM100000dc0ca8c0RCRD&vgnextoid=a105b069a541f010VgnVCM1000000b205a0aRCRD
3681,Parroquia Santiago el Mayor y Nuestra Senora de las Cruces,,calle santa cruz de marcenado 11,Centro (Madrid),http://dbpedia.org/resource/Centro_(Madrid),40.42866052669565,-3.708550322183878,915 426 582,http://www.madrid.es/sites/v/index.jsp?vgnextchannel=9e4c43db40317010VgnVCM100000dc0ca8c0RCRD&vgnextoid=ac15b069a541f010VgnVCM1000000b205a0aRCRD
3373,Parroquia Santiago y San Juan Bautista,,plaza santiago 24,Centro (Madrid),http://dbpedia.org/resource/Centro_(Madrid),40.41652031892383,-3.7108392672110684,915 480 824,http://www.madrid.es/sites/v/index.jsp?vgnextchannel=9e4c43db40317010VgnVCM100000dc0ca8c0RCRD&vgnextoid=e235b069a541f010VgnVCM1000000b205a0aRCRD
3693,Parroquia Santisima Trinidad,,calle martinez villergas 8,Ciudad Lineal,http://dbpedia.org/resource/Ciudad_Lineal,40.439847970639065,-3.6522124629579524,914 047 391,http://www.madrid.es/sites/v/index.jsp?vgnextchannel=9e4c43db40317010VgnVCM100000dc0ca8c0RCRD&vgnextoid=0f45b069a541f010VgnVCM1000000b205a0aRCRD
3474,Parroquia Santisimo Cristo de la Esperanza,,calle misterios 38,Ciudad Lineal,http://dbpedia.org/resource/Ciudad_Lineal,40.441281010385794,-3.64245135622082,913 670 208,http://www.madrid.es/sites/v/index.jsp?vgnextchannel=9e4c43db40317010VgnVCM100000dc0ca8c0RCRD&vgnextoid=7665b069a541f010VgnVCM1000000b205a0aRCRD
3475,Parroquia Santisimo Cristo de la Guia - San Juan de Sahagun,,camino viejo de vicalvaro 18,Vicálvaro,http://dbpedia.org/resource/Vicalvaro,40.40501123774939,-3.615837754707104,917 767 301,http://www.madrid.es/sites/v/index.jsp?vgnextchannel=9e4c43db40317010VgnVCM100000dc0ca8c0RCRD&vgnextoid=6385b069a541f010VgnVCM1000000b205a0aRCRD
3482,Parroquia Santisimo Cristo de la Salud,,calle ayala 12,Salamanca (Madrid),http://dbpedia.org/resource/Salamanca_(Madrid),40.4278378287955,-3.688146901277836,914 359 803,http://www.madrid.es/sites/v/index.jsp?vgnextchannel=9e4c43db40317010VgnVCM100000dc0ca8c0RCRD&vgnextoid=c0a5b069a541f010VgnVCM1000000b205a0aRCRD
3390,Parroquia Santisimo Cristo de la Victoria,,calle blasco de garay 33,Chamberí,http://dbpedia.org/resource/Chamberi,40.43360527552804,-3.7116793866842746,915 437 657,http://www.madrid.es/sites/v/index.jsp?vgnextchannel=9e4c43db40317010VgnVCM100000dc0ca8c0RCRD&vgnextoid=a1b53d232e91f010VgnVCM1000000b205a0aRCRD
3472,Parroquia Santisimo Cristo del Amor,,calle rafael finat 46,Latina (Madrid),http://dbpedia.org/resource/Latina_(Madrid),40.378656476172964,-3.771097909474073,917 064 939,http://www.madrid.es/sites/v/index.jsp?vgnextchannel=9e4c43db40317010VgnVCM100000dc0ca8c0RCRD&vgnextoid=8cc53d232e91f010VgnVCM1000000b205a0aRCRD
3663,Parroquia Santisimo Redentor,,calle felix boix 13,CHAMARTIN,http://dbpedia.org/page/Chamartin_(Madrid),40.46336374850606,-3.6860559380181925,913 453 600,http://www.madrid.es/sites/v/index.jsp?vgnextchannel=9e4c43db40317010VgnVCM100000dc0ca8c0RCRD&vgnextoid=bfd53d232e91f010VgnVCM1000000b205a0aRCRD
3672,Parroquia Santisimo Sacramento,,calle alcalde sainz de baranda 3,Retiro (Madrid),http://dbpedia.org/resource/Retiro_(Madrid),40.4171617249341,-3.6775358654754835,915 733 204,http://www.madrid.es/sites/v/index.jsp?vgnextchannel=9e4c43db40317010VgnVCM100000dc0ca8c0RCRD&vgnextoid=5c063d232e91f010VgnVCM1000000b205a0aRCRD
3476,Parroquia Santo Cristo de la Misericordia,,calle numancia 8,Tetuán (Madrid),http://dbpedia.org/resource/Tetuan_(Madrid),40.454665855235916,-3.712078453348987,914 504 847,http://www.madrid.es/sites/v/index.jsp?vgnextchannel=9e4c43db40317010VgnVCM100000dc0ca8c0RCRD&vgnextoid=5f163d232e91f010VgnVCM1000000b205a0aRCRD
3477,Parroquia Santo Cristo del Olivar,,calle ca&ntilde;izares 4,Centro (Madrid),http://dbpedia.org/resource/Centro_(Madrid),40.413107854258804,-3.70166895865617,913 693 000,http://www.madrid.es/sites/v/index.jsp?vgnextchannel=9e4c43db40317010VgnVCM100000dc0ca8c0RCRD&vgnextoid=52363d232e91f010VgnVCM1000000b205a0aRCRD
3492,Parroquia Santo Domingo de Guzman,,calle camarena 183,Latina (Madrid),http://dbpedia.org/resource/Latina_(Madrid),40.38760029746739,-3.755046991390931,917 182 713,http://www.madrid.es/sites/v/index.jsp?vgnextchannel=9e4c43db40317010VgnVCM100000dc0ca8c0RCRD&vgnextoid=fd0d0713fb71c010VgnVCM1000000b205a0aRCRD
3491,Parroquia Santo Domingo de la Calzada,,canada real galiana 4,Villa de Vallecas,http://dbpedia.org/resource/Villa_de_Vallecas,40.35747277692355,-3.5640940621195476,695 792 209,http://www.madrid.es/sites/v/index.jsp?vgnextchannel=9e4c43db40317010VgnVCM100000dc0ca8c0RCRD&vgnextoid=55463d232e91f010VgnVCM1000000b205a0aRCRD
3493,Parroquia Santo Domingo Savio,,calle santo domingo savio 2,Ciudad Lineal,http://dbpedia.org/resource/Ciudad_Lineal,40.430416107246955,-3.634295811440002,913 683 105,http://www.madrid.es/sites/v/index.jsp?vgnextchannel=9e4c43db40317010VgnVCM100000dc0ca8c0RCRD&vgnextoid=58563d232e91f010VgnVCM1000000b205a0aRCRD
3397,Parroquia Santo Nino de Cebu,,calle lucio del valle 4,Chamberí,http://dbpedia.org/resource/Chamberi,40.44009015462179,-3.707538371382549,915 331 033,http://www.madrid.es/sites/v/index.jsp?vgnextchannel=9e4c43db40317010VgnVCM100000dc0ca8c0RCRD&vgnextoid=1b663d232e91f010VgnVCM1000000b205a0aRCRD
3689,Parroquia Santo Tomas Apostol,,calle fernando gabriel 18,Ciudad Lineal,http://dbpedia.org/resource/Ciudad_Lineal,40.424663059741754,-3.6368941477562604,917 545 505,http://www.madrid.es/sites/v/index.jsp?vgnextchannel=9e4c43db40317010VgnVCM100000dc0ca8c0RCRD&vgnextoid=1e763d232e91f010VgnVCM1000000b205a0aRCRD
3690,Parroquia Santo Tomas de Villanueva,,calle leoneses 6,Puente de Vallecas,http://dbpedia.org/resource/Puente_de_Vallecas,40.38238562242698,-3.647852675119803,913 038 646,http://www.madrid.es/sites/v/index.jsp?vgnextchannel=9e4c43db40317010VgnVCM100000dc0ca8c0RCRD&vgnextoid=11963d232e91f010VgnVCM1000000b205a0aRCRD
3515,Parroquia Santos Apostoles Felipe y Santiago el Menor,,calle poeta blas de otero 79,Ciudad Lineal,http://dbpedia.org/resource/Ciudad_Lineal,40.4222373281895,-3.6518537374797626,913 554 246,http://www.madrid.es/sites/v/index.jsp?vgnextchannel=9e4c43db40317010VgnVCM100000dc0ca8c0RCRD&vgnextoid=14a63d232e91f010VgnVCM1000000b205a0aRCRD
3469,Parroquia Santos Cosme y Damian,,calle ramirez tome 22,Puente de Vallecas,http://dbpedia.org/resource/Puente_de_Vallecas,40.389761241361015,-3.648359291453027,917 774 769,http://www.madrid.es/sites/v/index.jsp?vgnextchannel=9e4c43db40317010VgnVCM100000dc0ca8c0RCRD&vgnextoid=d6b63d232e91f010VgnVCM1000000b205a0aRCRD
3546,Parroquia Santos Inocentes,,calle embajadores 209,Arganzuela,http://dbpedia.org/resource/Arganzuela,40.38714034837897,-3.690253823821967,915 396 644,http://www.madrid.es/sites/v/index.jsp?vgnextchannel=9e4c43db40317010VgnVCM100000dc0ca8c0RCRD&vgnextoid=99c63d232e91f010VgnVCM1000000b205a0aRCRD
3573,Parroquia Santos Justo y Pastor,,plaza dos de mayo 11,Centro (Madrid),http://dbpedia.org/resource/Centro_(Madrid),40.42667642437817,-3.7044741914350965,915 217 925,http://www.madrid.es/sites/v/index.jsp?vgnextchannel=9e4c43db40317010VgnVCM100000dc0ca8c0RCRD&vgnextoid=dcd63d232e91f010VgnVCM1000000b205a0aRCRD
3691,Parroquia Transfiguracion del Senor,,calle isabelita usera 34,Usera,http://dbpedia.org/resource/Usera,40.3834839413912,-3.7079235781732676,914 751 875,http://www.madrid.es/sites/v/index.jsp?vgnextchannel=9e4c43db40317010VgnVCM100000dc0ca8c0RCRD&vgnextoid=9fe63d232e91f010VgnVCM1000000b205a0aRCRD
3700,Parroquia Virgen de La Candelaria,,plaza nuestra senora de la candelaria 1,San Blas-Canillejas,http://dbpedia.org/resource/San_Blas-Canillejas,40.43193943055567,-3.6141262628461504,913 203 905,http://www.madrid.es/sites/v/index.jsp?vgnextchannel=9e4c43db40317010VgnVCM100000dc0ca8c0RCRD&vgnextoid=92073d232e91f010VgnVCM1000000b205a0aRCRD
3706,Parroquia Virgen de La Fuensanta,,calle san filiberto 9,Usera,http://dbpedia.org/resource/Usera,40.38573108884355,-3.7146154582435367,914 696 877,http://www.madrid.es/sites/v/index.jsp?vgnextchannel=9e4c43db40317010VgnVCM100000dc0ca8c0RCRD&vgnextoid=15173d232e91f010VgnVCM1000000b205a0aRCRD
3711,Parroquia Virgen de La Nueva,,calle calanda 28,Hortaleza,http://dbpedia.org/resource/Hortaleza,40.46228317076973,-3.642061657641845,913 002 127,http://www.madrid.es/sites/v/index.jsp?vgnextchannel=9e4c43db40317010VgnVCM100000dc0ca8c0RCRD&vgnextoid=18273d232e91f010VgnVCM1000000b205a0aRCRD
3713,Parroquia Virgen de La Oliva,,calle castillo de simancas 1,San Blas-Canillejas,http://dbpedia.org/resource/San_Blas-Canillejas,40.4287339302711,-3.6272301391916852,913 043 762,http://www.madrid.es/sites/v/index.jsp?vgnextchannel=9e4c43db40317010VgnVCM100000dc0ca8c0RCRD&vgnextoid=1b373d232e91f010VgnVCM1000000b205a0aRCRD
3645,Parroquia Virgen de La Paloma y San Pedro el Real,,calle toledo 98,Centro (Madrid),http://dbpedia.org/resource/Centro_(Madrid),40.40814049050016,-3.7110693007323374,913 654 669,http://www.madrid.es/sites/v/index.jsp?vgnextchannel=9e4c43db40317010VgnVCM100000dc0ca8c0RCRD&vgnextoid=5e473d232e91f010VgnVCM1000000b205a0aRCRD
3715,Parroquia Virgen de La Providencia y San Cayetano,,calle ferrer del rio 18,Salamanca (Madrid),http://dbpedia.org/resource/Salamanca_(Madrid),40.43443807055464,-3.6718731697725486,917 262 422,http://www.madrid.es/sites/v/index.jsp?vgnextchannel=9e4c43db40317010VgnVCM100000dc0ca8c0RCRD&vgnextoid=51673d232e91f010VgnVCM1000000b205a0aRCRD
3709,Parroquia Virgen de Lluc,,calle virgen del sagrario 22,Ciudad Lineal,http://dbpedia.org/resource/Ciudad_Lineal,40.436064349534234,-3.648980715764547,914 083 545 ,http://www.madrid.es/sites/v/index.jsp?vgnextchannel=9e4c43db40317010VgnVCM100000dc0ca8c0RCRD&vgnextoid=54773d232e91f010VgnVCM1000000b205a0aRCRD
3708,Parroquia Virgen de Los Llanos,,plaza virgen de los llanos 1,Latina (Madrid),http://dbpedia.org/resource/Latina_(Madrid),40.377239028819616,-3.779610495432089,917 058 471,http://www.madrid.es/sites/v/index.jsp?vgnextchannel=9e4c43db40317010VgnVCM100000dc0ca8c0RCRD&vgnextoid=57873d232e91f010VgnVCM1000000b205a0aRCRD
3717,Parroquia Virgen de Los Remedios,,calle tomasa ruiz 8,Carabanchel,http://dbpedia.org/resource/Carabanchel,40.396014279260996,-3.711071332498309,915 698 947,http://www.madrid.es/sites/v/index.jsp?vgnextchannel=9e4c43db40317010VgnVCM100000dc0ca8c0RCRD&vgnextoid=5a973d232e91f010VgnVCM1000000b205a0aRCRD
3712,Parroquia Virgen de Nuria,,calle juan de urbieta 5,Retiro (Madrid),http://dbpedia.org/resource/Retiro_(Madrid),40.403887392280765,-3.6782158948830608,915 520 297,http://www.madrid.es/sites/v/index.jsp?vgnextchannel=9e4c43db40317010VgnVCM100000dc0ca8c0RCRD&vgnextoid=357aff632081c010VgnVCM1000000b205a0aRCRD
3702,Parroquia Virgen del Castillo,,avenida san luis 42,Hortaleza,http://dbpedia.org/resource/Hortaleza,40.473561352383825,-3.6503089389917607,917 644 486,http://www.madrid.es/sites/v/index.jsp?vgnextchannel=9e4c43db40317010VgnVCM100000dc0ca8c0RCRD&vgnextoid=dda73d232e91f010VgnVCM1000000b205a0aRCRD
3703,Parroquia Virgen del Coro,,calle virgen de la alegria 12,Ciudad Lineal,http://dbpedia.org/resource/Ciudad_Lineal,40.4337147571673,-3.656645165415626,914 032 935,http://www.madrid.es/sites/v/index.jsp?vgnextchannel=9e4c43db40317010VgnVCM100000dc0ca8c0RCRD&vgnextoid=85c73d232e91f010VgnVCM1000000b205a0aRCRD
3705,Parroquia Virgen del Cortijo,,calle ona 91,Hortaleza,http://dbpedia.org/resource/Hortaleza,40.48774033383058,-3.663189118552132,917 663 081,http://www.madrid.es/sites/v/index.jsp?vgnextchannel=9e4c43db40317010VgnVCM100000dc0ca8c0RCRD&vgnextoid=88d73d232e91f010VgnVCM1000000b205a0aRCRD
3710,Parroquia Virgen del Mar,,calle peones 2,San Blas-Canillejas,http://dbpedia.org/resource/San_Blas-Canillejas,40.42655202493092,-3.617507770548038,913 069 753,http://www.madrid.es/sites/v/index.jsp?vgnextchannel=9e4c43db40317010VgnVCM100000dc0ca8c0RCRD&vgnextoid=81f73d232e91f010VgnVCM1000000b205a0aRCRD
3716,Parroquia Virgen del Refugio y Santa Lucia,,calle manresa 60,Fuencarral-El Pardo,http://dbpedia.org/resource/Fuencarral-El_Pardo,40.491863823601186,-3.694311178526011,917 342 045,http://www.madrid.es/sites/v/index.jsp?vgnextchannel=9e4c43db40317010VgnVCM100000dc0ca8c0RCRD&vgnextoid=67088c7c0f91f010VgnVCM1000000b205a0aRCRD
3714,Parroquia Virgen Peregrina,,calle diego de leon 36,Salamanca (Madrid),http://dbpedia.org/resource/Salamanca_(Madrid),40.43469027180194,-3.6811191182941503,914 111 212,http://www.madrid.es/sites/v/index.jsp?vgnextchannel=9e4c43db40317010VgnVCM100000dc0ca8c0RCRD&vgnextoid=82288c7c0f91f010VgnVCM1000000b205a0aRCRD
3719,Parroquia Visitacion de Nuestra Senora,,calle pico de los artilleros 82,Moratalaz,http://dbpedia.org/resource/Moratalaz,40.407302967830155,-3.6400892956674387,917 733 705,http://www.madrid.es/sites/v/index.jsp?vgnextchannel=9e4c43db40317010VgnVCM100000dc0ca8c0RCRD&vgnextoid=b5388c7c0f91f010VgnVCM1000000b205a0aRCRD
60224,Primer Monasterio de la Visitacion (Las Salesas),,calle santa engracia 20,Chamberí,http://dbpedia.org/resource/Chamberi,40.43022928515631,-3.6964945333521664,914 487 822,http://www.madrid.es/sites/v/index.jsp?vgnextchannel=9e4c43db40317010VgnVCM100000dc0ca8c0RCRD&vgnextoid=21a13d232e91f010VgnVCM1000000b205a0aRCRD
3432,Real Basilica Nuestra Senora de Atocha,,calle julian gayarre 1,Retiro (Madrid),http://dbpedia.org/resource/Retiro_(Madrid),40.40572253343359,-3.68326652731545,914 344 020,http://www.madrid.es/sites/v/index.jsp?vgnextchannel=9e4c43db40317010VgnVCM100000dc0ca8c0RCRD&vgnextoid=b22413db5b71c010VgnVCM1000000b205a0aRCRD
3359,Real Basilica San Francisco el Grande,,calle san buenaventura 1,Centro (Madrid),http://dbpedia.org/resource/Centro_(Madrid),40.41084005024222,-3.714503845728281,913 653 800 ,http://www.madrid.es/sites/v/index.jsp?vgnextchannel=9e4c43db40317010VgnVCM100000dc0ca8c0RCRD&vgnextoid=ef8d0713fb71c010VgnVCM1000000b205a0aRCRD
3349,Real Monasterio de la Encarnacion,,plaza encarnacion 1,Centro (Madrid),http://dbpedia.org/resource/Centro_(Madrid),40.41967800877382,-3.711567962866152,914 548 700 (Informacion general),http://www.madrid.es/sites/v/index.jsp?vgnextchannel=9e4c43db40317010VgnVCM100000dc0ca8c0RCRD&vgnextoid=72ad0713fb71c010VgnVCM1000000b205a0aRCRD
4707297,Real Monasterio de Santa Isabel,,calle santa isabel 48,Centro (Madrid),http://dbpedia.org/resource/Centro_(Madrid),40.41213027498252,-3.6994547941964946,914 548 700 (Informacion general),http://www.madrid.es/sites/v/index.jsp?vgnextchannel=9e4c43db40317010VgnVCM100000dc0ca8c0RCRD&vgnextoid=545b544a249c6110VgnVCM1000000b205a0aRCRD
3360,Real Oratorio del Caballero de Gracia,,calle caballero de gracia 5,Centro (Madrid),http://dbpedia.org/resource/Centro_(Madrid),40.41953675995833,-3.700769178078419,915 326 937 / 915 240 664,http://www.madrid.es/sites/v/index.jsp?vgnextchannel=9e4c43db40317010VgnVCM100000dc0ca8c0RCRD&vgnextoid=ef153d232e91f010VgnVCM1000000b205a0aRCRD
60234,Santuario Nuestra Senora de los Peligros,,calle joaquin costa 49,CHAMARTIN,http://dbpedia.org/page/Chamartin_(Madrid),40.44225176356738,-3.682150539114885,915 613 241,http://www.madrid.es/sites/v/index.jsp?vgnextchannel=9e4c43db40317010VgnVCM100000dc0ca8c0RCRD&vgnextoid=8d3a8c7c0f91f010VgnVCM1000000b205a0aRCRD
3737,Santuario Nuestra Senora de Lourdes,,calle fortuny 21,Chamberí,http://dbpedia.org/resource/Chamberi,40.430190394656044,-3.690964947193256,913 197 780,http://www.madrid.es/sites/v/index.jsp?vgnextchannel=9e4c43db40317010VgnVCM100000dc0ca8c0RCRD&vgnextoid=4d561e79ee71c010VgnVCM1000000b205a0aRCRD
190382,Santuario Nuestra Senora de Sch�nstatt,,calle serrano 97,CHAMARTIN,http://dbpedia.org/page/Chamartin_(Madrid),40.4382983860259,-3.686449566813232,915 618 992,http://www.madrid.es/sites/v/index.jsp?vgnextchannel=9e4c43db40317010VgnVCM100000dc0ca8c0RCRD&vgnextoid=067f755cf659f010VgnVCM2000000c205a0aRCRD
60225,Segundo Monasterio de la Visitacion (Las Salesas),,calle san bernardo 72,Centro (Madrid),http://dbpedia.org/resource/Centro_(Madrid),40.42746767635856,-3.7062036161064373,915 222 965,http://www.madrid.es/sites/v/index.jsp?vgnextchannel=9e4c43db40317010VgnVCM100000dc0ca8c0RCRD&vgnextoid=a4b13d232e91f010VgnVCM1000000b205a0aRCRD
60226,Tercer Monasterio de la Visitacion (Las Salesas),,paseo san francisco de sales 4,Chamberí,http://dbpedia.org/resource/Chamberi,40.43969242475297,-3.7165307035563613,915 333 436,http://www.madrid.es/sites/v/index.jsp?vgnextchannel=9e4c43db40317010VgnVCM100000dc0ca8c0RCRD&vgnextoid=67c13d232e91f010VgnVCM1000000b205a0aRCRD
