PK;NOMBRE;DESCRIPCION-ENTIDAD;HORARIO;EQUIPAMIENTO;TRANSPORTE;DESCRIPCION;ACCESIBILIDAD;CONTENT-URL;NOMBRE-VIA;CLASE-VIAL;TIPO-NUM;NUM;PLANTA;PUERTA;ESCALERAS;ORIENTACION;LOCALIDAD;PROVINCIA;CODIGO-POSTAL;BARRIO;DISTRITO;COORDENADA-X;COORDENADA-Y;LATITUD;LONGITUD;TELEFONO;FAX;EMAIL;TIPO;
4949641;"Casa - Museo del Ratoncito Perez";"La residencia de la familia Perez esta situada en los sotanos de la confiteria Prasi, en el numero ocho de la calle del Arenal, segun cita Luis Coloma.";"Lunes  de 17 a 20 horas.  De martes a viernes de 11 a 14 horas y de 17 a 20 horas.  Sabados de 11 a 15 horas y de 16 a 20 horas.  Enero y Febrero: domingos y festivos de 12 a 15 horas y de 16 a 18 horas.  Horario orientativo, consultad disponibilidad en la web del Museo.";"";"Metro: Sol (lineas: 1, 2 y 3), opera (linea 3, Ramal opera Principe Pio), Callao (linea 3, 5)  Bus: 3, 5, 15, 20, 52, 53, 150";"Venta de entradas directamente en el Museo.  Recomendado a partir de los 5 anos.  Se recomienda sacar la entrada con antelacion pues el aforo es limitado.  Grupos: Aforo limitado, se requiere consultar disponibilidad, condiciones y precios. Se reciben grupos y colegios todos los dias, excepto sabados y puentes no lectivos. Atencion exclusiva, se exige un responsable de grupo.";"0";"http://www.madrid.es/sites/v/index.jsp?vgnextchannel=9e4c43db40317010VgnVCM100000dc0ca8c0RCRD&vgnextoid=990950e86d4ca110VgnVCM2000000c205a0aRCRD";"ARENAL";"CALLE";"V";"8";"1.ª";"Local 15 - 16";"";"";"MADRID";"MADRID";"28013";"SOL";"CENTRO";"440254";"4474494";"40.41704834412296";"-3.7055288844865233";"915 226 968";"";"info@casamuseoratonperez.es";"/contenido/entidadesYorganismos/Museos"; 
4847190;"Casa Museo Lope de Vega";"'Mi casilla, mi quietud, mi g&uuml;ertecillo y estudio'. Asi define su casa Felix Lope de Vega (1562-1635) en una carta dirigida a un amigo. Situada en pleno centro historico, en el Barrio de las Letras, la Casa Museo Lope de Vega se ubica en el edificio donde el escritor vivio sus ultimos 25 anos. La recreacion de ambientes, cuyo objetivo es que se respire la presencia de Lope, evoca la vida cotidiana del Siglo de Oro y nos acerca a su intimidad. El equipamiento de la casa incorpora obras de arte, mobiliario, enseres y ediciones bibliograficas vinculadas al literato y su tiempo.   Visitas Guiadas   El acceso al museo se hace mediante visitas guiadas en grupo (maximo 10 personas). Imprescindible reservar con antelacion.  Las visitas comienzan cada media hora y tienen una duracion aproximada de 35 minutos (ultima visita a las 17 horas).  Se realizan visitas en ingles, italiano y frances.";"Para la visita es  imprescindible reserva anticipada  en:  casamuseolopedevega@madrid.org  o en el telefono: 914 299 216, en horario del museo.  De martes a domingo de 10 a 18 horas.  Cerrado los lunes, dias 1 y 6 de enero, 1 de mayo, 9 de noviembre y 24, 25 y 31 de diciembre.  Este horario puede sufrir alteraciones por actividades extraordinarias que se celebran en este espacio.";"";"Metro: Anton Martin (linea 1).  Bus: 6, 9, 10, 14, 26, 27, 32, 34, 37, 45, 57.";"";"0";"http://www.madrid.es/sites/v/index.jsp?vgnextchannel=9e4c43db40317010VgnVCM100000dc0ca8c0RCRD&vgnextoid=4eff8c46145e8110VgnVCM2000000c205a0aRCRD";"CERVANTES";"CALLE";"V";"11";"";"";"";"";"MADRID";"MADRID";"28014";"CORTES";"CENTRO";"440935";"4474190";"40.414358466555235";"-3.6974741545860015";"914 299 216";"914 292 601";"casamuseolopedevega@madrid.org";"/contenido/entidadesYorganismos/Museos"; 
5682031;"Castillo de la Alameda";"El Castillo de la Alameda o de Barajas se trata de uno de los escasos vestigios de la arquitectura militar del pasado siglo  XV  y uno de los pocos castillos que ha sobrevivido al paso del tiempo. Bajo el y su entorno, existen restos de asentamientos antiguos desde la Edad del Bronce hasta la epoca Romana. En el edificio se realizan talleres para escolares y actividades en verano.";"Abierto fines de semana y festivos (incluso los lunes festivos)  De 1 de abril a 15 de junio y de 15 de septiembre a 30 de septiembre: sabados, domingos y festivos de 10 a 21 horas.  De 16 de junio a 15 de septiembre: sabados, domingos y festivos de 10 a 20 horas.  De octubre a marzo: sabados, domingos y festivos de 10 a 18 horas.  Cerrado: 24, 25, 31 de diciembre, 1 de enero, 6 de enero, 1 de mayo.";"Accesibilidad    Rampas de acceso  Servicios para minusvalidos  Informacion en Braille para invidentes";"Metro: Alameda de Osuna (linea 5), El Capricho (linea 5)  Autobuses: 101, 105, 112, 114, 115 y 151";"";"1";"http://www.madrid.es/sites/v/index.jsp?vgnextchannel=9e4c43db40317010VgnVCM100000dc0ca8c0RCRD&vgnextoid=fe43c4be8e688210VgnVCM1000000b205a0aRCRD";"ANTONIO SANCHA";"CALLE";"V";"1";"";"";"";"";"MADRID";"MADRID";"28042";"ALAMEDA DE OSUNA";"BARAJAS";"449807";"4479009";"40.45835460563491";"-3.5932903820278788";"913 667 415                                                                         
";"";"castilloalameda@madrid.es";"/contenido/entidadesYorganismos/MonumentosEdificiosArtisticos"; 
2064;"Cason del Buen Retiro";"Edificio que forma parte del Museo Nacional del Prado, donde pueden consultarse fondos de la Biblioteca, del Archivo y del Servicio de Documentacion de la coleccion del Museo y de otras fuentes relativas a la historia del arte.";"Mananas     De lunes a jueves, de 9 a 15 h (Servicio de libros y otros materiales hasta las 14:30 horas)    Viernes, de 9 a 14:30 horas (Servicio de libros y otros materiales hasta las 14 h)     Tardes   Lunes y miercoles, de 15 a 18 horas (Servicio de libros y otros materiales hasta las 17:30 horas)   Horario de verano     Desde el 16 de junio al 15 de septiembre, de lunes a viernes, de 9 a 14:30 horas";"";"Metro: Atocha (Linea 1)  Bus: 19, 10, 14, 27, 34, 37, 45  Renfe: Atocha";"Descripcion monumental   El Cason o Salon de Baile es el unico volumen que permanece del antiguo Palacio del buen Retiro, ejecutado en 1637 con un proyecto de Alonso Carbonel. Aun se conserva la boveda de canon con lunetas, pintada al fresco por Lucas Jordan en 1692 con la Alegoria del Toison de Oro. Su fachada principal, a poniente, arrasada la primitiva en 1886 por un ciclon, es de Velazquez Bosco. La ultima rehabilitacion ha sido realizada por Jaime Torruell.";"0";"http://www.madrid.es/sites/v/index.jsp?vgnextchannel=9e4c43db40317010VgnVCM100000dc0ca8c0RCRD&vgnextoid=f0443d0b5e71c010VgnVCM1000000b205a0aRCRD";"ALFONSO XII";"CALLE";"V";"28";"";"";"";"";"MADRID";"MADRID";"28014";"LOS JERONIMOS";"RETIRO";"441635";"4474285";"40.415263749471535";"-3.689232811717636";"913 302 828 / 913 302 009";"";"biblioteca@museodelprado.es";"/contenido/entidadesYorganismos/MonumentosEdificiosArtisticos"; 
103331;"Centro Social y Cultural La Casa Encendida";"Edificio de caracter monumental. De estilo neomudejar, fue disenado por el arquitecto Fernando Arbos e inaugurado en el ano 1913. Cuenta con mas de 6.000 metros cuadrados de instalaciones divididas en 4 plantas y una azotea.";"De martes a domingo de 10 a 22 horas (todos los dias del ano, excepto festividades nacionales y de la Comunidad de Madrid)  Exposiciones: de 10 a 21:45 horas";"Biblioteca  (Consulta catalogo  http://koha.montemadrid.es/ )   Biblioteca (Hemeroteca, Mediateca y Sala de ofimatica) : de martes a domingos de 10 a 21:15 horas. Del 1 al 15 agosto, mediateca cerrada   Biblioteca joven:  de martes a viernes, de 10 a 20:30 horas, sabados y domingos de 10 a 13:30 horas   Bebeteca:  sabados y domingos de 10 a 13:30 horas     Tienda solidaria:  De martes a viernes de 11 a 21 horas. Sabados y domingos de 11 a 15 y de 16:30 a 21 horas   Cafeteria:  De martes a domingo de 10 a 20:30 horas";"Metro: Embajadores (linea 3), Lavapies (linea 3)  Bus: 27, 34, 36, 41, 119,  C 1,  C 2  Renfe: Embajadores";"Tarifas 2017:    Exposiciones, Encuentros y Salidas: entrada libre  Audiovisuales y En Familia: 3 euros  Conciertos y escenicas: 5 euros  Cursos, talleres y campamentos: consultar cada actividad   Visitas guiadas y atencion en sala: sabados y domingos de 12 a 14 horas y de 17 a 20 horas  Sin inscripcion previa (gratuita)";"1";"http://www.madrid.es/sites/v/index.jsp?vgnextchannel=9e4c43db40317010VgnVCM100000dc0ca8c0RCRD&vgnextoid=c27f8899fc81c010VgnVCM1000000b205a0aRCRD";"VALENCIA";"RONDA";"V";"2";"";"";"";"";"MADRID";"MADRID";"28012";"EMBAJADORES";"CENTRO";"440732";"4473259";"40.40595710517701";"-3.699779793558763";"902 430 322                                                                 
";"";"lacasaencendida@montemadrid.es";"/contenido/entidadesYorganismos/MonumentosEdificiosArtisticos"; 
6469186;"Ermita de San Antonio de la Florida (Museo)";"Ermita dedicada a San Antonio de Padua y pequeno museo. Las pinturas murales que la decoran son de Francisco de Goya. Alberga los restos mortales del artista desde 1919. Para preservar sus pinturas, en 1929 se traslado el culto a una ermita gemela construida a su lado, dejando el edificio original como museo.";"Horario de Verano hasta el 15 de septiembre:  De martes a domingos de 9:30 a 14 horas y de 15 a 19 horas.   Cerrado  los lunes, incluidos festivos, y los dias 1 y 6 de enero, 1 de mayo y 24, 25 y 31 de diciembre.   ultimo pase de visita:  20 minutos antes del cierre (el desalojo de las salas comenzara 10 minutos antes)   Por motivos de conservacion, el aforo maximo es de 25 personas en el interior de la capilla.  Los sabados que se celebren visitas animadas para familias se interrumpira la visita durante el desarrollo de las mismas.  Este horario y la apertura de salas pueden sufrir modificaciones.";"Tienda, en la que se pueden adquirir las guias y publicaciones sobre la ermita editadas por el Museo y otros organismos publicos, asi como catalogos y publicaciones de instituciones culturales del Ayuntamiento de Madrid.";"Metro: Principe Pio (lineas 5, 10 y ramal opera - Principe Pio)  Bus: 41, 46 y 75 (Intercambiador Principe Pio)  Renfe: Principe Pio";"";"0";"http://www.madrid.es/sites/v/index.jsp?vgnextchannel=9e4c43db40317010VgnVCM100000dc0ca8c0RCRD&vgnextoid=75950204770e7310VgnVCM2000000c205a0aRCRD";"SAN ANTONIO DE LA FLORIDA";"GLORIETA";"V";"5";"";"";"";"";"MADRID";"MADRID";"28008";"CASA DE CAMPO";"MONCLOA-ARAVACA";"438548";"4475419";"40.425256682855846";"-3.725725718176111";"915 420 722";"";"sanantonio@madrid.es";"/contenido/entidadesYorganismos/MonumentosEdificiosArtisticos"; 
58353;"Espacio Fundacion Telefonica";"";"De martes a domingo, de 10 a 20 horas.  Cerrado al publico todos los lunes y dias 25 de diciembre, 1 y 6 de enero.";"Accesos y espacios habilitados para personas con movilidad reducida, aseos adaptados y con cambiador de panales, ascensor, zonas de descanso y silla de ruedas para uso en las salas.  Conexion WIFI.";"Metro: Gran Via (lineas 1, 5)  Bus: 1, 2, 3, 46, 74, 146, M2";"Telefonos:    Visitas guiadas y talleres educativos: 915 226 645  Reserva de salas y eventos: 915 808 700    Correo electronico:    Informacion general:  espacio@fundaciontelefonica.com   Visitas guiadas y talleres educativos:  actividades.espacio@fundaciontelefonica.com    Tienda abierta de martes a domingo, de 10 a 20 horas.";"1";"http://www.madrid.es/sites/v/index.jsp?vgnextchannel=9e4c43db40317010VgnVCM100000dc0ca8c0RCRD&vgnextoid=87748ed67151c010VgnVCM2000000c205a0aRCRD";"FUENCARRAL";"CALLE";"V";"3";"";"";"";"";"MADRID";"MADRID";"28004";"UNIVERSIDAD";"CENTRO";"440590";"4474865";"40.42041458612889";"-3.7016034186955076";"915 808 700 (informacion general)";"";"";"/contenido/entidadesYorganismos/Museos"; 
6017808;"Fundacion AMYC (Arte Moderno y Contemporaneo). Casa - Museo Fuente del Rey";"";"De martes a sabados de 10 a 19 horas. Lunes, domingos y festivos cerrado.  Visitas para grupos de hasta 25 personas dentro de los horarios de apertura. Pueden ser con guia propio o con guia de la Fundacion, y la duracion de la misma es de una hora. Previa reserva telefonica o via correo electronico.";"Siguiendo la iniciativa del mecenazgo de Francisco Daurella, en 2009 decide crear la Fundacion  AMYC , para la que recupera, rehabilita y acondicona una casa de uso privado para transformala en Casa - Museo. En sus instalaciones acogera diferentes salas expositivas y una sala polivalente para actos culturales. El eje principal de la coleccion de mas de 250 obras, es dar una vision muy dinamica de lo sucedido entre finales del siglo  XIX  y mediados del siglo  XX .";"Bus: 161, I60";"";"0";"http://www.madrid.es/sites/v/index.jsp?vgnextchannel=9e4c43db40317010VgnVCM100000dc0ca8c0RCRD&vgnextoid=5c1260101310f210VgnVCM1000000b205a0aRCRD";"FUENTE DEL REY";"CALLE";"V";"11";"";"";"";"";"MADRID";"MADRID";"28023";"ARAVACA";"MONCLOA-ARAVACA";"434772";"4478804";"40.45546180290319";"-3.7705836264842576";"913 579 116";"913 575 989";"info@fundacionamyc.org";"/contenido/entidadesYorganismos/FundacionesCulturales"; 
3348;"Monasterio de las Descalzas Reales";"Convento fundado por la Princesa Juana de Austria, transformando un antiguo palacio de su madre Isabel de Portugal.";"Solo con visita guiada  .     De martes a sabado de 10 a 14 horas y de 16 a 18:30 horas  Domingos y festivos, de 10 a 15 horas. Cerrado los lunes";"";"Metro: Callao (lineas 3, 5) , Santo Domingo (linea 2) , Sol (lineas 1, 2, 3) Gran Via (lineas 1, 5)  Bus: 1, 2, 3, 5, 15, 20, 25, 39, 40, 44, 46, 50, 51, 52, 53, 74, 75, 133, 146, 147, 148, 149, 150, 202";"Dias de apertura especial para 2017    20 de marzo, lunes siguiente a San Jose  1 de Mayo, Fiesta del Trabajo  15 de mayo, San Isidro, fiesta local   15 de agosto, Asuncion de la Virgen   12 de octubre, Fiesta Nacional de Espana   1 de noviembre, Dia de Todos los Santos   9 de noviembre, Nuestra Senora de la Almudena, fiesta local   6 de diciembre, Constitucion Espanola   8 de diciembre, Inmaculada Concepcion    Dias de cierre para 2017    1 de enero, Ano Nuevo  6 de enero, Epifania del Senor (Reyes Magos)  Semana Santa, del 12 al 15 abril, inclusive  1 de mayo, Fiesta del Trabajo  24 de diciembre, Natividad del Senor  25 de diciembre, Natividad del Senor  31 de diciembre, Noche Vieja";"0";"http://www.madrid.es/sites/v/index.jsp?vgnextchannel=9e4c43db40317010VgnVCM100000dc0ca8c0RCRD&vgnextoid=12e113db5b71c010VgnVCM1000000b205a0aRCRD";"DESCALZAS";"PLAZA";"V";"3";"";"";"";"";"MADRID";"MADRID";"28013";"SOL";"CENTRO";"440197";"4474626";"40.418233359889484";"-3.706213134639163";"914 548 700                                                             
";"";"";"/contenido/entidadesYorganismos/MonumentosEdificiosArtisticos"; 
5873478;"Museo ABC";"Centro de arte, dibujo e ilustracion.";"De martes a sabado de 11 a 20 horas  Domingos de 10 a 14 horas   Lunes cerrado    Durante 2017 el Museo ABC permanecera cerrado los dias:   1 y 6 de enero  24 y 31 de diciembre.";"";"Metro: San Bernardo (lineas 2, 4), Noviciado (linea 2), Ventura Rodriguez (linea 3), Plaza de Espana (lineas 3, 10)  Bus: 3, 147";"";"0";"http://www.madrid.es/sites/v/index.jsp?vgnextchannel=9e4c43db40317010VgnVCM100000dc0ca8c0RCRD&vgnextoid=f0103fee6537c210VgnVCM1000000b205a0aRCRD";"AMANIEL";"CALLE";"V";"29";"";"";"";"";"MADRID";"MADRID";"28015";"UNIVERSIDAD";"CENTRO";"439922";"4475646";"40.42741121610518";"-3.709539260414957";"917 588 379";"";"info_museo@abc.es";"/contenido/entidadesYorganismos/Museos"; 
2067;"Museo Africano Mundo Negro";"Situado en los locales de los Misioneros Combonianos de Madrid y abierto al publico en 1985, se propone divulgar la cultura africana, promoviendo el conocimiento de la vida, de la historia y de las diversas culturas africanas.";"Grupos con cita previa : de lunes a viernes de 9,30 a 13,30 horas.   Particulares  (visitas guiadas): domingos a las 11,30 horas.   Cerrado : julio, agosto y septiembre.";"";"Bus: 11, 70, 114, 115, 122, 200.";"";"0";"http://www.madrid.es/sites/v/index.jsp?vgnextchannel=9e4c43db40317010VgnVCM100000dc0ca8c0RCRD&vgnextoid=6ab8ef4d7f71c010VgnVCM1000000b205a0aRCRD";"ARTURO SORIA";"CALLE";"V";"101";"";"";"";"";"MADRID";"MADRID";"28043";"SAN JUAN BAUTISTA";"CIUDAD LINEAL";"444864";"4478056";"40.449464654033605";"-3.65149172790308";"914 152 412";"";"";"/contenido/entidadesYorganismos/Museos"; 
2050;"Museo Arqueologico Nacional";"Fundado en 1867, el  MAN  se inauguro en 1895 en su actual sede, en el Palacio de Biblioteca y Museos, edificio proyectado por Francisco Jareno y terminado por Antonio Ruiz de Salces.";"De martes a sabados de 9:30 a 20 horas  Domingos y festivos de 9:30 a 15 horas    Cerrado    Todos los lunes del ano.  1 y 6 de enero, 1de mayo y 24, 25 y 31 de diciembre.    Horario de cierre de las taquillas:  15 minutos antes del cierre del Museo.   Dias festivos 2017. Horario 9.30 a 15 horas:   13 y 14 de abril; 2 de mayo;15 de agosto; 12 de octubre; 1 de noviembre; 9 de noviembre; 6 de diciembre; 8 de diciembre.";"";"Metro: Serrano (linea 4), Colon (linea 4).  Bus: 1, 2, 5, 9, 14, 19, 21, 27, 37, 45, 51, 53, 74, 150.  Renfe: Recoletos (linea C-1, C-2, C-7, C-8 y C-10).";"";"1";"http://www.madrid.es/sites/v/index.jsp?vgnextchannel=9e4c43db40317010VgnVCM100000dc0ca8c0RCRD&vgnextoid=8fd8ef4d7f71c010VgnVCM1000000b205a0aRCRD";"SERRANO";"CALLE";"V";"13";"";"";"";"";"MADRID";"MADRID";"28001";"RECOLETOS";"SALAMANCA";"441711";"4475173";"40.42327763947072";"-3.688418705931963";"915 777 912                                                                     
                                                                                     
";"914 326 840";"sugerencias.man@mecd.es";"/contenido/entidadesYorganismos/Museos"; 
2072;"Museo Casa de la Moneda";"El Museo Casa de la Moneda alberga colecciones numismaticas y de artes graficas: importantes dibujos, estampas, loterias, sellos,... Se trata de la que posiblemente sea la mayor exposicion numismatica del mundo, cubriendo la historia de la moneda desde el siglo  VII a.C.  hasta nuestros dias.";"De martes a viernes ininterrumpidamente de 10 a 17:30 horas. Sabados, domingos y festivos de 10 a 14 horas  Cerrado los lunes, y los dias 1 y 6 de enero; 19 de marzo; 1 de mayo; 24, 25 y 31 de diciembre";"El publico puede acunar una moneda durante su visita (consultar precio)  Accesible a personas con minusvalia (fisica y sensorial)";"Metro: O&acute;Donnell (linea 6)  Bus: 2, 28, 30, 56, 71, 143, 156,  C2";"";"1";"http://www.madrid.es/sites/v/index.jsp?vgnextchannel=9e4c43db40317010VgnVCM100000dc0ca8c0RCRD&vgnextoid=12f8ef4d7f71c010VgnVCM1000000b205a0aRCRD";"DOCTOR ESQUERDO";"CALLE";"V";"36";"";"";"";"";"MADRID";"MADRID";"28028";"GOYA";"SALAMANCA";"443345";"4475085";"40.42259797372905";"-3.6691502061733674";"915 666 544                                 
";"915 666 809";"museo@fnmt.es";"/contenido/entidadesYorganismos/Museos"; 
4112;"Museo Cerralbo";"Este Palacio, construido entre 1883 y 1893, fue concebido como vivienda y como museo para sede de las obras de arte reunidas por los Marqueses de Cerralbo y sus hijos, los Marqueses de Villa Huerta, durante los numerosos viajes que realizaron por Espana y Europa.   Objetivos y Fines de la Fundacion Cerralbo (en la misma sede)    Velar porque las colecciones no se disgreguen ni enajenen y permanezcan reunidas en su sede de Ventura Rodriguez.  Conceder premios y becas para artistas e investigadores y celebrar actos culturales.  Colaborar en la custodia, exhibicion y mejora del patrimonio que el Estado heredo del Marques, perpetuando asi su memoria.";"De martes a sabado de 9:30 a 15 horas.  Jueves de 17 a 20 horas, excepto festivos.  Domingos y festivos de 10 a 15 horas.  Cerrado:  Todos los lunes.  1 y 6 de enero.  1 de mayo.  24, 25 y 31 de diciembre.  Por fiesta local.";"";"Metro: Plaza de Espana (lineas 3, 10).  Bus: 1, 2, 3, 25, 39, 44, 46, 74, 75, 133, 138, 148, C1, C2, SE730  Renfe: Principe Pio (lineas C1, C7 Y C10)";"Los usuarios del carne de alberguista disfrutaran de un 50% de descuento.    Visitas guiadas   (guiadas por voluntarios culturales de la Confederacion de Aulas de la Tercera Edad):     Para grupos:   Con reserva previa martes y miercoles (no festivos) a las 10 y a las 12 horas.  Reserva con minimo de 15 dias.  Requisito imprescindible: minimo 8 y maximo 12 personas. Si sobrepasa el numero, consultar con el museo.  Tarifa reducida en la entrada al museo.  Informacion y reservas:  museo.cerralbo@mecd.es  o en el telefono 915 473 646, de 10 a 14 horas, (de lunes a viernes).     Individual:  disponible los jueves, viernes y sabados a las 12, jueves tambien a las 17 horas (dias no festivos). Informacion y reservas en la taquilla del museo unos minutos antes de la cada visita siempre y cuando haya disponibilidad de plazas.    Visitas para grupos  (con sus propios guias, profesores o por libre):   Con reserva telefonica pueden reservar hora telefonica a elegir entre: martes a viernes, a las 9:30, 10:30, 11:30, 12:30 y 13:30 y los sabados a las 9:30 horas.  Tarifa reducida con reserva anticipada (15 dias de antelacion).  Informacion y reservas:  museo.cerralbo@mecd.es   o en el telefono 915 473 646, de 10 a 14 horas (de lunes a viernes).    Visitas culturales a cargo de guias profesionales    El Museo dispone, ademas, del contacto con guias profesionales especializados en las colecciones e historia de la institucion, que pueden realizar la visita en castellano, ingles, frances e italiano.  Informacion y reservas:  museo.cerralbo@mecd.es  / 915 473 646 de 10 a 14 horas (de lunes a viernes).    Visitas guiadas por guias turisticos profesionales    Los grupos organizados que deseen visitar el Museo acompanados de un guia profesional no podran exceder de 12 personas, y la visita se realizara de martes a sabado. Para su autorizacion, es imprescindible formalizar la reserva con 15 dias de antelacion y aceptar las condiciones del museo.  Informacion y reservas:  museo.cerralbo@mecd.es  / 915 473 646, de 10 a 14 horas (de lunes a viernes).";"1";"http://www.madrid.es/sites/v/index.jsp?vgnextchannel=9e4c43db40317010VgnVCM100000dc0ca8c0RCRD&vgnextoid=a4efb0c40971c010VgnVCM1000000b205a0aRCRD";"VENTURA RODRIGUEZ";"CALLE";"V";"17";"";"";"";"";"MADRID";"MADRID";"28008";"ARGUELLES";"MONCLOA-ARAVACA";"439489";"4475246";"40.42376732078657";"-3.7146170388153497";"915 473 646 / 47";"915 591 171";"museo.cerralbo@mecd.es";"/contenido/entidadesYorganismos/Museos"; 
10091450;"Museo EMT";"El Museo de la EMT se ha convertido en realidad tras una decada de duro trabajo de recuperacion, restauracion y reparacion del patrimonio historico de la Empresa Municipal de Transportes de Madrid, especialmente, material movil, mobiliario, piezas mecanicas, maquinaria y otros elementos inherentes a la actividad de la EMT en sus 70 anos de historia.";"Visitas (con cita previa)   Apertura estacional durante seis meses al ano: todos los sabados de abril, mayo, junio, julio, septiembre y octubre), a las 10, a las 11:30 y a las 13 horas.  Por ser un centro de trabajo unicamente pueden realizarse de forma organizada, previamente concertadas y limitadas a un maximo de 40 personas por turno.  Duracion: 60 minutos aproximadamente.  Compra de entradas y reserva de horarios a traves de la web:  http://tienda.emtmadrid.es  (a partir del 1 de marzo de 2017)";"Metro: Begona (linea 10)  Bus: 66, 173, 174, 176, 178";"";"";"0";"http://www.madrid.es/sites/v/index.jsp?vgnextchannel=9e4c43db40317010VgnVCM100000dc0ca8c0RCRD&vgnextoid=d56ad05b2a255510VgnVCM2000001f4a900aRCRD";"MAURICIO LEGENDRE";"CALLE";"V";"40";"";"";"";"";"MADRID";"MADRID";"28046";"CASTILLA";"CHAMARTIN";"442205";"4481485";"40.480173612860305";"-3.6831595451893273";"914 068 810";"";"";"/contenido/entidadesYorganismos/AyuntamientoMadrid/OrganismosEmpresasMunicipales"; 
10237457;"Museo Felix Canada";"Una seleccion de mas de quinientas obras de arte de entre las cerca de mil de la donacion original, constituyen la Coleccion Permanente que se puede visitar en las salas del Museo Felix Canada de la Fundacion Gomez Pardo, adscrita a la Escuela Tecnica Superior de Ingenieros de Minas y Energia de la Universidad Politecnica de Madrid. Donada por el ingeniero de minas Doctor Felix Canada Guerrero a la Fundacion Gomez Pardo, reune una amplia representacion de trabajos de destacados artistas, pintores, escultores, ilustradores, grabadores, orfebres, ceramistas, etc. abarcando diferentes periodos desde el siglo  XI  hasta nuestros dias.";"Visitas: lunes, miercoles y viernes de 10 a 13 horas.";"Visitas guiadas para grupos de entre 10 y 30 personas (sin guia propio) previa reserva en el correo: museo@fgomezpardo.es o bien mediante fax al 914 429 529.";"";"";"0";"http://www.madrid.es/sites/v/index.jsp?vgnextchannel=9e4c43db40317010VgnVCM100000dc0ca8c0RCRD&vgnextoid=cb22820a52799510VgnVCM1000001d4a900aRCRD";"ALENZA";"CALLE";"V";"1";"";"";"";"";"MADRID";"MADRID";"28003";"RIOS ROSAS";"CHAMBERI";"440678";"4477325";"40.442581673356834";"-3.700796192332983";"914 417 921";"";"museo@fgomezpardo.es";"/contenido/entidadesYorganismos/Museos"; 
2074;"Museo Geominero";"Construccion tipica de la arquitectura en hierro y cristal de principios del siglo  XX  que alberga colecciones de minerales, rocas y fosiles procedentes de todas las regiones espanolas y de antiguos territorios coloniales, asi como de yacimientos significados del registro mundial.   Objetivos del museo : conservar, investigar y difundir el patrimonio geologico, paleontologico y mineralogico";"De lunes a domingo y festivos de 9 a 14 horas  Cerrado los dias 1 y 6 de enero y 24, 25 y 31 de diciembre  Visitas guiadas para grupos de lunes a viernes, previa peticion cita";"";"Metro: Rios Rosas (linea 1)  Bus: 3, 5, 12, 37, 45, 149";"";"0";"http://www.madrid.es/sites/v/index.jsp?vgnextchannel=9e4c43db40317010VgnVCM100000dc0ca8c0RCRD&vgnextoid=ff0bef4d7f71c010VgnVCM1000000b205a0aRCRD";"RIOS ROSAS";"CALLE";"V";"23";"";"";"";"";"MADRID";"MADRID";"28003";"RIOS ROSAS";"CHAMBERI";"440772";"4477265";"40.442047952073665";"-3.699670468881422";"913 495 759";"913 495 828";"m.geominero@igme.es";"/contenido/entidadesYorganismos/Museos"; 
2075;"Museo Historico Minero Don Felipe de Borbon y Grecia";"Ubicado en la Escuela Tecnica Superior de Ingenieros de Minas y Energia de Madrid";"Previa cita concertada para grupos   Mercadillo de minerales y fosiles:  primer domingo de cada mes de 10 a 14 horas (en este periodo se podra visitar tambien el museo y la mina)   Exposicion anual:  el segundo fin de semana (viernes, sabado y domingo) de marzo (el museo permanecera abierto todo el dia)";"Edificio historico  La coleccion de minerales  La coleccion de fosiles  La coleccion de osos cavernarios  La coleccion de piezas arqueologicas   Biblioteca Historica    La mina subterranea 'Marcelo Jorissen'";"Metro: Rios Rosas (linea 1)  Bus: 3, 12, 37, 45, 149";"";"0";"http://www.madrid.es/sites/v/index.jsp?vgnextchannel=9e4c43db40317010VgnVCM100000dc0ca8c0RCRD&vgnextoid=822bef4d7f71c010VgnVCM1000000b205a0aRCRD";"RIOS ROSAS";"CALLE";"V";"21";"";"";"";"";"MADRID";"MADRID";"28003";"RIOS ROSAS";"CHAMBERI";"440712";"4477269";"40.44207963042673";"-3.7003900716027776";"913 367 017";"913 367 068";"";"/contenido/entidadesYorganismos/Museos"; 
18176;"Museo ICO";"";"De martes a sabados: de 11 a 20 horas    Domingos y festivos: de 10 a 14 horas    Cerrado:  Todos los lunes del ano (incluidos festivos) y los dias 1 de enero, 1 de mayo y 25 de diciembre.    Horario especial de Navidad: el 24 y el 31 de diciembre, de 10 a 14 horas";"El Museo dispone de ascensores, rampas y cuarto de bano adaptado.  Actividades educativas inclusivas y especificas para personas con necesidades especiales.  Cambiador de bebes para todos aquellos que lo necesiten.  Red wifi gratuita.";"Metro: Banco de Espana (linea 2) , Sevilla (linea 2)  Bus: 3, 5, 9, 15, 20, 46, 51, 52, 53, 150, M1, M2";"";"1";"http://www.madrid.es/sites/v/index.jsp?vgnextchannel=9e4c43db40317010VgnVCM100000dc0ca8c0RCRD&vgnextoid=2886444a2951c010VgnVCM2000000c205a0aRCRD";"ZORRILLA";"CALLE";"V";"3";"";"";"";"";"MADRID";"MADRID";"28014";"CORTES";"CENTRO";"440915";"4474456";"40.41675330128869";"-3.6977346235068373";"914 201 242";"";"museoico@ico.es";"/contenido/entidadesYorganismos/Museos"; 
6019032;"Museo Los Canos del Peral. Estacion de Metro opera";"";"Viernes, sabados y domingos de 11 a 13 y de 17 a 19 horas  Los dias de Navidad y Ano Nuevo cerrado al publico";"";"Metro: opera (lineas 2, 5 y Ramal).";"Museo Los Canos del Peral   La estacion de opera cuenta en su interior con el mayor museo arqueologico bajo tierra de Madrid, un espacio de 200 metros cuadrados donde se pueden ver restos arqueologicos de los siglos  XVI  y  XVII  pertenecientes a la Fuente de los Canos del Peral, el Acueducto de Amaniel y la Alcantarilla del Arenal.";"1";"http://www.madrid.es/sites/v/index.jsp?vgnextchannel=9e4c43db40317010VgnVCM100000dc0ca8c0RCRD&vgnextoid=435950262d50f210VgnVCM2000000c205a0aRCRD";"ISABEL II";"PLAZA";"V";"1";"";"";"";"";"MADRID";"MADRID";"28013";"PALACIO";"CENTRO";"439943";"4474575";"40.41775560280743";"-3.709202070089538";"902 444 403 / 917 796 399  (Informacion)";"";"";"/contenido/entidadesYorganismos/Museos"; 
2053;"Museo Lazaro Galdiano";"";"Martes a sabados de 10 a 16:30 horas.  Domingos de 10 a 15 horas.  Cerrado todos los lunes.  Grupos y visitas guiadas consultar.";"";"Metro: Gregorio Maranon (linea 7 y 10)  Bus: 5, 9, 12, 14, 16, 19, 27, 45, 51, 61, 150";"";"1";"http://www.madrid.es/sites/v/index.jsp?vgnextchannel=9e4c43db40317010VgnVCM100000dc0ca8c0RCRD&vgnextoid=7d1aef4d7f71c010VgnVCM1000000b205a0aRCRD";"SERRANO";"CALLE";"V";"122";"";"";"";"";"MADRID";"MADRID";"28006";"CASTELLANA";"SALAMANCA";"441911";"4476668";"40.436750328725985";"-3.6861980129207894";"915 616 084";"915 617 793";"";"/contenido/entidadesYorganismos/MonumentosEdificiosArtisticos"; 
5349304;"Museo Nacional Centro de Arte Reina Sofia (MNCARS)";"Edificio Sabatini:  calle Santa Isabel 52.   Edificio Nouvel  (ampliacion): ronda de Atocha, esquina a plaza del Emperador Carlos V.   Espacios en el parque del Retiro:  Palacio de Velazquez y Palacio de Cristal";"De lunes a sabado de 10 a 21 horas y domingos de 10 a 19 horas.  Martes cerrado (incluso festivos).  Cerrado 1 y 6 enero, 1 de mayo y 15 de mayo, 9 de noviembre, 24, 25 y 31 de diciembre";"";"Metro: Atocha (linea 1)  Bus:  6, 10, 14, 19, 26, 27, 32, 34, 36, 37, 41, 45, 59, 85, 86, 102, 119, C1, C2, E1  Renfe: C2, C3, C4, C5, C7, C8, C10";"";"1";"http://www.madrid.es/sites/v/index.jsp?vgnextchannel=9e4c43db40317010VgnVCM100000dc0ca8c0RCRD&vgnextoid=69d8275bad5a1210VgnVCM2000000c205a0aRCRD";"SANTA ISABEL";"CALLE";"V";"52";"";"";"";"";"MADRID";"MADRID";"28012";"EMBAJADORES";"CENTRO";"441222";"4473541";"40.40854131574014";"-3.6940316511856017";"917 741 000                                                                                         
";"";"";"/contenido/entidadesYorganismos/Museos"; 
2057;"Museo Nacional de Antropologia";"El Museo esta instalado en el edificio de estilo clasicista construido por el Marques de Cubas en 1875 por encargo del Doctor Gonzalez Velasco, fundador de la institucion.";"De martes a sabado de 9:30 a 20 horas.  Domingos y festivos: de 10 a 15 horas.  Cerrado todos los lunes del ano y los dias 1 y 6 de enero, 1 de mayo, 24, 25 y 31 de diciembre y un festivo local.";"";"Metro: Atocha (linea 1).  Bus: 10, 14, 19, 24, 26, 32, 37,54, 57, 59, 85, 86, 102, 141, C1, C2.  Cercanias Renfe: Atocha (lineas C1, C2, C3, C4, C5, C7, C8, C10).";"";"1";"http://www.madrid.es/sites/v/index.jsp?vgnextchannel=9e4c43db40317010VgnVCM100000dc0ca8c0RCRD&vgnextoid=456079262ef5d010VgnVCM1000000b205a0aRCRD";"ALFONSO XII";"CALLE";"V";"68";"";"";"";"";"MADRID";"MADRID";"28014";"LOS JERONIMOS";"RETIRO";"441659";"4473466";"40.407887537677716";"-3.688862923660605";"915 306 418 /915 395 995";"914 677 098";"antropologico@mecd.es";"/contenido/entidadesYorganismos/Museos"; 
2055;"Museo Nacional de Artes Decorativas";"Inaugurado en 1912, su sede es un tipico palacete madrileno del ultimo tercio del siglo XIX. El museo posee muebles, ceramicas, vidrios, joyas, tejidos, arte oriental, y hasta 30.000 objetos distintos que a lo largo de la historia han servido para embellecer las casas, palacios y los monumentos de distintas culturas.  El museo posee muestras como el Jarron de Sevres regalo de Napoleon III, la Cocina Valenciana del siglo XVIII compuesta por mas de 1.500 azulejos de Manises, la Mesa de plata del siglo XVI o la coleccion de alfombras espanolas de los siglos XV al XVII.";"Del 8 de septiembre al 30 de junio:    Martes a sabados de 9:30 a 15 horas.  Domingo y festivos: de 10 a 15 horas.  Jueves tarde de 17 a 20 horas.    Del 5 de julio al 4 de septiembre:    Martes a sabados de 9:30 a 15 horas.  Domingo y festivos: de 10 a 15 horas.    Cerrado:  todos los lunes del ano, 1 y 6 de enero, 1 de mayo, 24, 25 y 31 de diciembre y un festivo local.";"";"Metro: Banco de Espana (linea 2), Retiro (linea 2).  Bus: 1, 2, 9, 15, 19, 20, 28, 51, 52, 74, 146.  Cercanias Renfe: Recoletos (lineas C1, C2, C7, C8 Y C10).";"";"0";"http://www.madrid.es/sites/v/index.jsp?vgnextchannel=9e4c43db40317010VgnVCM100000dc0ca8c0RCRD&vgnextoid=287079262ef5d010VgnVCM1000000b205a0aRCRD";"MONTALBAN";"CALLE";"V";"12";"";"";"";"";"MADRID";"MADRID";"28014";"LOS JERONIMOS";"RETIRO";"441592";"4474577";"40.417891279015194";"-3.689754685481908";"915 326 499 / 915 326 845 Reserva actividades infantiles: 910 505 755 Biblioteca: 910 505 768 Atencion a investigadores: 910 505 763";"915 232 086";"mnad@mecd.es";"/contenido/entidadesYorganismos/MonumentosEdificiosArtisticos"; 
2056;"Museo Nacional de Ciencias Naturales";"El Museo nacional de Ciencias Naturales (MNCN-CSIC) se fundo en 1771, lo que lo convierte en uno de los museos de historia natural mas antiguos del mundo. Con exposiciones permanentes como Biodiversidad, Minerales, Fosiles y Evolucion Humana o Fauna del Parque Nacional de la Sierra de Guadarrama, entre otras, este museo pretende acercar las ciencias naturales al publico.  Ubicado en el antiguo Palacio de la Industria y de las Artes del Paseo de la Castellana de Madrid. Es un centro de investigacion del Consejo Superior de Investigaciones Cientificas (CSIC), que custodia colecciones cientificas de incalculable valor.";"De martes a viernes de 10 a 17 horas.  Sabados, domingos y festivos de 10 a 20 horas.  Sabados y domingos de agosto de 10 a 15 horas.        Cerrado : todos los lunes no festivos, 1 y 6 de enero, 1 de mayo y 25 de diciembre.";"Biblioteca de Zoologia, Entomologia, Econologia, Evolucion, Geologia y Paleontologia, Archivo, publicaciones, consulta y asesoramiento cientifico y tecnico, exposiciones permanentes y temporales, actividades culturales, talleres, cursos, sala de proyecciones, libreria especializada.";"Metro: Gregorio Maranon (lineas 7, 10)  Bus: 7, 12, 14, 27, 40, 45, 147, 150";"Exposiciones permanentes     Biodiversidad:  &iquest;Que es la biodiversidad? &iquest;Cual es su origen? &iquest;Que podemos hacer para conservar? Encontraras las respuestas a estas preguntas en esta exposicion con miles de ejemplares.   Fauna del Parque Nacional de la Sierra de Guadarrama:  Un recorrido por los principales ecosistemas de la Sierra, el ultimo de los espacios anadidos a la Red de Parques Nacionales.   Minerales, fosiles y evolucion humana:  fosiles, meteoritos, minerales, rocas y la evolucion humana   Mediterraneo, naturaleza y civilizacion:  la fauna mas destacada del area mediterranea espanola y los ecosistemas que dan forma a sus paisajes.   El Real Gabinete de Historia Natural:  piezas emblematicas del antiguo Real Gabinete de 1771 y otras de gran valor historico.   El Jardin educativo del monte mediterraneo:  bajo este nombre estan representados ambientes botanicos con especies propias de esta region, que tienen un bajo requerimiento hidrico y que muchas de ellas estan presentes en la Comunidad de Madrid.   El almacen de aves y mamiferos:  custodia las mas importantes colecciones zoologicas y geologicas de Espana con mas de 8 millones de ejemplares.   Jardin de piedras:  conjunto al aire libre de rocas y troncos fosilizados.   Esqueleto de ballena roncal : cedido por el gobierno andaluz, con mas de 20 metros y 1.500 kilos. La ballena quedo varada en 2008 en la playa de Cortijo Blanco, en Marbella,    Talleres y visitas especiales para discapacitados visuales e intelectuales,   para grupos:  concertar en los telefonos 915 646 169 y 914 111 328  ext.  1165 ( de lunes a viernes de 10 a 14 horas)";"1";"http://www.madrid.es/sites/v/index.jsp?vgnextchannel=9e4c43db40317010VgnVCM100000dc0ca8c0RCRD&vgnextoid=8edbef4d7f71c010VgnVCM1000000b205a0aRCRD";"JOSE GUTIERREZ ABASCAL";"CALLE";"V";"2";"";"";"";"";"MADRID";"MADRID";"28006";"EL VISO";"CHAMARTIN";"441573";"4477078";"40.44042007613476";"-3.690220716379925";"914 111 328 (centralita)";"915 645 078";"info.edu@mncn.csic.es";"/contenido/entidadesYorganismos/MonumentosEdificiosArtisticos"; 
2076;"Museo Naval";"Tematica: historia de la navegacion espanola";"De martes a domingo de 10 a 19 horas  Cerrado los lunes y los festivos 1 y 6 de enero y 24, 25 y 31 de diciembre  Agosto, martes a domingo de 10 a 15 horas";"";"Metro: Banco de Espana (linea 2)  Bus: 10, 14, 27, 34, 37, 45";"";"1";"http://www.madrid.es/sites/v/index.jsp?vgnextchannel=9e4c43db40317010VgnVCM100000dc0ca8c0RCRD&vgnextoid=a30cef4d7f71c010VgnVCM1000000b205a0aRCRD";"PRADO";"PASEO";"V";"5";"";"";"";"";"MADRID";"MADRID";"28014";"LOS JERONIMOS";"RETIRO";"441337";"4474537";"40.41751289873052";"-3.692768317427539";"915 238 516 / 609 467 117 (martes y viernes de 9 a 14 horas) ";"913 795 056";"ohculturanaval@fn.mde.es";"/contenido/entidadesYorganismos/Museos"; 
2085;"Museo Postal y Telegrafico";"Recorrido tematico y cronologico por la evolucion de los medios de comunicacion y colecciones filatelicas de gran valor historico, tematicas y por paises.";"Museo: de lunes a viernes de 9 a 14 y de 16 a 18 horas  Biblioteca: de lunes a viernes de 9 a 14 y de 16 a 18 horas";"";"Bus: 161";"Visitas guiadas:  previa peticion de hora, para grupos. Desde la web o por telefono.  Mediante la proyeccion de videos y a traves de la visita, se puede conocer la historia del correo y del telegrafo desde los origenes hasta las nuevas tecnologias.";"1";"http://www.madrid.es/sites/v/index.jsp?vgnextchannel=9e4c43db40317010VgnVCM100000dc0ca8c0RCRD&vgnextoid=c82cef4d7f71c010VgnVCM1000000b205a0aRCRD";"TAPIA DE CASARIEGO";"CALLE";"V";"6";"";"";"";"";"MADRID";"MADRID";"28023";"VALDEMARIN";"MONCLOA-ARAVACA";"434912";"4480162";"40.467706026917405";"-3.7690721403206724";"917 400 668 / 917 400 664 (biblioteca)";"";"museopostaltelegrafico@correos.com";"/contenido/entidadesYorganismos/Museos"; 
4997114;"Museo Sorolla";"";"De martes a sabado: de 9:30 a 20 horas   Domingos: de 10 a 15 horas  Cerrado: todos los lunes del ano, 1 de enero, 6 de enero, 1 de mayo, 24, 25 y 31 de diciembre y dos festivos locales.";"";"Metro: Ruben Dario (linea 5), Gregorio Maranon (lineas 7, 10)  Bus: 5, 7, 14, 16, 27, 40, 45, 61, 147 y 150";"";"0";"http://www.madrid.es/sites/v/index.jsp?vgnextchannel=9e4c43db40317010VgnVCM100000dc0ca8c0RCRD&vgnextoid=6dd05e93aad9c110VgnVCM1000000b205a0aRCRD";"GENERAL MARTINEZ CAMPOS";"PASEO";"V";"37";"";"";"";"";"MADRID";"MADRID";"28010";"ALMAGRO";"CHAMBERI";"441390";"4476542";"40.43557863874977";"-3.6923288211390055";"913 101 584";"";"museo.sorolla@mecd.es";"/contenido/entidadesYorganismos/Museos"; 
2077;"Museo Taurino de la Plaza de las Ventas";"Su existencia data del dia de San Isidro de 1951, creado por la extinta Diputacion Provincial de Madrid. Sirve como testimonio de los momentos estelares del arte y la historia del toreo.  La entrada se encuentra situada junto al patio de caballos de la Plaza de Toros Monumental de Las Ventas.";"Todos los dias del ano incluidos sabados, domingos y festivos de 10 a 18 horas, ininterrumpidamente, salvo los dias de Festejo y en Feria de San Isidro y Otono de 10 a 16 horas, ininterrumpidamente.";"";"Metro: Ventas (lineas 2, 5)  Bus: 12, 21, 38, 53, 74, 106, 110, 146, 210";"";"0";"http://www.madrid.es/sites/v/index.jsp?vgnextchannel=9e4c43db40317010VgnVCM100000dc0ca8c0RCRD&vgnextoid=958cef4d7f71c010VgnVCM1000000b205a0aRCRD";"ALCALA";"CALLE";"V";"237";"";"";"";"";"MADRID";"MADRID";"28028";"GUINDALERA";"SALAMANCA";"443885";"4476078";"40.43157110306013";"-3.662872780933851";"912 761 287                 
";"";"museotaurinolasventas@madrid.org";"/contenido/entidadesYorganismos/Museos"; 
2099;"Museo Thyssen-Bornemisza";"El Palacio donde se ubica la coleccion fue el antiguo palacio del duque de Villahermosa. Edificacion neoclasica. Posteriormente se adapta como entidad bancaria perdiento sus espacios interiores. Mas tarde, paso a formar parte de los edificios del Museo del Prado. Desde principios de los 90 alberga la Coleccion Thyssen. El museo ofrece un recorrido por la historia de la pintura europea desde sus inicios en el siglo  XIII , hasta finales del siglo  XX.";"Colecciones permanentes:   lunes de 12 a 16 horas (acceso gratuito gracias al patrocinio de MasterCard). Martes a domingos de 10 a 19 horas.    Exposiciones temporales : consultar horario especifico en Museo.  ultimo acceso 1 hora antes del cierre. El desalojo de todas las salas tendra lugar 5 minutos antes del cierre.   Avisos y aperturas extraordinarias:  los dias 1 de enero, 1 de mayo y 25 de diciembre el Museo permanecera cerrado. El 24 y el 31 de diciembre el horario de apertura del Museo sera de 10 a 15 horas";"Accesible a personas con discapacidad (fisica y sensorial)   Folleto y senalizacion en braille para invidentes  Libreria  Tienda  Cafeteria  Restaurante  Guardarropa  Servicio de venta anticipada en las taquillas  Servicio de Audio Guia";"Metro: Banco de Espana (linea 2)  Bus: 1, 2, 5, 9, 10, 14, 15, 20, 27, 34, 37, 41, 51, 52, 53, 74, 146 y 150  Cercanias Renfe: Recoletos";"Arquitecto: Antonio Lopez Aguado (1805 - 1806)  Adecuacion: Rafael Moneo (1989 - 1992)  Ampliacion: BOPBAA (1999 - 2004)";"1";"http://www.madrid.es/sites/v/index.jsp?vgnextchannel=9e4c43db40317010VgnVCM100000dc0ca8c0RCRD&vgnextoid=0b8079262ef5d010VgnVCM1000000b205a0aRCRD";"PRADO";"PASEO";"V";"8";"";"";"";"";"MADRID";"MADRID";"28014";"CORTES";"CENTRO";"441168";"4474371";"40.41600553697803";"-3.694744831131079";"917 911 370                                                                                                                                                                                                                        
";"";"mtb@museothyssen.org";"/contenido/entidadesYorganismos/MonumentosEdificiosArtisticos"; 
2101;"Museo Tiflologico";"Edificio con una superficie de 1.500  m2  dividido en tres zonas con maquetas de monumentos nacionales e internacionales realizadas por invidentes e instrumentos utilizados por los invidentes desde hace 200 anos. Es un espacio concebido para que sus visitantes puedan ver y tocar las piezas expuestas.";"Martes a viernes de 10 a 14 horas y de 17 a 20 horas.  Sabados de 10 a 14 horas.  Lunes, domingos y festivos cerrado.   Las visitas de grupos se realizan previa reserva, de 8 a 14:00 horas, en el telefono de informacion: 915 894 219";"";"Metro: Estrecho (linea 1)  Bus: 3, 42, 64, 66, 124, 127";"";"1";"http://www.madrid.es/sites/v/index.jsp?vgnextchannel=9e4c43db40317010VgnVCM100000dc0ca8c0RCRD&vgnextoid=baacef4d7f71c010VgnVCM1000000b205a0aRCRD";"LA CORUnA";"CALLE";"V";"18";"";"";"";"";"MADRID";"MADRID";"28020";"CUATRO CAMINOS";"TETUAN";"440740";"4478725";"40.45519790204094";"-3.7001960485997545";"915 894 219";"";"museo@once.es";"/contenido/entidadesYorganismos/Museos"; 
2068;"Museo de Aeronautica y Astronautica";"Emplazado en Cuatro Vientos desde 1966, tiene como objetivo narrar la historia y el desarrollo cientifico - tecnico de la Aeronautica y Astronautica espanolas. Ocupa una superficie de 66.938 metros cuadrados, repartidos en una zona de exposicion exterior y siete hangares que albergan mas de 140 aeronaves, asi como uniformes, condecoraciones, motores, maquetas y otros fondos relacionados con la aviacion.";"De martes a domingo de 10 a 14 horas.  Cerrado los dias 1 y 6 de enero, el mes de agosto, Jueves y Viernes Santos, 12 de octubre, 10 de diciembre (Patrona de Aviacion), 24, 25 y 31 de diciembre.";"Aparcameinto: gratuito, de 10 a 14 horas  Cafeteria: de 10 a 13:30 horas  Punto de venta: de 10 a 13:30 horas   Visitas guiadas para grupos:  de martes a domingo de 10 a 14 horas, previa peticion de autorizacion por carta o correo electronico (museodelaire@ea.mde.es). Se recomienda anticipar las peticiones por telefono de lunes a viernes. Grupo minimo de 10 personas   Obtencion de fotografias y/o filmaciones:   Tratandose de fotografias o filmaciones para uso particular no es necesario pedir ningun tipo de autorizacion.  Es necesaria la solicitud de permiso previo mediante fax 917 106 847, si el objetivo es la difusion por medios de comunicacion. El permiso se ajustara a lo dispuesto en la Instruccion 65/2004, de 31 de marzo, del Secretario de Estado de Defensa.      Para mas informacion telefono 915 091 690";"";"";"1";"http://www.madrid.es/sites/v/index.jsp?vgnextchannel=9e4c43db40317010VgnVCM100000dc0ca8c0RCRD&vgnextoid=90aaef4d7f71c010VgnVCM1000000b205a0aRCRD";"A-5";"AUTOVIA";"T";"10.700";"";"";"";"Km. 10,5";"MADRID";"MADRID";"28024";"CUATRO VIENTOS";"LATINA";"432348";"4469705";"40.3733013700739";"-3.798200034372686";"915 091 690 (centralita)";"917 106 847";"museodelaire@ea.mde.es ";"/contenido/entidadesYorganismos/Museos"; 
2091;"Museo de America";"";"Horario:    De martes a sabado, de 9:30 a 15 horas  Jueves, apertura continuada de 9:30 a 19 horas  Domingos y festivos de 10 a 15 horas    Cerrado:  todos los lunes del ano, dias 1 y 6 de enero, 1 de mayo, dias 24, 25 y 31 de diciembre y un festivo local.";"";"Bus: 46, 82, 83, 132, 133, 160, 161, 162, A, G, U.  Metro: Moncloa (Lineas 3, 6)";"";"1";"http://www.madrid.es/sites/v/index.jsp?vgnextchannel=9e4c43db40317010VgnVCM100000dc0ca8c0RCRD&vgnextoid=c929ef4d7f71c010VgnVCM1000000b205a0aRCRD";"REYES CATOLICOS";"AVENIDA";"V";"6";"";"";"";"";"MADRID";"MADRID";"28040";"CIUDAD UNIVERSITARIA";"MONCLOA-ARAVACA";"438887";"4476823";"40.43792950973577";"-3.72186494128936";"915 439 437 / 915 492 641";"915 446 742";"museo.america@mecd.es";"/contenido/entidadesYorganismos/Museos"; 
83922;"Museo de Arte Contemporaneo de Madrid";"";"Horario    De martes a sabado:  mananas de 10 a 14 horas  tardes de 17:30 a 21 horas     Domingos y festivos  de 10:30 a 14 horas    Horario de Verano  del 15 de junio al 15 de septiembre   De martes a sabado:  mananas de 10 a 14  horas  tardes de 17:30 a 20:30 horas    Domingos y festivos de 10:30 a 14 horas     Cerrado   Todos los lunes, 1 y 6 de enero, 1 de mayo y 25 de diciembre.  Las salas se desalojan 15 minutos antes del cierre.";"";"Metro:  Ventura Rodriguez, Plaza de Espana, San Bernardo, Noviciado.   Bus:  1, 2, 21, 44, 74, 133, C, M2   Renfe : Principe Pio";"&bull;&middot;  El edificio esta casi enteramente adaptado para facilitar la accesibilidad fisica de los visitantes.   &bull;&middot;  Dispone de ascensores y aseos adaptados.";"1";"http://www.madrid.es/sites/v/index.jsp?vgnextchannel=9e4c43db40317010VgnVCM100000dc0ca8c0RCRD&vgnextoid=84a55c2cdc41c010VgnVCM2000000c205a0aRCRD";"CONDE DUQUE";"CALLE";"V";"9";"";"";"";"";"MADRID";"MADRID";"28015";"UNIVERSIDAD";"CENTRO";"439832";"4475644";"40.42737760210632";"-3.7106116887809817";"915 885 928  /  915 885 861";"";"mmacmdifusion@madrid.es";"/contenido/entidadesYorganismos/Museos"; 
2069;"Museo de Artes y Tradiciones Populares. Centro Cultural La Corrala";"El Museo se forma tras la donacion de la coleccion de Guadalupe Gonzalez Hontoria a la Universidad Autonoma de Madrid. Las piezas comprenden:   El ciclo vital humano y religiosidad popular  El ciclo festivo anual, instrumentos musicales, bailes y juegos de adultos  Tareas domesticas  Agricultura, ganaderia, caza y pesca  Los oficios artesanales y transporte rural.";"Permanece abierto al publico de lunes a viernes con horario de 10 a 20 horas. Sabados de 10 a 14 horas.  Cerrado domingos, festivos y mes de agosto";"Visitas guiadas previa cita en el telefono del Museo o en  visitas.atp@uam.es";"Metro: La Latina (linea 5)  Bus: 41, 60, 148 y Circular  Renfe: Embajadores /Atocha";"";"0";"http://www.madrid.es/sites/v/index.jsp?vgnextchannel=9e4c43db40317010VgnVCM100000dc0ca8c0RCRD&vgnextoid=5c39ef4d7f71c010VgnVCM1000000b205a0aRCRD";"CARLOS ARNICHES";"CALLE";"V";"3";"";"";"";"";"MADRID";"MADRID";"28005";"EMBAJADORES";"CENTRO";"440008";"4473582";"40.40882397197274";"-3.708330456274069";"914 976 500";"914 976 510";"museoatp@uam.es";"/contenido/entidadesYorganismos/Museos"; 
2092;"Museo de Astronomia y Geodesia";"La coleccion se compone de objetos relacionados con el mundo de la Astronomia, como teodolitos, cronometros, brujulas topograficas, sextantes giroscopicos, astrolabios de prisma, camaras fotograficas para eclipse,  etc";"Visita con cita previa";"";"Bus: 82 , F , 132 , I , G";"";"0";"http://www.madrid.es/sites/v/index.jsp?vgnextchannel=9e4c43db40317010VgnVCM100000dc0ca8c0RCRD&vgnextoid=ee49ef4d7f71c010VgnVCM1000000b205a0aRCRD";"CIENCIAS";"PLAZA";"V";"3";"";"";"";"";"MADRID";"MADRID";"28040";"CIUDAD UNIVERSITARIA";"MONCLOA-ARAVACA";"438528";"4478102";"40.44942472705852";"-3.7262214898219117";"913 944 615";"";"astronomia_geodesia@mat.ucm.es";"/contenido/entidadesYorganismos/Museos"; 
5727435;"Museo de Bomberos";"";"Abierto todos los dias de 09'30 a 14 horas, excepto 25 de diciembre, 1 enero,  6 de enero y 1 de mayo.   Visitas Guiadas   Se pueden concertar en el telefono: 914 786 572 (Museo)  Mas informacion: 915 889 907 - 915 888 240";"Exposicion fotografica  Un recorrido por toda su historia: grandes incendios, construccion de los primeros parques, bomberos fallecidos en acto de servicio...   Vehiculos  Una amplia gama de los vehiculos utilizados en los ultimos 400 anos: Las primeras bombas brazales, clasicos de los anos veinte y vehiculos adaptados de la II Guerra Mundial.   Herramientas y equipos  Diferentes escalas de gancho, extintores primitivos o las primeras lonas de salvamento nos dan una idea de como han trabajado los bomberos en los ultimos siglos asi como herramientas de distintas epocas que nos muestran el avance tecnologico en la lucha contra el fuego y salvamento.   Cascos  Amplia exposicion en la que se muestra la evolucion de los cascos en Madrid. Ademas se expone una coleccion internacional en la que se aprecia, en su diseno, la mezcla de proteccion, materiales y comodidad en los diferentes paises del mundo.   Uniformes  De epoca, trajes de gala, asi como varios modelos que fueron utilizados en sucesos destacados de la historia de Madrid. Completan esta coleccion varios trajes de aproximacion al fuego y proteccion quimica especial entre otros.   Comunicaciones  Antiguamente los bomberos se comunicaban mediante toques de corneta. Esta exposicion muestra las partituras con sus particulares comandas. Ademas, la exposicion incluye la evolucion de los equipos de comunicaciones.   Sanitario  Una camara de recuperacion respiratoria para los bomberos intoxicados por el humo en los fuegos es uno de los mayores atractivos de este area.";"Metro : L1- Buenos Aires  Bus : 141 y 143";"Abierto al publico en 1982, reune todos los instrumentos usados por los bomberos durante mas de cuatro siglos.      Acceso para minusvalidos        Entrada gratuita      Apropiado para ninos                Visita para grupos con cita previa";"1";"http://www.madrid.es/sites/v/index.jsp?vgnextchannel=9e4c43db40317010VgnVCM100000dc0ca8c0RCRD&vgnextoid=9f0966a8bba49210VgnVCM2000000c205a0aRCRD";"BOADA";"CALLE";"V";"4";"";"";"";"";"MADRID";"MADRID";"28038";"NUMANCIA";"PUENTE DE VALLECAS";"444613";"4471961";"40.39453171263195";"-3.6539313207612207";"91 478 65 72 (Museo),                                                                                                                                           
                                                                                                                                               
";"";"jcbomberos@madrid.es";"/contenido/entidadesYorganismos/Museos"; 
2090;"Museo de Calcografia Nacional";"Reune un extraordinario conjunto de planchas grabadas por los mas significados artistas espanoles, hasta conformar una de las mayores y mejores colecciones de matrices calcograficas del mundo. Su principal tesoro son las planchas de cobre grabadas al aguafuerte por Francisco de Goya, obras cumbres de la historia universal del grabado.";"Abierto con el mismo horario que la exposicion temporal. En ausencia de exposiciones temporales, consultar en la taquilla del museo, telefonicamente o en la web.";"Sala de exposiciones temporales, Gabinete de Francisco de Goya y biblioteca de referencia.";"Metro: Sol (lineas 1, 2, 3), Sevilla (linea 2)  Bus: 3, 5, 9, 15, 20, 46, 51, 52, 53, 150, M1, M2  Cercanias: Sol";"";"0";"http://www.madrid.es/sites/v/index.jsp?vgnextchannel=9e4c43db40317010VgnVCM100000dc0ca8c0RCRD&vgnextoid=7169ef4d7f71c010VgnVCM1000000b205a0aRCRD";"ALCALA";"CALLE";"V";"13";"";"";"";"";"MADRID";"MADRID";"28014";"SOL";"CENTRO";"440667";"4474557";"40.41764548040709";"-3.700667044636178";"915 240 864";"915 240 977";"calcografianacional.archivo@rabasf.org";"/contenido/entidadesYorganismos/Museos"; 
2084;"Museo de Cera";"";"De lunes a viernes de 10 a 14:30 y de 16:30 a 20:30 horas.  Sabados, domingos y festivos de 10 a 20:30 horas.  Los dias 25 de diciembre y 1 de enero, el museo abre de 10 a 14:30 horas y de 16:30 a 20:30 horas.  Las taquillas cierran media hora antes.";"";"Metro: Colon (linea 4)  Bus: 5, 14, 21, 27, 45, 53, 15  Renfe: Recoletos";"Se pueden realizar cuantas fotografias se deseen en el interior.";"1";"http://www.madrid.es/sites/v/index.jsp?vgnextchannel=9e4c43db40317010VgnVCM100000dc0ca8c0RCRD&vgnextoid=9689ef4d7f71c010VgnVCM1000000b205a0aRCRD";"RECOLETOS";"PASEO";"V";"41";"";"";"";"";"MADRID";"MADRID";"28004";"JUSTICIA";"CENTRO";"441456";"4475301";"40.424403779665376";"-3.6914362030084815";"913 199 330";"";"info@museoceramadrid.com";"/contenido/entidadesYorganismos/Museos"; 
2071;"Museo de Escultura al Aire Libre de la Castellana";"El Museo de Escultura al Aire Libre de La Castellana, esta situado bajo el paso elevado que une las calles de Juan Bravo y Eduardo Dato, contiene una excelente coleccion de escultura abstracta espanola.";"Entrada libre. Espacio urbano abierto  Abierto 24 horas al dia los 365 dias del ano.";"";"Transporte publico mas proximo   Metro: Ruben Dario (linea 5)  Bus: 5, 14, 27, 45, 150";"";"1";"http://www.madrid.es/sites/v/index.jsp?vgnextchannel=9e4c43db40317010VgnVCM100000dc0ca8c0RCRD&vgnextoid=eca9ef4d7f71c010VgnVCM1000000b205a0aRCRD";"CASTELLANA";"PASEO";"V";"40";"";"";"";"";"MADRID";"MADRID";"28046";"CASTELLANA";"SALAMANCA";"441788";"4476277";"40.433219398671156";"-3.6876122680805956";"";"";"mmacmdifusion@madrid.es";"/contenido/entidadesYorganismos/MonumentosEdificiosArtisticos"; 
2054;"Museo de Historia de Madrid";"Creado como Museo Municipal en 1929 y rebautizado como Museo de Historia de Madrid en 2007, tras una profunda remodelacion, el ano 2014 reabre sus puertas con un montaje moderno y una puesta al dia de sus colecciones.";"HORARIO DE VERANO:  de martes a domingo de 10:00 a 19 horas.  Cerrado : todos los lunes y los dias 1 y 6 de enero, 1 de mayo, 24, 25 y 31 de diciembre.";"Biblioteca de investigacion  Servicio de documentacion  Guardarropa  Zona wifi";"Metro: Tribunal (lineas 1 y 10), Bilbao (lineas 1 y 4), Alonso Martinez (4, 5, 10)  Bus: 3, 21, 37, 40, 147, 149  Aparcamiento publico: Barcelo";"Accesibilidad fisica:    Rampa de acceso a la entrada.  Ascensores.  Aseos adaptados.  Silla de ruedas.";"1";"http://www.madrid.es/sites/v/index.jsp?vgnextchannel=9e4c43db40317010VgnVCM100000dc0ca8c0RCRD&vgnextoid=8f3079262ef5d010VgnVCM1000000b205a0aRCRD";"FUENCARRAL";"CALLE";"V";"78";"";"";"";"";"MADRID";"MADRID";"28004";"JUSTICIA";"CENTRO";"440659";"4475459";"40.42577054821346";"-3.700845660719608";"917 011 863";"";"smuseosm@madrid.es";"/contenido/entidadesYorganismos/MonumentosEdificiosArtisticos"; 
2095;"Museo de Mineralogia";"Presenta colecciones de minerales clasificados por su composicion quimica, y vitrinas murales con ejemplares de exhibicion procedentes de todo el mundo.";"Jueves de 10:30 a 14:30 horas, (conviene concertar previamente la visita).  Visitas guiadas por el personal del museo para grupos.";"";"Renfe: Cantoblanco Universidad";"";"0";"http://www.madrid.es/sites/v/index.jsp?vgnextchannel=9e4c43db40317010VgnVCM100000dc0ca8c0RCRD&vgnextoid=255aef4d7f71c010VgnVCM1000000b205a0aRCRD";"COLMENAR VIEJO";"CARRETERA";"KM.";"19000";"";"";"";"Facultad de Ciencias (Departamento de Quimica Agricola, Geologia y Geoquimica: Modulo C-VI, planta 4).";"MADRID";"MADRID";"28049";"EL GOLOSO";"FUENCARRAL-EL PARDO";"0";"0";"";"";"914 974 132 / 914 974 800";"914 974 900";"museo.mineralogia@uam.es";"/contenido/entidadesYorganismos/Museos"; 
2112;"Museo de San Isidro. Los Origenes de Madrid";"Este espacio museografico propone un viaje por la historia de la ciudad de Madrid desde la Prehistoria hasta el establecimiento de la Corte, a traves de distintas salas como la de San Isidro, el Patio Renacentista, el Jardin Arqueobotanico o el Almacen Visitable.";"General:  de martes a domingo y festivos de 9:30 a 20 horas.   16 de junio a 15 de septiembre:  martes a domingo de 10 a 19 horas.   Cerrado:  todos los lunes, 1 y 6 de enero, 1 de mayo y 24, 25 y 31 de diciembre.";"Sala de investigadores - Biblioteca especializada en arqueologia e historia madrilena - Archivo documental - Almacen visitable (mas de 600 piezas arqueologicas) y el Jardin arqueobotanico (con informacion documentada sobre las especies de la ciudad).   Investigadores: los fondos del Museo estan a disposicion de la comunidad cientifica y los investigadores podran acceder a ella con una simple peticion formal a la direccion.  Aviso: 'El Servicio de investigacion y consulta de la bilioteca especializada: tras la reciente apertura de la exposicion permanente del Museo y, debido a los trabajos internos de revision y reordenacion de los fondos, el funcionamiento normal de este servicio permanecera interrumpido hasta enero de 2018, atendiendose solo consultas puntuales'.   Exposicion permanente: 'Origenes: Un viaje al pasado de Madrid'. Un recorrido a traves de la evolucion del territorio madrileno y de sus pobladores hasta el establecimiento de la Corte en 1561.    Otros espacios visitables: las estancias de San Isidro, asi como una importante coleccion de iconografia de San Isidro y de Santa Maria de la Cabeza.  Visitas guiadas por voluntarios culturales. Talleres didacticos para grupos escolares.  Zona wifi";"Metro: Latina , Tirso de Molina  Bus: 3 , 17 , 18 , 23 , 35 , 60 , 65 , 148";"";"1";"http://www.madrid.es/sites/v/index.jsp?vgnextchannel=9e4c43db40317010VgnVCM100000dc0ca8c0RCRD&vgnextoid=7b7aef4d7f71c010VgnVCM1000000b205a0aRCRD";"SAN ANDRES";"PLAZA";"V";"1";"";"";"";"";"MADRID";"MADRID";"28005";"PALACIO";"CENTRO";"439801";"4473945";"40.41207900253883";"-3.7108161027466378";"913 667 415";"";"museosanisidro@madrid.es";"/contenido/entidadesYorganismos/Museos"; 
85301;"Museo de Sanidad e Higiene Publica";"Con sede en el Instituto de Salud Carlos III, ocupa las antiguas dependencias del Laboratorio de Microbiologia del Hospital del Rey. 300  m2  conservados tal cual su antiguo uso, con fondos de mobiliario, instrumental y bibliografia de los antiguos hospitales para enfermos infecciosos del complejo. Se resaltan hitos historicos relevantes en salud publica mediante laminas enmarcadas.";"Solo visitas de grupo con cita previa: de lunes a viernes, de 10 a 14 horas.  Cita previa por telefono: 918 222 414  o a traves del correo electronico:  museodesanidad@isciii.es";"";"Metro: Chamartin (lineas 1, 10), Plaza de Castilla (1, 9, 10)  Bus: 67, 124, 134, 135, 147  Renfe: Chamartin";"Las  visitas guiadas  se realizan gracias al programa de voluntariado del Museo, en el que participan investigadores de ciencias biomedicas y profesores de la Escuela Nacional de Sanidad, centro que tambien pertenece al Instituto de Salud Carlos III. La visita tiene una duracion prevista de una hora.";"0";"http://www.madrid.es/sites/v/index.jsp?vgnextchannel=9e4c43db40317010VgnVCM100000dc0ca8c0RCRD&vgnextoid=3e755c2cdc41c010VgnVCM2000000c205a0aRCRD";"MONFORTE DE LEMOS";"AVENIDA";"V";"5";"";"";"";"";"MADRID";"MADRID";"28029";"LA PAZ";"FUENCARRAL-EL PARDO";"441617";"4480968";"40.47546597881768";"-3.6900603941123107";"918 222 414  (Cita previa)";"";"museodesanidad@iscii.es";"/contenido/entidadesYorganismos/Museos"; 
4591873;"Museo de la Biblioteca Nacional de Espana";"El Museo de la Biblioteca Nacional de Espana, antiguo Museo del Libro, es responsable de la oferta educativa, formativa, cultural y de ocio de la institucion y divulga las colecciones, funcionamiento e historia de la Biblioteca para todos los publicos.";"De martes a sabados: de 10 a 20 horas.   Domingos: de 10 a 14 horas.  ultimos pases 30 minutos antes del cierre  Dia 5 de enero abierto de 10 a 18 horas.  Dias 2 y 7 de enero; 20 de marzo; 13 y 14 de abril; 2 y 15 de mayo; 15 de agosto; 12 de octubre; 1 y 9 de noviembre; 8, 24 y 31 de diciembre: de 10 a 14 horas.  Dias 1 y 6 de enero; 1 de mayo y 25 de diciembre: cerrado.";"";"Metro: Colon, (linea 4)  Bus: 1, 5, 9, 14, 19, 21, 27, 37, 45, 51, 53, 74, 150  Cercanias Renfe: Recoletos (lineas C1, C2, C7, C8  y C10)";"";"0";"http://www.madrid.es/sites/v/index.jsp?vgnextchannel=9e4c43db40317010VgnVCM100000dc0ca8c0RCRD&vgnextoid=05920d3b4c503110VgnVCM2000000c205a0aRCRD";"RECOLETOS";"PASEO";"V";"20";"";"";"";"";"MADRID";"MADRID";"28001";"RECOLETOS";"SALAMANCA";"441505";"4475144";"40.423001908945956";"-3.69084423390357";"915 168 967 / 915 807 759 de lunes a viernes de 9 a 14 horas.";"";"museo@bne.es";"/contenido/entidadesYorganismos/Museos"; 
4566286;"Museo de la Catedral de la Almudena";"";"De lunes a sabado de 10 a 14:30 horas  Cerrado los domingos, fiestas de precepto y dias de actos de culto especiales";"";"Bus: 3, 31, 50, 65, 148";"";"0";"http://www.madrid.es/sites/v/index.jsp?vgnextchannel=9e4c43db40317010VgnVCM100000dc0ca8c0RCRD&vgnextoid=82cb8d0e78d22110VgnVCM1000000b205a0aRCRD";"BAILEN";"CALLE";"V";"10";"";"";"";"Entrada por un costado de la entrada principal de la catedral";"MADRID";"MADRID";"28013";"PALACIO";"CENTRO";"439560";"4474332";"40.415538770017406";"-3.7136931154460564";"915 592 874";"";"museo@catedraldelaalmudena.es";"/contenido/entidadesYorganismos/Museos"; 
2073;"Museo de la Farmacia Hispana";"Entre sus fondos destacan las colecciones de botes ceramicos, morteros y cajas de madera policromadas, relacionados con la practica docente, cuatro boticas historicas y tres instalaciones que recrean un laboratorio alquimista, una botica arabe y la botica del Hospital de San Juan de las Afueras (Toledo).";"De lunes a viernes de 9 a 14 horas (periodo lectivo).";"";"Metro: Ciudad Universitaria  Bus: 82 , 132 , F, G, U";"Visita guiada de 90 minutos, maximo 25 personas.  No se dispone de acceso para discapacitados.";"0";"http://www.madrid.es/sites/v/index.jsp?vgnextchannel=9e4c43db40317010VgnVCM100000dc0ca8c0RCRD&vgnextoid=58f9ef4d7f71c010VgnVCM1000000b205a0aRCRD";"RAMON Y CAJAL";"PLAZA";"V";"0";"";"";"";"";"MADRID";"MADRID";"28040";"CIUDAD UNIVERSITARIA";"MONCLOA-ARAVACA";"438524";"4477559";"40.4445328804645";"-3.7262160043788155";"913 941 797";"";"museofar@farm.ucm.es";"/contenido/entidadesYorganismos/Museos"; 
2107;"Museo de la Guardia Civil";"El Museo se crea por Orden General del Cuerpo de 23 de junio de 1982 y se inaugura el dia 12 de octubre de 1982.  Los fondos que forman el Museo han sido aportados o depositados bien por entidades publicas o privadas, bien por las distintas Unidades del Cuerpo, todos los cuales estan vinculados de alguna manera a las vicisitudes e historia de la Guardia Civil desde su creacion hasta nuestros dias. Existen cuatro salas denominadas: banderas (rellano de la  2&ordf;  Planta), sala de arma, sala de uniformes y maniquies, sala de objetos varios y dioramas.  Los primeros indicios y escritos en los que se refleja la inquietud de recopilar objetos de marcado caracter historico relacionados con las actividades de la Guardia Civil datan del ano 1914 (desaparecera en 1936 con motivo de la Guerra Civil), si bien seria a principios de 1982, cuando por iniciativa del entonces Director General, Jose Luis Aramburu Topete, se inician las labores para la formacion del actual Museo de la Guardia Civil.";"Horario:  de lunes a viernes de 9 a 14 horas.    Individuales y grupos reducidos (cinco personas o menos):  sin previa peticion de reserva - no guiadas.   Grupos grandes (mas de cinco personas):  previa peticion de reserva - guiadas.";"";"Metro: Guzman el Bueno (lineas 6, 7)  Bus: 2,  44, 45, C1, C2";"Correo ordinario   Direccion General de la  Guardia Civil. C/ Guzman El Bueno, numero 110.  C.P. 28003 - Madrid   Correo electronico:   dg-estuhistoricos-registro@guardiacivil.org    Telefono:  91 514 60 00, extensiones 48495 (Oficina Museo), 48477 (Salas Museo), horario de 8 a 14 horas.   https://www.guardiacivil.es/es/institucional/museoguacivil/visitas/index.html";"0";"http://www.madrid.es/sites/v/index.jsp?vgnextchannel=9e4c43db40317010VgnVCM100000dc0ca8c0RCRD&vgnextoid=003aef4d7f71c010VgnVCM1000000b205a0aRCRD";"GUZMAN EL BUENO";"CALLE";"V";"110";"";"";"";"";"MADRID";"MADRID";"28003";"VALLEHERMOSO";"CHAMBERI";"439704";"4477532";"40.44438523242585";"-3.712300118990835";"915 146 000, extensiones 48495 (Oficina Museo), 48477 (Salas Museo), ";"";"dg-estuhistoricos-registro@guardiacivil.org";"/contenido/entidadesYorganismos/Museos"; 
2114;"Museo de la Real Academia de Bellas Artes de San Fernando";"Construido inicialmente para palacio de D. Juan de Goyeneche, el edificio fue adquirido por la Academia de Bellas Artes en 1773 y reformado bajo la direccion de Fernando Chueca Goitia en 1973 y la fachada por Diego de Villanueva en 1774.";"De martes a domingos y festivos de 10 a 15 horas  Lunes cerrado   En periodos vacacionales puede sufrir cambios: llamar al 915 240 864   Cerrado:    1 y 6 de enero  1 y 30 de mayo  9 de noviembre  24, 25 y 31 de diciembre.    Exposiciones temporales : consultar telefonicamente";"Sala de exposiciones - Accesible a personas con minusvalia (fisica).";"Metro: Sol (lineas 1, 2, 3), Sevilla (linea 2)  Bus: 3, 5, 9, 15, 20, 46, 51, 52, 53, 150  Renfe Cercanias: Sol";"Visitas guiadas (no grupos):    Martes, jueves y viernes  no festivos  a las 11 horas, excepto Navidad, Semana Santa y agosto.    Visitas para grupos y privadas:    Gratuitas y guiadas a los centros escolares y asociaciones a cargo de voluntarios culturales del Museo.    Previa solicitud:    Visitas de grupo:  museo.visitas@rabasf.org   Visitas privadas a museo cerrado:   actos.culturales@rabasf.org    Cumplimentando formulario de peticion de reservas en la web     Informacion para la visita:    Por seguridad esta prohibido el acceso con mochilas, bolsos o carteras grandes, paraguas, comida, etc. que deberan depositarse en taquilla  No esta permitido el uso de los telefonos moviles  Una silla de ruedas y un ascensor estan a disposicion del visitante que los solicite  Se permiten tomas fotograficas con camara o videocamara pequena sin flash ni tripode   La Academia no tiene cafeteria. La entrada con fecha del dia es valida hasta 15 minutos antes del cierre";"1";"http://www.madrid.es/sites/v/index.jsp?vgnextchannel=9e4c43db40317010VgnVCM100000dc0ca8c0RCRD&vgnextoid=924aef4d7f71c010VgnVCM1000000b205a0aRCRD";"ALCALA";"CALLE";"V";"13";"";"";"";"";"MADRID";"MADRID";"28014";"SOL";"CENTRO";"440667";"4474557";"40.41765456031193";"-3.7006553517170633";"915 240 864 (Centralita)                                                    
";"915 241 034";"museo@rabasf.org";"/contenido/entidadesYorganismos/MonumentosEdificiosArtisticos"; 
187029;"Museo del Atletico de Madrid";"";"Horarios del Museo   De lunes a domingo, de 11 a 19 horas (incluido fetivos).  Cerrado los dias 24 y 31 de diciembre a partir de las 14 horas y todo el dia del 25 de diciembre y el 1 y 6 de enero.     Horarios de las visitas guiadas   De lunes a domingo a las 12, 13, 16:30 y 17:30 horas  No se celebran los dias 24, 25 y 31 de diciembre 1 y 6 de enero.";"";"Metro: Piramides (linea 5), Marques de Vadillo (linea 5)  Bus: 17, 18, 23, 25, 35, 36, 50, 62, 116, 118, 119";"";"0";"http://www.madrid.es/sites/v/index.jsp?vgnextchannel=9e4c43db40317010VgnVCM100000dc0ca8c0RCRD&vgnextoid=e41ad2bec675e010VgnVCM1000000b205a0aRCRD";"VIRGEN DEL PUERTO";"PASEO";"V";"67";"";"";"";"En el estadio Vicente Calderon, junto a la puerta 24";"MADRID";"MADRID";"28005";"IMPERIAL";"ARGANZUELA";"438909";"4472774";"40.401464995943606";"-3.721216029988991";"913 650 931 / 913 666 568";"913 652 455";"museo@atleticodemadrid.com";"/contenido/entidadesYorganismos/Museos"; 
2066;"Museo del Ferrocarril de Madrid";"Edificio de caracter monumental. Construido como cabecera de la linea Madrid - Extremadura - Portugal en el ano 1880 por E. Cachelievre.";"Del 1 de enero al 31 de mayo y del 1 de octubre al 31 de diciembre:    Lunes a jueves, de 9.30 a 15 horas.  Viernes, sabado, domingo y festivos de 10 a 20 horas (el segundo viernes de mes permanecera abierto hasta las 18 horas)    Del 1 de junio al 30 de septiembre   Lunes a domingo, de 10.00 a 15 horas.   Cerrado: 25 de diciembre, 1 y 6 de enero.";"Tienda  Teatro  Libreria  Cafeteria  Archivo y Biblioteca  Parque ferroviario  Salas de Traccion, de Modelismo Ferroviario, de Infraestructura y de Relojes    Actividades    Tren de jardin:  todos los domingos, de 11.30 a 14 horas. En Mercado de Motores, tambien sabados (de 11.30 a 14 horas y de 17 a 20); y domingos, de 11.30 a 14 horas.   Feria de coleccionismo 'La Estacion' : primer sabado de cada mes &ndash;excepto agosto-, de 10 a 19 horas. Julio: de 10 a 15 horas.   Mercadillo de Modelismo : primer domingo de cada mes, de 10 a 15 horas (excepto agosto).   Mercado de Motores : segundo sabado y domingo del mes, de 11 a 21 horas. El Museo cierra en su actividad ordinaria.";"Metro: Delicias (linea 3)  Bus: 8, 19, 45, 47, 59, 85, 86  Renfe: Delicias";"";"1";"http://www.madrid.es/sites/v/index.jsp?vgnextchannel=9e4c43db40317010VgnVCM100000dc0ca8c0RCRD&vgnextoid=091c4291ae91f010VgnVCM2000000c205a0aRCRD";"DELICIAS";"PASEO";"V";"61";"";"";"";"";"MADRID";"MADRID";"28045";"DELICIAS";"ARGANZUELA";"441233";"4472625";"40.400281290485566";"-3.693817192160563";"902 228 822                                                                                                 
";"";"";"/contenido/entidadesYorganismos/MonumentosEdificiosArtisticos"; 
2058;"Museo del Prado";"Construido inicialmente como Museo de Ciencias Naturales, este edificio neoclasico fue transformado en pinacoteca de las Colecciones Reales en 1818 con colecciones de pintura, dibujos, grabados, monedas y medallas desde el Romanico hasta el siglo  XIX .";"De lunes a sabado de 10 a 20 horas  Domingos y festivos de 10 a 19 horas  Cerrado los dias 1 de enero, 1 de mayo y 25 de diciembre  Horario reducido, de 10 a 14 horas, los dias 6 de enero, 24 y 31 de diciembre  Acceso al museo hasta 30 minutos antes del cierre (el desalojo de las salas comienza 10 minutos antes del cierre)  Horario gratuito, de lunes a sabado de 18 a 20 horas y domingos y festivos de 17 a 19 horas";"Accesible a personas con discapacidad fisica  Audioguias tematicas y audioguia infantil  Itinerarios y visitas didacticas  Libreria  Tienda  Cafeteria  Restaurante  Guardarropa";"Metro: Atocha (linea 1), Banco de Espana (linea 2), Retiro (linea 2)  Bus: 9, 10, 14, 19, 27, 34, 37, 45  Renfe: Atocha";"Arquitecto : Juan de Villanueva (1785 - 1808)   Adecuacion : Antonio Lopez Aguado (1818 - 1831)   Ampliacion : Rafael Moneo (2000 - 2007)";"1";"http://www.madrid.es/sites/v/index.jsp?vgnextchannel=9e4c43db40317010VgnVCM100000dc0ca8c0RCRD&vgnextoid=060079262ef5d010VgnVCM1000000b205a0aRCRD";"RUIZ DE ALARCON";"CALLE";"V";"23";"";"";"";"";"MADRID";"MADRID";"28014";"LOS JERONIMOS";"RETIRO";"441456";"4474099";"40.41358458131178";"-3.691325445518223";"913 302 800";"";"";"/contenido/entidadesYorganismos/Museos"; 
2086;"Museo del Reloj Grassy";"Arquitecto : Eladio Laredo Carranza (1916 - 1917).  Fundado por el relojero frances Grassy en 1955, este museo narra la historia de este aparato de medicion. Sus fondos, coleccion privada, consta de una amplia y variada coleccion de diferentes nacionalidades y los mas variados estilos.";"Jueves a las 17:30 y viernes a las 11:45 horas (excepto festivos).  Las visitas se efectuan con cita previa   Inscripcion telefonica: 915 321 007  Inscripcion por correo electronico:  marta@grassy.es    La visita puede ser individual o en grupos de maximo 10 personas.";"";"Metro: Banco de Espana (linea 2), Gran Via (Lineas 1 y 5).  Bus: 1, 2, 3, 5, 9, 15, 20, 46, 51, 52, 53, 74, 146, 150, M1, M2.";"";"0";"http://www.madrid.es/sites/v/index.jsp?vgnextchannel=9e4c43db40317010VgnVCM100000dc0ca8c0RCRD&vgnextoid=daeaef4d7f71c010VgnVCM1000000b205a0aRCRD";"GRAN VIA";"CALLE";"V";"1";"";"";"";"";"MADRID";"MADRID";"28013";"CORTES";"CENTRO";"440889";"4474721";"40.41914770731552";"-3.69806583195521";"915 321 007";"";"marta@grassy.es";"/contenido/entidadesYorganismos/Museos"; 
7685664;"Museo del Robot";"El Museo del Robot  acerca de forma directa y real el mundo de los robots de entretenimiento a cualquier tipo de publico.";"Martes a viernes: 13, 17 y 20 horas  Sabados: 16:30, 17:30, 18:45, 20 horas  Lunes y domingos cerrado   Reservas online:  http://www.therobotmuseum.eu/reservar-online/   Reserva Presencial: The Robot Museum tiene  disponibles el 50% de las entradas  para adquirirlas de forma presencial";"Exposicion permanente  Visitas guiadas";"Metro: San Bernardo (lineas 2, 4), Quevedo (lineas 2), Arg&uuml;elles (lineas 3, 4, 6), Bilbao (lineas 1, 4)  Bus: 3, 21, 127, M2";"";"0";"http://www.madrid.es/sites/v/index.jsp?vgnextchannel=9e4c43db40317010VgnVCM100000dc0ca8c0RCRD&vgnextoid=e0b7b8dc8f719410VgnVCM1000000b205a0aRCRD";"ALBERTO AGUILERA";"CALLE";"V";"1";"BAJA";"";"";"";"MADRID";"MADRID";"28015";"UNIVERSIDAD";"CENTRO";"440151";"4475876";"40.42949061464909";"-3.7068731815207014";"914 478 808";"";"antencionalcliente@therobotmuseum.eu";"/contenido/entidadesYorganismos/Museos"; 
2059;"Museo del Romanticismo";"";"Horario de invierno  (de noviembre a abril)  De martes a sabado: de 9:30 a 18:30. Domingos y festivos: de 10 a 15 horas   Horario de verano  (de mayo a octubre)  De martes a sabado: de 9:30 a 20:30. Domingos y festivos: de 10 a 15 horas   Cerrado:  Todos los lunes, 1 y 6 de enero, 1 de mayo, 24, 25 y 31 de diciembre.";"Acceso para personas de movilidad reducida, Audioguias con audiodescripcion, Signoguias, Magnificadores, Bucle magnetico";"Metro: Tribunal (lineas 1, 10), Alonso Martinez (lineas 4, 5, 10)  Bus: 3, 37  Renfe: Recoletos";"Descripcion monumental   Construido para casa palacio del Marques de Montallana por el discipulo de Ventura Rodriguez, Manuel Martin Rodriguez, dentro de unas lineas clasicistas, tiene algunas leves reminiscencias del barroco, como las molduras en forma de orejeras en los balcones. Las estancias nobles se organizan en torno a dos patios cuadrados. Conserva un interesante jardin romantico.  En 1850 fue comprado por el Marques de la Puebla de Maestre. Tras albergar la Comisaria Regia de Turismo. En 1924 se convirtio en Museo Romantico y desde entonces ha sido restaurado e intervenido en diversas ocasiones con motivo de su funcionamiento como museo.  Tras nueve anos cerrado ha sido reformado y puesto a punto, en aplicacion de un plan museologico consistente en su renovacion, ampliando su ambito expresivo desde lo meramente literario hasta lo historico, politico, artistico y decorativo, para dar una vision de conjunto de esta etapa de la vida espanola.  Muestra la ambientacion de una casa romantica. Posee obras de los pintores mas importantes del siglo  XIX  (Goya, Madrazo y otros) junto a esculturas, muebles, porcelanas, abanicos y todo tipo de complementos decorativos que nos recuerdan la forma de vida de una familia burguesa del siglo  XIX .";"0";"http://www.madrid.es/sites/v/index.jsp?vgnextchannel=9e4c43db40317010VgnVCM100000dc0ca8c0RCRD&vgnextoid=706cef4d7f71c010VgnVCM1000000b205a0aRCRD";"SAN MATEO";"CALLE";"V";"13";"";"";"";"";"MADRID";"MADRID";"28004";"JUSTICIA";"CENTRO";"440834";"4475467";"40.42585510296794";"-3.6987835425963063";"914 481 045 / 914 480 163";"914 456 940";"informacion.romanticismo@mecd.es";"/contenido/entidadesYorganismos/Museos"; 
6337393;"Museo del Seguro. Fundacion Mapfre";"Ubicado en el edificio de Fundacion MAPFRE exhibe una amplia coleccion de piezas relacionadas con la historia de la actividad aseguradora desde el siglo  XVIII  hasta nuestros dias. Ofrece visitas guiadas y gratuitas para grupos.";"De lunes a Viernes previa peticion de hora.";"";"Metro: Colon (linea 4)  Bus: 5, 14, 21, 27, 37, 45, 53, 150  Renfe: Recoletos (Lineas C1, C2, C7, C8, C10)";"";"0";"http://www.madrid.es/sites/v/index.jsp?vgnextchannel=9e4c43db40317010VgnVCM100000dc0ca8c0RCRD&vgnextoid=479b95f8c72d5310VgnVCM2000000c205a0aRCRD";"BARBARA DE BRAGANZA";"CALLE";"V";"14";"";"";"";"";"MADRID";"MADRID";"28004";"JUSTICIA";"CENTRO";"441383";"4475174";"40.42326356132727";"-3.6922850587679505";"916 025 221 (para reservas)                                      
";"";"";"/contenido/entidadesYorganismos/Museos"; 
2115;"Museo del Traje. Centro de Investigacion del Patrimonio Etnologico (CIPE)";"Edificio de caracter monumental, construido por Jaime Lopez de Asiain en 1969. Su objetivo basico es promover el conocimiento de la evolucion historica de la indumentaria y de los testimonios del patrimonio etnologico representativos de las culturas de los pueblos de Espana.";"De martes a sabado de 9:30 a 19 horas. Domingos y festivos de 10 a 15 horas.  Verano (julio y agosto): los jueves se amplia el horario de 9: 30 a 22:30 horas.  Cerrado: todos los lunes, 1 y 6 de enero, 1 de mayo, 9 de noviembre, 24, 25 y 31 de diciembre.";"Visitas para grupos.  Conscientes de la multiplicidad de aspectos implicitos en la indumentaria, y de la diversidad de intereses de los visitantes, ofrecemos distintos tipos de visitas: Fortuny. El mago de los tejidos; Tecnologia textil: el primer paso para la moda; Mujer, moda y sociedad; Pasarela de creadores: el sistema de la moda desde la Alta Costura.   Visitas extraordinarias para grupos e individuales.  Con ellas queremos alcanzar un publico mas amplio, y explorar mas alla de las colecciones: personajes historicos, tardes de arquitectura, visitas a las exposiciones temporales y visitas especificas en sectores de publico como las personas con  discapacidad visual o auditiva . Son visitas comentadas que se desarrollan a modo de taller mas practico, pensadas para publico con discapacidad. Hay una oferta regular para visitantes con discapacidad visual:  La evolucion de la silueta y El mundo de los tejidos .   Dirigido a grupos de 15 a 20 personas, con  reserva previa . Horario: martes a las 10 horas; miercoles y viernes a las 12 horas; y jueves a las 10 y 17 horas.  Para participar en las visitas guiadas es necesario inscribirse previamente en el telefono  915 504 708  (de lunes a viernes de 10 a 15 horas) o por el email en  difusion.reservas.mt@mcu.es";"Metro: Ciudad Universitaria (linea 6)  Bus: 46, 82, 83, 132, 133, 160, 161, 162, G, U";"";"1";"http://www.madrid.es/sites/v/index.jsp?vgnextchannel=9e4c43db40317010VgnVCM100000dc0ca8c0RCRD&vgnextoid=053c4291ae91f010VgnVCM2000000c205a0aRCRD";"JUAN DE HERRERA";"AVENIDA";"V";"2";"";"";"";"";"MADRID";"MADRID";"28040";"CIUDAD UNIVERSITARIA";"MONCLOA-ARAVACA";"438382";"4477019";"40.439657822278555";"-3.7278378564088275";"915 504 700 ";"915 446 970";"museodeltraje@mecd.es";"/contenido/entidadesYorganismos/Museos"; 
2062;"Palacio Real";"Construido sobre el solar del antiguo Alcazar tras un incendio en 1734. Proyectado por Juvara en 1735 y construido por Sachet de 1738 a 1764 bajo las influencias del clasicismo barroco. A partir de 1770, Sabatini anadio el ala sudeste y realizo la gran escalera. Es de destacar el gran patio que articula el edificio y la fachada principal que aloja el balcon y Escudo Real.";"Horario    De octubre a marzo: de 10 a 18 horas  De abril a septiembre: de 10 a 20 horas  Cierre taquillas una hora antes  Dia 14 de junio de 2017 cerrado a las 15 horas  Dia 15 de junio de 2017 cerrado en jornada completa";"Relevo solemne de la guardia  : primer miercoles de cada mes (si la climatologia lo permite) a las 12 horas, en la Plaza de la Armeria. Ademas se producira un cambio de guardia reducido el resto de miercoles del mes  de 11 a 14 horas (julio y agosto, de 10 a 12 horas), en la Puerta del Principe (Plaza de Oriente).   Sin relevo solemne: en julio, agosto y septiembre ni cuando coincide con actos oficiales";"Metro: opera (lineas 2, 5 y Ramal Opera Norte)  Bus: 3, 25, 39, 148";"Dias de apertura especial para 2017    20 de marzo, lunes siguiente a San Jose  13 y 14 abril, Jueves y Viernes Santo  2 de mayo, Fiesta del Trabajo  15 de mayo,  San Isidro, fiesta local  15 de agosto, Asuncion de la Virgen   12 de octubre, Fiesta Nacional de Espana (acto oficial cerrado, abierto de 17 a 22 horas)   1 de noviembre, Dia de Todos los Santos  9 de noviembre, Nuestra Senora de la Almudena, fiesta local  6 de diciembre, Constitucion Espanola  8 de diciembre, Inmaculada Concepcion  24 y 31 de diciembre, taquillas cerradas a las 14 horas y monumento a las 15 horas    Dias de cierre para 2017    1 y 6 Enero  1 Mayo  7 Junio, cerrado todo el dia.  8 Junio, cerrado a las 16 horas.  25 Diciembre  5 de abril, el Palacio Real de Madrid permanecera cerrado hasta las 14:30 horas., debido al Relevo Solemne de la Guardia Real.  Con motivo de la celebracion de un Acto Oficial el dia 18 de julio, el Palacio Real de Madrid permanecera cerrado:  17 de julio:  Salones Oficiales , cerrados desde las 15 horas.  Armeria y Exposicion temporal , apertura parcial a partir de las 15.00 horas.  18 de julio:  Salones Oficiales,  cerrados todo el dia.  Armeria y Exposicion temporal , apertura parcial a partir de las 15 horas";"1";"http://www.madrid.es/sites/v/index.jsp?vgnextchannel=9e4c43db40317010VgnVCM100000dc0ca8c0RCRD&vgnextoid=47ddef4d7f71c010VgnVCM1000000b205a0aRCRD";"BAILEN";"CALLE";"V";"0";"";"";"";"";"MADRID";"MADRID";"28013";"PALACIO";"CENTRO";"439649";"4474910";"40.42075212551193";"-3.712699107286406";"914 548 700 (Informacion general)";"";"info@patrimonionacional.es";"/contenido/entidadesYorganismos/MonumentosEdificiosArtisticos"; 
2063;"Palacio de Liria";"Construido por Ventura Rodriguez entre 1762 y 1780 para el tercer Duque de Berwick y de Liria. De estilo barroco clasico. Destaca su fachada con columnas jonicas y pilastras que descansan sobre un basamento almohadillado.";"Las visitas:  viernes a las 10, 11 y 12 horas . Cada turno estara formado por un maximo de 15 personas.";"";"Metro: Ventura Rodriguez (linea 3)  Bus: 1, 2, 44, 74, 133, C";"Para realizar dichas visitas deberan solicitarlo por escrito y enviarlo a traves de cualquiera de las siguientes opciones:   Rellenando un formulario en :  http://www.fundacioncasadealba.com/visitas-al-palacio-de-liria-de-madrid.php   Enviando un e-mail a visitas@fundacioncasadealba.com, indicando nombre, telefono y numero de personas.  Enviando un fax al numero +0034 915 410 377, indicando nombre, telefono y numero de personas.  Enviando una carta a la siguiente direccion: Fundacion Casa de Alba. C/ Princesa 20. 28008 Madrid  Llamando al siguiente numero de telefono: +0034 915 481 550    Horario:  Tambien les informamos que cada ano, el palacio de Liria permanece cerrado al publico desde mediados de junio hasta el primer viernes de octubre, y desde mediados de diciembre a mediados de enero, debido a las necesarias tareas de mantenimiento y conservacion del mismo.   Cerrado por mantenimiento de mediados de junio al primer viernes de octubre, y de mediados de diciembre a mediados de enero.";"0";"http://www.madrid.es/sites/v/index.jsp?vgnextchannel=9e4c43db40317010VgnVCM100000dc0ca8c0RCRD&vgnextoid=22bdef4d7f71c010VgnVCM1000000b205a0aRCRD";"PRINCESA";"CALLE";"V";"20";"";"";"";"";"MADRID";"MADRID";"28008";"UNIVERSIDAD";"CENTRO";"439663";"4475582";"40.42680681645222";"-3.7125979731032404";"915 475 302 y 915 481 550";"915 410 377";"info@fundacioncasadealba.com";"/contenido/entidadesYorganismos/MonumentosEdificiosArtisticos"; 
2079;"Panteon de Hombres Ilustres";"La construccion de este edificio responde a dos de las constantes de fines de siglo: la arquitectura historicista y la escultura funeraria. En el reposan trece personajes ilustres de la historia politica y militar espanola.";"De martes a sabado de 10 a 14 y de 16 a 18:30 horas  Domingos y festivos de 10 a 15 horas. Lunes cerrado  Cerrado todos los lunes del ano";"";"Metro: Atocha (linea 1)  Bus: 10, 14, 24, 32, 37, 54, 57, 141  Renfe: Atocha";"Dias de apertura especial para 2017 (abierno horario domingo)    20 de marzo, lunes siguiente a San Jose  13 y 14 de abril, Jueves y Viernes Santo  2 de mayo, Fiesta de la Comunidad de Madrid  15 de mayo, San Isidro, fiesta local   15 de agosto, Asuncion de la Virgen   12 de octubre, Fiesta Nacional de Espana   1 de noviembre, Dia de Todos los Santos   9 de noviembre, Nuestra Senora de la Almudena, fiesta local   6 de diciembre, Constitucion Espanola   8 de diciembre, Inmaculada Concepcion  24 y 31 de diciembre y 1 de enero, ultimo acceso a las 14:30 horas y monumento cerrado a las 15 horas    Dias de cierre para 2017     6 de enero, Epifania del Senor (Reyes Magos)    1 de mayo, Fiesta del Trabajo   25 de diciembre, Natividad del Senor";"0";"http://www.madrid.es/sites/v/index.jsp?vgnextchannel=9e4c43db40317010VgnVCM100000dc0ca8c0RCRD&vgnextoid=361cef4d7f71c010VgnVCM1000000b205a0aRCRD";"JULIAN GAYARRE";"CALLE";"V";"3";"";"";"";"";"MADRID";"MADRID";"28014";"PACIFICO";"RETIRO";"442121";"4473278";"40.40622617519116";"-3.683413041846525";"914 548 700 (Informacion general)";"";"info@patrimonionacional.es";"/contenido/entidadesYorganismos/MonumentosEdificiosArtisticos"; 
3362;"Parroquia Santa Cruz";"";"";"";"Metro: Sol (lineas 1, 2, 3), Tirso de Molina (linea 1)  Bus: 3, 6, 17, 18, 23, 26, 31, 32, 35, 50, 65, M1  Renfe: Sol";"";"0";"http://www.madrid.es/sites/v/index.jsp?vgnextchannel=9e4c43db40317010VgnVCM100000dc0ca8c0RCRD&vgnextoid=40e0b069a541f010VgnVCM1000000b205a0aRCRD";"ATOCHA";"CALLE";"V";"6";"";"";"";"";"MADRID";"MADRID";"28012";"SOL";"CENTRO";"440274";"4474223";"40.414608558946085";"-3.705255882048698";"913 691 239";"";"";"/contenido/entidadesYorganismos/MonumentosEdificiosArtisticos"; 
2213;"Planetario de Madrid";"Inaugurado el 29 de septiembre de 1986, es un centro dependiente del area de Cultura y Deportes del Ayuntamiento de Madrid.  Siempre con el fin de contribuir a la difusion de la astronomia y de la ciencia en general, tanto entre escolares como entre el publico de cualquier edad y condicion, posee una variada oferta de proyecciones audiovisuales, exposiciones y actividades (talleres, cursos, conferencias, observaciones publicas...).  Las proyecciones que se ofrecen en el Planetario de Madrid se renuevan periodicamente, y tienen una duracion aproximada de 45 minutos.  Existen dos programaciones basicas diferentes: una activa durante el verano y epoca de vacaciones escolares, y otra durante el curso escolar. Durante el curso escolar, las proyecciones de las mananas de los dias lectivos se reservan a escolares.";"EN LA ACTUALIDAD, CERRADO PARA PROCEDER A SU RENOVACIoN TECNOLoGICA.";"Sala de Proyeccion  Pantalla de Retroproyeccion  Sala de exposiciones (exterior)  Sala de Astronomos  Sala de Video";"Metro: Mendez alvaro (linea 6)  Bus: 148, 156";"";"0";"http://www.madrid.es/sites/v/index.jsp?vgnextchannel=9e4c43db40317010VgnVCM100000dc0ca8c0RCRD&vgnextoid=c9c5b069a541f010VgnVCM1000000b205a0aRCRD";"PLANETARIO";"AVENIDA";"V";"16";"";"";"";"";"MADRID";"MADRID";"28045";"LEGAZPI";"ARGANZUELA";"441977";"4471730";"40.39227092120195";"-3.684968648157021";"914 673 461 (reserva grupos)                                                                                                                                                                                                                                                                                                                                                                                                                                               
914 673 898 (contestador automatico de informacion)";"";"buzon@planetmad.es";"/contenido/entidadesYorganismos/Planetarios"; 
3359;"Real Basilica San Francisco el Grande";"Conjunto conventual que sustituyo al monasterio franciscano medieval, construido por Francisco de las Cabezas entre 1761 y 1768, que fue relevado por Antonio Polo y que concluye Francisco Sabatini en 1784 donde se exponen colecciones de pinturas de los siglos  XVII  al  XIX.";"Museo:     De martes a viernes de 10:30 a 12:30 y de 16 a 18 horas  Sabados de 10:30 a 12:30 y de 16 a 18 horas (si no se ofician actos religiosos).  Julio, agosto y septiembre: de martes a domingo de 10:30 a 12:30 y de 17 a 19 horas.";"";"Metro: La Latina (linea 5) , Puerta de Toledo (linea 5)  Bus:  3, 17, 18, 23, 31, 35, 36, 41, 50, 60, 65, 148, 749, C1, C2";"";"0";"http://www.madrid.es/sites/v/index.jsp?vgnextchannel=9e4c43db40317010VgnVCM100000dc0ca8c0RCRD&vgnextoid=ef8d0713fb71c010VgnVCM1000000b205a0aRCRD";"SAN BUENAVENTURA";"CALLE";"V";"1";"";"";"";"";"MADRID";"MADRID";"28005";"PALACIO";"CENTRO";"439487";"4473811";"40.41084005024222";"-3.714503845728281";"913 653 800 ";"";"";"/contenido/entidadesYorganismos/MonumentosEdificiosArtisticos"; 
2087;"Real Fabrica de Tapices";"";"De lunes a viernes de 10 a 14 horas.  Cerrado: sabados, domingos, festivos, Semana Santa y agosto.";"";"Metro: Menendez Pelayo (linea 1)  Bus: 10, 14, 26, 32, C";"";"0";"http://www.madrid.es/sites/v/index.jsp?vgnextchannel=9e4c43db40317010VgnVCM100000dc0ca8c0RCRD&vgnextoid=53cbff632081c010VgnVCM1000000b205a0aRCRD";"FUENTERRABIA";"CALLE";"V";"2";"";"";"";"";"MADRID";"MADRID";"28014";"PACIFICO";"RETIRO";"442197";"4473262";"40.406087329011655";"-3.682515969574079";"914 340 550";"915 513 409";"informacion@realfabricadetapices.com";"/contenido/entidadesYorganismos/MonumentosEdificiosArtisticos"; 
4707297;"Real Monasterio de Santa Isabel";"El Real Monasterio de Santa Isabel esta situado en Madrid, dentro de la ciudad historica, en una gran manzana, proxima a Atocha.  Santa Isabel agrupa dos fundaciones, un colegio de ninas, establecido por Felipe  II , y un convento de clausura de monjas agustinas recoletas, fundado por la esposa de Felipe  III , dona Margarita de Austria.  La arquitectura de la iglesia se debe a Gomez de Mora, de mediados del siglo  XVIII . En la clausura se conservan numerosas obras pictoricas de los siglos  XVII  y  XVIII .";"El acceso al templo solo es posible en horario de culto y por la fachada principal.";"";"Metro: Atocha (linea 1)  Bus: 6, 19, 26, 27, 32, 34, 45, 59, 85, 86, C1, E1  Renfe: Atocha";"";"0";"http://www.madrid.es/sites/v/index.jsp?vgnextchannel=9e4c43db40317010VgnVCM100000dc0ca8c0RCRD&vgnextoid=545b544a249c6110VgnVCM1000000b205a0aRCRD";"SANTA ISABEL";"CALLE";"V";"48";"";"";"";"";"MADRID";"MADRID";"28012";"EMBAJADORES";"CENTRO";"440765";"4473944";"40.41213027498252";"-3.6994547941964946";"914 548 700 (Informacion general)";"";"info@patrimonionacional.es";"/contenido/entidadesYorganismos/MonumentosEdificiosArtisticos"; 
3349;"Real Monasterio de la Encarnacion";"Edificio construido por Juan Gomez de Mora de 1611 a 1616 como monasterio anejo al Alcazar Real, modelo de lo que se ha dado en llamar barroco madrileno. Cuenta con la reliquia de San Pantaleon.";"De martes a sabado: de 10 a 14 horas y de 16 a 18:30 horas  Domingos y festivos: de 10 a 15 horas. Tardes cerrado  Cierre taquillas: una hora antes  Cerrado todos los lunes del ano";"";"Metro:  opera (lineas 2, 5 y Ramal opera Principe Pio), Plaza de Espana (lineas 3, 10)  Bus:  1, 2, 3, 25, 39, 44, 46, 74, 75, 133, 138, 147, 148, C1, C2";"";"1";"http://www.madrid.es/sites/v/index.jsp?vgnextchannel=9e4c43db40317010VgnVCM100000dc0ca8c0RCRD&vgnextoid=72ad0713fb71c010VgnVCM1000000b205a0aRCRD";"ENCARNACION";"PLAZA";"V";"1";"";"";"";"";"MADRID";"MADRID";"28013";"PALACIO";"CENTRO";"439744";"4474790";"40.41967800877382";"-3.711567962866152";"914 548 700 (Informacion general)";"";"info@patrimonionacional.es";"/contenido/entidadesYorganismos/MonumentosEdificiosArtisticos"; 
2061;"Real Sitio de El Pardo";"Recinto en el que se conserva el Palacio, construido sobre el castillo del siglo  XV , la Casita del Principe, del siglo  XVIII  y la Quinta del Duque de Arco (Palacete que fue Casa de Labor y sus tierras). Desde 1983 ha sido adecuado para residencia de Jefes de Estado extranjeros en visita oficial.";"Horario    De octubre a marzo: todos los dias de 10 a 18 horas   De abril a septiembre: todos los dias de 10 a 20 horas    Dia 15 y 16 de junio de 2017, cerrado los dos dias";"El palacio dispone de dos helipuertos, uno civil y otro militar";"Bus: 601 (Madrid - Colonia Mingorrubio)";"Dias de apertura especial para 2017    24 de marzo, Jueves Santo  25 de marzo, Viernes Santo  2 de mayo, compensancion de la Fiesta del Trabajo  16 de mayo, compensancion de San Isidro, fiesta local  25 de julio, Santiago Apostol  15 de agosto, Asuncion de la Virgen  12 de octubre, Fiesta Nacional de Espana  1 de noviembre, Dia de Todos los Santos  9 de noviembre, Nuestra Senora de la Almudena, fiesta local  6 de diciembre, Constitucion Espanola  8 de diciembre, Inmaculada Concepcion  26 de diciembre, compensacion Natividad del Senor    Dias de cierre para 2017    1  y 6 de enero  21 de marzo cerrado a las 15 horas  22 de marzo cerrado en jornada completa   1 de mayo, Fiesta del Trabajo   7de junio, cerrado a las 15 horas.  8 de junio, cerrado todo el dia.  5 y 16 de junio, cerrado los dos dias  24, 25 y 31 de diciembre.    Aperturas especiales 2017 :   20 marzo, lunes siguiente a San Jose  13 y 14 abril, Jueves y Viernes Santo  2 mayo, Fiesta de la Comunidad de Madrid  15 de mayo, San Isidro, fiesta local  15 agosto, Asuncion de la Virgen  12 de octubre, Fiesta Nacional  1 noviembre, Todos los Santos  9 noviembre, Nuestra Senora de la Almudena, fiesta local  6 diciembre, Constitucion Espanola  8 diciembre, Inmaculada Concepcion    Servicio de reserva y venta de entradas    Telefono de venta y reserva: 902 044 454  Telefono de soporte tecnico: 902 044 414  Email de soporte:  correo@entradaspatrimonio.es    Pagina web";"1";"http://www.madrid.es/sites/v/index.jsp?vgnextchannel=9e4c43db40317010VgnVCM100000dc0ca8c0RCRD&vgnextoid=9f9def4d7f71c010VgnVCM1000000b205a0aRCRD";"MANUEL ALONSO";"CALLE";"V";"8";"";"";"";"";"MADRID";"MADRID";"28048";"EL PARDO";"FUENCARRAL-EL PARDO";"434356";"4486030";"40.520522342970146";"-3.7762390614462853";"914 548 700 (Informacion general)";"";"info@patrimonionacional.es";"/contenido/entidadesYorganismos/MonumentosEdificiosArtisticos"; 
20605;"Templo de Debod";"Templo egipcio dedicado a Amon de Debod y a Isis, construido entre 185  a. de C.  y el siglo  I  de la Era. Fue donado por Egipto a Espana en 1968, en agradecimiento por la ayuda en el salvamento de los templos de Abu Simbel.";"De martes a domingos y festivos: de 10:00 a 20:00 horas   El templo permanece cerrado los lunes y los dias 1 y 6 de enero, 1 de mayo, 24, 25 y 31 de diciembre.   ultimo pase de visita 15 minutos antes del cierre.  Este horario y la apertura de salas pueden sufrir modificaciones, por favor, confirmelo en el telefono de informacion del museo.";"No cuenta con accesos adaptados para minusvalidos   Exposicion permanente : Debod un templo ptolemaico  Actividades didacticas: talleres para grupos escolares, talleres de profesores, talleres para familias.  Se pueden realizar fotografias o grabaciones de video libremente en el exterior o en el interior del templo, siempre y cuando no se utilicen flash o tripode y su fin no sea comercial.";"Metro:  Plaza de Espana (lineas 3 y 10) y Ventura Rodriguez (linea 3)   Autobus    Linea 74 (paradas en la calle Ferraz, frente al Templo, y en la calle Pintor Rosales)  Lineas 25, 39, 46, 75, 138 y C1 (parada en Cuesta de San Vicente-Cadarso)  Lineas 3, 44, 133, 148 y C2 (parada en Plaza de Espana)  Lineas 1, 2, 74 (parada en Princesa-Ventura Rodriguez)    Renfe:  Principe Pio  Bus turistico:  Ruta 1. PARADA 10 - Templo de Debod   Otras formas de acceso:    Aparcamiento de coches: dentro del area de Estacionamiento Regulado de la ciudad de Madrid.   BiciMAD (Servicio publico de bicicletas de la ciudad de Madrid): Estacion en calle Evaristo San Miguel s/n. (entre P&ordm;.  Pintor Rosales y calle Ferraz)";"";"0";"http://www.madrid.es/sites/v/index.jsp?vgnextchannel=9e4c43db40317010VgnVCM100000dc0ca8c0RCRD&vgnextoid=13b432df1d51c010VgnVCM2000000c205a0aRCRD";"FERRAZ";"CALLE";"V";"1";"";"";"";"";"MADRID";"MADRID";"28008";"CASA DE CAMPO";"MONCLOA-ARAVACA";"439327";"4475301";"40.42425096551599";"-3.716531855540272";"913 667 415 (Museo de San Isidro / Templo de Debod)";"";"templodebod@madrid.es";"/contenido/entidadesYorganismos/MonumentosEdificiosArtisticos"; 
7071384;"Yacimiento paleontologico. Estacion de Metro Carpetana";"";"Visitas todos los dias durante la apertura de la estacion, de 6 a 1:30 horas";"";"";"Yacimiento paleontologico en la estacion de Carpetana    Durante las obras de remodelacion de la estacion de Carpetana se descubrieron restos paleontologicos con valiosos hallazgos del mioceno lo que ha hecho posible una reconstruccion de los paleoambientes en dos yacimientos verticales.   El primero de los espacios, cuenta con un panel en vinilo con imagenes que representan el paleoambiente existente hace mas de 15 millones de anos con restos mayoritariamente correspondientes a mastodontes de la especie Gonphotherium aungustidens. Ademas, en esta misma zona expositiva, se ha incluido una reconstruccion de un ciervo denominado Heteroprox con los ambientes y especies vegetales existentes entonces en Carpetana, ya que se han podido conocer gracias a los fosiles de polen y animales recuperados en la excavacion.   El segundo espacio recrea el paleoambiente de hace aproximadamente 14 millones de anos, y se encuentran representados algunas faunas halladas en las excavaciones como el oso - perro, el oso - lobo, un felino situado en la parte superior de un arbol, una tortuga gigante, rinocerontes y un jabali.";"1";"http://www.madrid.es/sites/v/index.jsp?vgnextchannel=9e4c43db40317010VgnVCM100000dc0ca8c0RCRD&vgnextoid=05fbb57fd3c70410VgnVCM1000000b205a0aRCRD";"VIA CARPETANA";"CALLE";"V";"328";"";"";"";"";"MADRID";"MADRID";"28047";"ALUCHE";"LATINA";"437061";"4471685";"40.39150793405899";"-3.7428839286586184";"902 444 403 (Informacion)";"";"";"/contenido/entidadesYorganismos/Museos"; 
